<?xml version="1.0" encoding="UTF-8" standalone="no" ?>
<TrainingCenterDatabase xmlns="http://www.garmin.com/xmlschemas/TrainingCenterDatabase/v2" xmlns:xsi="http://www.w3.org/2001/XMLSchema-instance" xsi:schemaLocation="http://www.garmin.com/xmlschemas/TrainingCenterDatabase/v2 http://www.garmin.com/xmlschemas/TrainingCenterDatabasev2.xsd">
  <Activities>
    <Activity Sport="Other">
      <Id>2025-01-04T02:44:01Z</Id>
      <Notes>健走</Notes>
      <Lap StartTime="2025-01-04T02:44:01Z">
        <TotalTimeSeconds>8975</TotalTimeSeconds>
        <DistanceMeters>7040</DistanceMeters>
        <Calories>898</Calories>
        <AverageHeartRateBpm>
          <Value>94</Value>
        </AverageHeartRateBpm>
        <MaximumHeartRateBpm>
          <Value>143</Value>
        </MaximumHeartRateBpm>
        <Intensity>Active</Intensity>
        <TriggerMethod>Manual</TriggerMethod>	  <Track>
        <Trackpoint>
          <Time>2025-01-04T02:44:01Z</Time>
              <Position>
                  <LatitudeDegrees>31.33893283</LatitudeDegrees>
                  <LongitudeDegrees>102.95891202</LongitudeDegrees>
              </Position>
          <AltitudeMeters>2908</AltitudeMeters>
          <DistanceMeters>0.0</DistanceMeters>
          <HeartRateBpm>
            <Value>100</Value>
          </HeartRateBpm>
          <SensorState>Absent</SensorState>
        </Trackpoint>
        <Trackpoint>
          <Time>2025-01-04T02:44:05Z</Time>
              <Position>
                  <LatitudeDegrees>31.33892776</LatitudeDegrees>
                  <LongitudeDegrees>102.95891095</LongitudeDegrees>
              </Position>
          <AltitudeMeters>2909</AltitudeMeters>
          <DistanceMeters>1.0</DistanceMeters>
          <HeartRateBpm>
            <Value>100</Value>
          </HeartRateBpm>
          <SensorState>Absent</SensorState>
        </Trackpoint>
        <Trackpoint>
          <Time>2025-01-04T02:44:06Z</Time>
              <Position>
                  <LatitudeDegrees>31.33892521</LatitudeDegrees>
                  <LongitudeDegrees>102.95888267</LongitudeDegrees>
              </Position>
          <AltitudeMeters>2908</AltitudeMeters>
          <DistanceMeters>4.0</DistanceMeters>
          <HeartRateBpm>
            <Value>101</Value>
          </HeartRateBpm>
          <SensorState>Absent</SensorState>
        </Trackpoint>
        <Trackpoint>
          <Time>2025-01-04T02:44:07Z</Time>
              <Position>
                  <LatitudeDegrees>31.33892587</LatitudeDegrees>
                  <LongitudeDegrees>102.95888176</LongitudeDegrees>
              </Position>
          <AltitudeMeters>2908</AltitudeMeters>
          <DistanceMeters>4.0</DistanceMeters>
          <HeartRateBpm>
            <Value>101</Value>
          </HeartRateBpm>
          <SensorState>Absent</SensorState>
        </Trackpoint>
        <Trackpoint>
          <Time>2025-01-04T02:44:08Z</Time>
              <Position>
                  <LatitudeDegrees>31.33892605</LatitudeDegrees>
                  <LongitudeDegrees>102.95888228</LongitudeDegrees>
              </Position>
          <AltitudeMeters>2907</AltitudeMeters>
          <DistanceMeters>4.0</DistanceMeters>
          <HeartRateBpm>
            <Value>102</Value>
          </HeartRateBpm>
          <SensorState>Absent</SensorState>
        </Trackpoint>
        <Trackpoint>
          <Time>2025-01-04T02:44:09Z</Time>
              <Position>
                  <LatitudeDegrees>31.33892584</LatitudeDegrees>
                  <LongitudeDegrees>102.9588853</LongitudeDegrees>
              </Position>
          <AltitudeMeters>2907</AltitudeMeters>
          <DistanceMeters>4.0</DistanceMeters>
          <HeartRateBpm>
            <Value>102</Value>
          </HeartRateBpm>
          <SensorState>Absent</SensorState>
        </Trackpoint>
        <Trackpoint>
          <Time>2025-01-04T02:44:10Z</Time>
              <Position>
                  <LatitudeDegrees>31.33892768</LatitudeDegrees>
                  <LongitudeDegrees>102.95888404</LongitudeDegrees>
              </Position>
          <AltitudeMeters>2905</AltitudeMeters>
          <DistanceMeters>4.0</DistanceMeters>
          <HeartRateBpm>
            <Value>102</Value>
          </HeartRateBpm>
          <SensorState>Absent</SensorState>
        </Trackpoint>
        <Trackpoint>
          <Time>2025-01-04T02:44:11Z</Time>
              <Position>
                  <LatitudeDegrees>31.33892663</LatitudeDegrees>
                  <LongitudeDegrees>102.95888478</LongitudeDegrees>
              </Position>
          <AltitudeMeters>2906</AltitudeMeters>
          <DistanceMeters>4.0</DistanceMeters>
          <HeartRateBpm>
            <Value>102</Value>
          </HeartRateBpm>
          <SensorState>Absent</SensorState>
        </Trackpoint>
        <Trackpoint>
          <Time>2025-01-04T02:44:12Z</Time>
              <Position>
                  <LatitudeDegrees>31.33892357</LatitudeDegrees>
                  <LongitudeDegrees>102.95888103</LongitudeDegrees>
              </Position>
          <AltitudeMeters>2906</AltitudeMeters>
          <DistanceMeters>4.0</DistanceMeters>
          <HeartRateBpm>
            <Value>102</Value>
          </HeartRateBpm>
          <SensorState>Absent</SensorState>
        </Trackpoint>
        <Trackpoint>
          <Time>2025-01-04T02:44:13Z</Time>
              <Position>
                  <LatitudeDegrees>31.33892073</LatitudeDegrees>
                  <LongitudeDegrees>102.9588806</LongitudeDegrees>
              </Position>
          <AltitudeMeters>2905</AltitudeMeters>
          <DistanceMeters>4.0</DistanceMeters>
          <HeartRateBpm>
            <Value>102</Value>
          </HeartRateBpm>
          <SensorState>Absent</SensorState>
        </Trackpoint>
        <Trackpoint>
          <Time>2025-01-04T02:44:14Z</Time>
              <Position>
                  <LatitudeDegrees>31.33891762</LatitudeDegrees>
                  <LongitudeDegrees>102.95888501</LongitudeDegrees>
              </Position>
          <AltitudeMeters>2906</AltitudeMeters>
          <DistanceMeters>5.0</DistanceMeters>
          <HeartRateBpm>
            <Value>102</Value>
          </HeartRateBpm>
          <SensorState>Absent</SensorState>
        </Trackpoint>
        <Trackpoint>
          <Time>2025-01-04T02:44:15Z</Time>
              <Position>
                  <LatitudeDegrees>31.33891722</LatitudeDegrees>
                  <LongitudeDegrees>102.9588827</LongitudeDegrees>
              </Position>
          <AltitudeMeters>2905</AltitudeMeters>
          <DistanceMeters>5.0</DistanceMeters>
          <HeartRateBpm>
            <Value>102</Value>
          </HeartRateBpm>
          <SensorState>Absent</SensorState>
        </Trackpoint>
        <Trackpoint>
          <Time>2025-01-04T02:44:16Z</Time>
              <Position>
                  <LatitudeDegrees>31.33891929</LatitudeDegrees>
                  <LongitudeDegrees>102.95888271</LongitudeDegrees>
              </Position>
          <AltitudeMeters>2905</AltitudeMeters>
          <DistanceMeters>5.0</DistanceMeters>
          <HeartRateBpm>
            <Value>102</Value>
          </HeartRateBpm>
          <SensorState>Absent</SensorState>
        </Trackpoint>
        <Trackpoint>
          <Time>2025-01-04T02:44:17Z</Time>
              <Position>
                  <LatitudeDegrees>31.33892065</LatitudeDegrees>
                  <LongitudeDegrees>102.95888594</LongitudeDegrees>
              </Position>
          <AltitudeMeters>2906</AltitudeMeters>
          <DistanceMeters>5.0</DistanceMeters>
          <HeartRateBpm>
            <Value>102</Value>
          </HeartRateBpm>
          <SensorState>Absent</SensorState>
        </Trackpoint>
        <Trackpoint>
          <Time>2025-01-04T02:44:18Z</Time>
              <Position>
                  <LatitudeDegrees>31.33892311</LatitudeDegrees>
                  <LongitudeDegrees>102.95888326</LongitudeDegrees>
              </Position>
          <AltitudeMeters>2906</AltitudeMeters>
          <DistanceMeters>5.0</DistanceMeters>
          <HeartRateBpm>
            <Value>102</Value>
          </HeartRateBpm>
          <SensorState>Absent</SensorState>
        </Trackpoint>
        <Trackpoint>
          <Time>2025-01-04T02:44:19Z</Time>
              <Position>
                  <LatitudeDegrees>31.33892332</LatitudeDegrees>
                  <LongitudeDegrees>102.95887374</LongitudeDegrees>
              </Position>
          <AltitudeMeters>2906</AltitudeMeters>
          <DistanceMeters>6.0</DistanceMeters>
          <HeartRateBpm>
            <Value>102</Value>
          </HeartRateBpm>
          <SensorState>Absent</SensorState>
        </Trackpoint>
        <Trackpoint>
          <Time>2025-01-04T02:44:20Z</Time>
              <Position>
                  <LatitudeDegrees>31.33892144</LatitudeDegrees>
                  <LongitudeDegrees>102.95886407</LongitudeDegrees>
              </Position>
          <AltitudeMeters>2907</AltitudeMeters>
          <DistanceMeters>7.0</DistanceMeters>
          <HeartRateBpm>
            <Value>103</Value>
          </HeartRateBpm>
          <SensorState>Absent</SensorState>
        </Trackpoint>
        <Trackpoint>
          <Time>2025-01-04T02:44:21Z</Time>
              <Position>
                  <LatitudeDegrees>31.33891445</LatitudeDegrees>
                  <LongitudeDegrees>102.95885915</LongitudeDegrees>
              </Position>
          <AltitudeMeters>2906</AltitudeMeters>
          <DistanceMeters>8.0</DistanceMeters>
          <HeartRateBpm>
            <Value>103</Value>
          </HeartRateBpm>
          <SensorState>Absent</SensorState>
        </Trackpoint>
        <Trackpoint>
          <Time>2025-01-04T02:44:22Z</Time>
              <Position>
                  <LatitudeDegrees>31.33890679</LatitudeDegrees>
                  <LongitudeDegrees>102.95886092</LongitudeDegrees>
              </Position>
          <AltitudeMeters>2905</AltitudeMeters>
          <DistanceMeters>9.0</DistanceMeters>
          <HeartRateBpm>
            <Value>103</Value>
          </HeartRateBpm>
          <SensorState>Absent</SensorState>
        </Trackpoint>
        <Trackpoint>
          <Time>2025-01-04T02:44:23Z</Time>
              <Position>
                  <LatitudeDegrees>31.33890302</LatitudeDegrees>
                  <LongitudeDegrees>102.95886193</LongitudeDegrees>
              </Position>
          <AltitudeMeters>2904</AltitudeMeters>
          <DistanceMeters>9.0</DistanceMeters>
          <HeartRateBpm>
            <Value>103</Value>
          </HeartRateBpm>
          <SensorState>Absent</SensorState>
        </Trackpoint>
        <Trackpoint>
          <Time>2025-01-04T02:44:24Z</Time>
              <Position>
                  <LatitudeDegrees>31.33889926</LatitudeDegrees>
                  <LongitudeDegrees>102.95886163</LongitudeDegrees>
              </Position>
          <AltitudeMeters>2904</AltitudeMeters>
          <DistanceMeters>9.0</DistanceMeters>
          <HeartRateBpm>
            <Value>102</Value>
          </HeartRateBpm>
          <SensorState>Absent</SensorState>
        </Trackpoint>
        <Trackpoint>
          <Time>2025-01-04T02:44:25Z</Time>
              <Position>
                  <LatitudeDegrees>31.33889763</LatitudeDegrees>
                  <LongitudeDegrees>102.95885934</LongitudeDegrees>
              </Position>
          <AltitudeMeters>2903</AltitudeMeters>
          <DistanceMeters>9.0</DistanceMeters>
          <HeartRateBpm>
            <Value>102</Value>
          </HeartRateBpm>
          <SensorState>Absent</SensorState>
        </Trackpoint>
        <Trackpoint>
          <Time>2025-01-04T02:44:26Z</Time>
              <Position>
                  <LatitudeDegrees>31.33889747</LatitudeDegrees>
                  <LongitudeDegrees>102.95885784</LongitudeDegrees>
              </Position>
          <AltitudeMeters>2903</AltitudeMeters>
          <DistanceMeters>9.0</DistanceMeters>
          <HeartRateBpm>
            <Value>102</Value>
          </HeartRateBpm>
          <SensorState>Absent</SensorState>
        </Trackpoint>
        <Trackpoint>
          <Time>2025-01-04T02:44:27Z</Time>
              <Position>
                  <LatitudeDegrees>31.33889908</LatitudeDegrees>
                  <LongitudeDegrees>102.95885616</LongitudeDegrees>
              </Position>
          <AltitudeMeters>2903</AltitudeMeters>
          <DistanceMeters>9.0</DistanceMeters>
          <HeartRateBpm>
            <Value>102</Value>
          </HeartRateBpm>
          <SensorState>Absent</SensorState>
        </Trackpoint>
        <Trackpoint>
          <Time>2025-01-04T02:44:28Z</Time>
              <Position>
                  <LatitudeDegrees>31.33889955</LatitudeDegrees>
                  <LongitudeDegrees>102.95885576</LongitudeDegrees>
              </Position>
          <AltitudeMeters>2903</AltitudeMeters>
          <DistanceMeters>9.0</DistanceMeters>
          <HeartRateBpm>
            <Value>103</Value>
          </HeartRateBpm>
          <SensorState>Absent</SensorState>
        </Trackpoint>
        <Trackpoint>
          <Time>2025-01-04T02:44:29Z</Time>
              <Position>
                  <LatitudeDegrees>31.33889966</LatitudeDegrees>
                  <LongitudeDegrees>102.95885565</LongitudeDegrees>
              </Position>
          <AltitudeMeters>2903</AltitudeMeters>
          <DistanceMeters>9.0</DistanceMeters>
          <HeartRateBpm>
            <Value>103</Value>
          </HeartRateBpm>
          <SensorState>Absent</SensorState>
        </Trackpoint>
        <Trackpoint>
          <Time>2025-01-04T02:44:30Z</Time>
              <Position>
                  <LatitudeDegrees>31.33889967</LatitudeDegrees>
                  <LongitudeDegrees>102.95885563</LongitudeDegrees>
              </Position>
          <AltitudeMeters>2903</AltitudeMeters>
          <DistanceMeters>9.0</DistanceMeters>
          <HeartRateBpm>
            <Value>103</Value>
          </HeartRateBpm>
          <SensorState>Absent</SensorState>
        </Trackpoint>
        <Trackpoint>
          <Time>2025-01-04T02:44:31Z</Time>
              <Position>
                  <LatitudeDegrees>31.33889967</LatitudeDegrees>
                  <LongitudeDegrees>102.95885563</LongitudeDegrees>
              </Position>
          <AltitudeMeters>2903</AltitudeMeters>
          <DistanceMeters>9.0</DistanceMeters>
          <HeartRateBpm>
            <Value>102</Value>
          </HeartRateBpm>
          <SensorState>Absent</SensorState>
        </Trackpoint>
        <Trackpoint>
          <Time>2025-01-04T02:44:57Z</Time>
              <Position>
                  <LatitudeDegrees>31.33890626</LatitudeDegrees>
                  <LongitudeDegrees>102.95885478</LongitudeDegrees>
              </Position>
          <AltitudeMeters>2905</AltitudeMeters>
          <DistanceMeters>10.0</DistanceMeters>
          <HeartRateBpm>
            <Value>102</Value>
          </HeartRateBpm>
          <SensorState>Absent</SensorState>
        </Trackpoint>
        <Trackpoint>
          <Time>2025-01-04T02:44:58Z</Time>
              <Position>
                  <LatitudeDegrees>31.33891346</LatitudeDegrees>
                  <LongitudeDegrees>102.95885261</LongitudeDegrees>
              </Position>
          <AltitudeMeters>2905</AltitudeMeters>
          <DistanceMeters>11.0</DistanceMeters>
          <HeartRateBpm>
            <Value>102</Value>
          </HeartRateBpm>
          <SensorState>Absent</SensorState>
        </Trackpoint>
        <Trackpoint>
          <Time>2025-01-04T02:44:59Z</Time>
              <Position>
                  <LatitudeDegrees>31.33891707</LatitudeDegrees>
                  <LongitudeDegrees>102.95885012</LongitudeDegrees>
              </Position>
          <AltitudeMeters>2906</AltitudeMeters>
          <DistanceMeters>11.0</DistanceMeters>
          <HeartRateBpm>
            <Value>102</Value>
          </HeartRateBpm>
          <SensorState>Absent</SensorState>
        </Trackpoint>
        <Trackpoint>
          <Time>2025-01-04T02:45:00Z</Time>
              <Position>
                  <LatitudeDegrees>31.33891988</LatitudeDegrees>
                  <LongitudeDegrees>102.95884879</LongitudeDegrees>
              </Position>
          <AltitudeMeters>2906</AltitudeMeters>
          <DistanceMeters>11.0</DistanceMeters>
          <HeartRateBpm>
            <Value>86</Value>
          </HeartRateBpm>
          <Cadence><Value>42</Value></Cadence>
          <SensorState>Absent</SensorState>
        </Trackpoint>
        <Trackpoint>
          <Time>2025-01-04T02:45:01Z</Time>
              <Position>
                  <LatitudeDegrees>31.33892058</LatitudeDegrees>
                  <LongitudeDegrees>102.9588493</LongitudeDegrees>
              </Position>
          <AltitudeMeters>2906</AltitudeMeters>
          <DistanceMeters>11.0</DistanceMeters>
          <HeartRateBpm>
            <Value>86</Value>
          </HeartRateBpm>
          <Cadence><Value>42</Value></Cadence>
          <SensorState>Absent</SensorState>
        </Trackpoint>
        <Trackpoint>
          <Time>2025-01-04T02:45:02Z</Time>
              <Position>
                  <LatitudeDegrees>31.33892072</LatitudeDegrees>
                  <LongitudeDegrees>102.95884944</LongitudeDegrees>
              </Position>
          <AltitudeMeters>2906</AltitudeMeters>
          <DistanceMeters>11.0</DistanceMeters>
          <HeartRateBpm>
            <Value>84</Value>
          </HeartRateBpm>
          <Cadence><Value>42</Value></Cadence>
          <SensorState>Absent</SensorState>
        </Trackpoint>
        <Trackpoint>
          <Time>2025-01-04T02:53:45Z</Time>
              <Position>
                  <LatitudeDegrees>31.33839796</LatitudeDegrees>
                  <LongitudeDegrees>102.96093662</LongitudeDegrees>
              </Position>
          <AltitudeMeters>2923</AltitudeMeters>
          <DistanceMeters>18.0</DistanceMeters>
          <HeartRateBpm>
            <Value>93</Value>
          </HeartRateBpm>
          <Cadence><Value>105</Value></Cadence>
          <SensorState>Absent</SensorState>
        </Trackpoint>
        <Trackpoint>
          <Time>2025-01-04T02:53:53Z</Time>
              <Position>
                  <LatitudeDegrees>31.33836558</LatitudeDegrees>
                  <LongitudeDegrees>102.96095678</LongitudeDegrees>
              </Position>
          <AltitudeMeters>2914</AltitudeMeters>
          <DistanceMeters>22.0</DistanceMeters>
          <HeartRateBpm>
            <Value>93</Value>
          </HeartRateBpm>
          <Cadence><Value>105</Value></Cadence>
          <SensorState>Absent</SensorState>
        </Trackpoint>
        <Trackpoint>
          <Time>2025-01-04T02:53:57Z</Time>
              <Position>
                  <LatitudeDegrees>31.33833581</LatitudeDegrees>
                  <LongitudeDegrees>102.96096209</LongitudeDegrees>
              </Position>
          <AltitudeMeters>2912</AltitudeMeters>
          <DistanceMeters>25.0</DistanceMeters>
          <HeartRateBpm>
            <Value>95</Value>
          </HeartRateBpm>
          <Cadence><Value>105</Value></Cadence>
          <SensorState>Absent</SensorState>
        </Trackpoint>
        <Trackpoint>
          <Time>2025-01-04T02:54:01Z</Time>
              <Position>
                  <LatitudeDegrees>31.33830174</LatitudeDegrees>
                  <LongitudeDegrees>102.96096851</LongitudeDegrees>
              </Position>
          <AltitudeMeters>2911</AltitudeMeters>
          <DistanceMeters>29.0</DistanceMeters>
          <HeartRateBpm>
            <Value>95</Value>
          </HeartRateBpm>
          <Cadence><Value>86</Value></Cadence>
          <SensorState>Absent</SensorState>
        </Trackpoint>
        <Trackpoint>
          <Time>2025-01-04T02:54:05Z</Time>
              <Position>
                  <LatitudeDegrees>31.33826612</LatitudeDegrees>
                  <LongitudeDegrees>102.96096872</LongitudeDegrees>
              </Position>
          <AltitudeMeters>2911</AltitudeMeters>
          <DistanceMeters>33.0</DistanceMeters>
          <HeartRateBpm>
            <Value>95</Value>
          </HeartRateBpm>
          <Cadence><Value>86</Value></Cadence>
          <SensorState>Absent</SensorState>
        </Trackpoint>
        <Trackpoint>
          <Time>2025-01-04T02:54:09Z</Time>
              <Position>
                  <LatitudeDegrees>31.33823124</LatitudeDegrees>
                  <LongitudeDegrees>102.9609678</LongitudeDegrees>
              </Position>
          <AltitudeMeters>2910</AltitudeMeters>
          <DistanceMeters>37.0</DistanceMeters>
          <HeartRateBpm>
            <Value>94</Value>
          </HeartRateBpm>
          <Cadence><Value>86</Value></Cadence>
          <SensorState>Absent</SensorState>
        </Trackpoint>
        <Trackpoint>
          <Time>2025-01-04T02:54:13Z</Time>
              <Position>
                  <LatitudeDegrees>31.33819579</LatitudeDegrees>
                  <LongitudeDegrees>102.96097407</LongitudeDegrees>
              </Position>
          <AltitudeMeters>2910</AltitudeMeters>
          <DistanceMeters>41.0</DistanceMeters>
          <HeartRateBpm>
            <Value>95</Value>
          </HeartRateBpm>
          <Cadence><Value>86</Value></Cadence>
          <SensorState>Absent</SensorState>
        </Trackpoint>
        <Trackpoint>
          <Time>2025-01-04T02:54:17Z</Time>
              <Position>
                  <LatitudeDegrees>31.33816141</LatitudeDegrees>
                  <LongitudeDegrees>102.96097634</LongitudeDegrees>
              </Position>
          <AltitudeMeters>2911</AltitudeMeters>
          <DistanceMeters>45.0</DistanceMeters>
          <HeartRateBpm>
            <Value>97</Value>
          </HeartRateBpm>
          <Cadence><Value>86</Value></Cadence>
          <SensorState>Absent</SensorState>
        </Trackpoint>
        <Trackpoint>
          <Time>2025-01-04T02:54:21Z</Time>
              <Position>
                  <LatitudeDegrees>31.3381274</LatitudeDegrees>
                  <LongitudeDegrees>102.96097113</LongitudeDegrees>
              </Position>
          <AltitudeMeters>2909</AltitudeMeters>
          <DistanceMeters>49.0</DistanceMeters>
          <HeartRateBpm>
            <Value>99</Value>
          </HeartRateBpm>
          <Cadence><Value>86</Value></Cadence>
          <SensorState>Absent</SensorState>
        </Trackpoint>
        <Trackpoint>
          <Time>2025-01-04T02:54:25Z</Time>
              <Position>
                  <LatitudeDegrees>31.33809191</LatitudeDegrees>
                  <LongitudeDegrees>102.9609724</LongitudeDegrees>
              </Position>
          <AltitudeMeters>2910</AltitudeMeters>
          <DistanceMeters>53.0</DistanceMeters>
          <HeartRateBpm>
            <Value>100</Value>
          </HeartRateBpm>
          <Cadence><Value>86</Value></Cadence>
          <SensorState>Absent</SensorState>
        </Trackpoint>
        <Trackpoint>
          <Time>2025-01-04T02:54:29Z</Time>
              <Position>
                  <LatitudeDegrees>31.33806393</LatitudeDegrees>
                  <LongitudeDegrees>102.96097079</LongitudeDegrees>
              </Position>
          <AltitudeMeters>2910</AltitudeMeters>
          <DistanceMeters>56.0</DistanceMeters>
          <HeartRateBpm>
            <Value>101</Value>
          </HeartRateBpm>
          <Cadence><Value>86</Value></Cadence>
          <SensorState>Absent</SensorState>
        </Trackpoint>
        <Trackpoint>
          <Time>2025-01-04T02:54:33Z</Time>
              <Position>
                  <LatitudeDegrees>31.33802377</LatitudeDegrees>
                  <LongitudeDegrees>102.96097165</LongitudeDegrees>
              </Position>
          <AltitudeMeters>2910</AltitudeMeters>
          <DistanceMeters>60.0</DistanceMeters>
          <HeartRateBpm>
            <Value>102</Value>
          </HeartRateBpm>
          <Cadence><Value>86</Value></Cadence>
          <SensorState>Absent</SensorState>
        </Trackpoint>
        <Trackpoint>
          <Time>2025-01-04T02:54:37Z</Time>
              <Position>
                  <LatitudeDegrees>31.33798957</LatitudeDegrees>
                  <LongitudeDegrees>102.96096667</LongitudeDegrees>
              </Position>
          <AltitudeMeters>2910</AltitudeMeters>
          <DistanceMeters>64.0</DistanceMeters>
          <HeartRateBpm>
            <Value>103</Value>
          </HeartRateBpm>
          <Cadence><Value>86</Value></Cadence>
          <SensorState>Absent</SensorState>
        </Trackpoint>
        <Trackpoint>
          <Time>2025-01-04T02:54:41Z</Time>
              <Position>
                  <LatitudeDegrees>31.33795491</LatitudeDegrees>
                  <LongitudeDegrees>102.96096667</LongitudeDegrees>
              </Position>
          <AltitudeMeters>2911</AltitudeMeters>
          <DistanceMeters>68.0</DistanceMeters>
          <HeartRateBpm>
            <Value>103</Value>
          </HeartRateBpm>
          <Cadence><Value>86</Value></Cadence>
          <SensorState>Absent</SensorState>
        </Trackpoint>
        <Trackpoint>
          <Time>2025-01-04T02:54:45Z</Time>
              <Position>
                  <LatitudeDegrees>31.33792308</LatitudeDegrees>
                  <LongitudeDegrees>102.96095431</LongitudeDegrees>
              </Position>
          <AltitudeMeters>2911</AltitudeMeters>
          <DistanceMeters>72.0</DistanceMeters>
          <HeartRateBpm>
            <Value>104</Value>
          </HeartRateBpm>
          <Cadence><Value>86</Value></Cadence>
          <SensorState>Absent</SensorState>
        </Trackpoint>
        <Trackpoint>
          <Time>2025-01-04T02:54:49Z</Time>
              <Position>
                  <LatitudeDegrees>31.33788822</LatitudeDegrees>
                  <LongitudeDegrees>102.96094563</LongitudeDegrees>
              </Position>
          <AltitudeMeters>2912</AltitudeMeters>
          <DistanceMeters>76.0</DistanceMeters>
          <HeartRateBpm>
            <Value>104</Value>
          </HeartRateBpm>
          <Cadence><Value>86</Value></Cadence>
          <SensorState>Absent</SensorState>
        </Trackpoint>
        <Trackpoint>
          <Time>2025-01-04T02:54:53Z</Time>
              <Position>
                  <LatitudeDegrees>31.33785704</LatitudeDegrees>
                  <LongitudeDegrees>102.96092883</LongitudeDegrees>
              </Position>
          <AltitudeMeters>2912</AltitudeMeters>
          <DistanceMeters>80.0</DistanceMeters>
          <HeartRateBpm>
            <Value>103</Value>
          </HeartRateBpm>
          <Cadence><Value>86</Value></Cadence>
          <SensorState>Absent</SensorState>
        </Trackpoint>
        <Trackpoint>
          <Time>2025-01-04T02:54:57Z</Time>
              <Position>
                  <LatitudeDegrees>31.33783067</LatitudeDegrees>
                  <LongitudeDegrees>102.96090823</LongitudeDegrees>
              </Position>
          <AltitudeMeters>2911</AltitudeMeters>
          <DistanceMeters>84.0</DistanceMeters>
          <HeartRateBpm>
            <Value>98</Value>
          </HeartRateBpm>
          <Cadence><Value>86</Value></Cadence>
          <SensorState>Absent</SensorState>
        </Trackpoint>
        <Trackpoint>
          <Time>2025-01-04T02:55:01Z</Time>
              <Position>
                  <LatitudeDegrees>31.33780086</LatitudeDegrees>
                  <LongitudeDegrees>102.96089218</LongitudeDegrees>
              </Position>
          <AltitudeMeters>2910</AltitudeMeters>
          <DistanceMeters>88.0</DistanceMeters>
          <HeartRateBpm>
            <Value>96</Value>
          </HeartRateBpm>
          <Cadence><Value>106</Value></Cadence>
          <SensorState>Absent</SensorState>
        </Trackpoint>
        <Trackpoint>
          <Time>2025-01-04T02:55:05Z</Time>
              <Position>
                  <LatitudeDegrees>31.33776963</LatitudeDegrees>
                  <LongitudeDegrees>102.96087058</LongitudeDegrees>
              </Position>
          <AltitudeMeters>2910</AltitudeMeters>
          <DistanceMeters>92.0</DistanceMeters>
          <HeartRateBpm>
            <Value>95</Value>
          </HeartRateBpm>
          <Cadence><Value>106</Value></Cadence>
          <SensorState>Absent</SensorState>
        </Trackpoint>
        <Trackpoint>
          <Time>2025-01-04T03:13:47Z</Time>
              <Position>
                  <LatitudeDegrees>31.33175963</LatitudeDegrees>
                  <LongitudeDegrees>102.95651029</LongitudeDegrees>
              </Position>
          <AltitudeMeters>2924</AltitudeMeters>
          <DistanceMeters>877.0</DistanceMeters>
          <HeartRateBpm>
            <Value>119</Value>
          </HeartRateBpm>
          <SensorState>Absent</SensorState>
        </Trackpoint>
        <Trackpoint>
          <Time>2025-01-04T03:13:52Z</Time>
              <Position>
                  <LatitudeDegrees>31.33155585</LatitudeDegrees>
                  <LongitudeDegrees>102.95605239</LongitudeDegrees>
              </Position>
          <AltitudeMeters>2928</AltitudeMeters>
          <DistanceMeters>926.0</DistanceMeters>
          <HeartRateBpm>
            <Value>119</Value>
          </HeartRateBpm>
          <SensorState>Absent</SensorState>
        </Trackpoint>
        <Trackpoint>
          <Time>2025-01-04T03:13:56Z</Time>
              <Position>
                  <LatitudeDegrees>31.33113693</LatitudeDegrees>
                  <LongitudeDegrees>102.95570089</LongitudeDegrees>
              </Position>
          <AltitudeMeters>2928</AltitudeMeters>
          <DistanceMeters>983.0</DistanceMeters>
          <HeartRateBpm>
            <Value>119</Value>
          </HeartRateBpm>
          <SensorState>Absent</SensorState>
        </Trackpoint>
        <Trackpoint>
          <Time>2025-01-04T03:14:00Z</Time>
              <Position>
                  <LatitudeDegrees>31.33066871</LatitudeDegrees>
                  <LongitudeDegrees>102.95544518</LongitudeDegrees>
              </Position>
          <AltitudeMeters>2926</AltitudeMeters>
          <DistanceMeters>1040.0</DistanceMeters>
          <HeartRateBpm>
            <Value>134</Value>
          </HeartRateBpm>
          <SensorState>Absent</SensorState>
        </Trackpoint>
        <Trackpoint>
          <Time>2025-01-04T03:14:04Z</Time>
              <Position>
                  <LatitudeDegrees>31.33018431</LatitudeDegrees>
                  <LongitudeDegrees>102.95517231</LongitudeDegrees>
              </Position>
          <AltitudeMeters>2927</AltitudeMeters>
          <DistanceMeters>1100.0</DistanceMeters>
          <HeartRateBpm>
            <Value>135</Value>
          </HeartRateBpm>
          <SensorState>Absent</SensorState>
        </Trackpoint>
        <Trackpoint>
          <Time>2025-01-04T03:14:08Z</Time>
              <Position>
                  <LatitudeDegrees>31.32968821</LatitudeDegrees>
                  <LongitudeDegrees>102.95487083</LongitudeDegrees>
              </Position>
          <AltitudeMeters>2928</AltitudeMeters>
          <DistanceMeters>1162.0</DistanceMeters>
          <HeartRateBpm>
            <Value>138</Value>
          </HeartRateBpm>
          <SensorState>Absent</SensorState>
        </Trackpoint>
        <Trackpoint>
          <Time>2025-01-04T03:14:16Z</Time>
              <Position>
                  <LatitudeDegrees>31.32868558</LatitudeDegrees>
                  <LongitudeDegrees>102.95425657</LongitudeDegrees>
              </Position>
          <AltitudeMeters>2932</AltitudeMeters>
          <DistanceMeters>1288.0</DistanceMeters>
          <HeartRateBpm>
            <Value>140</Value>
          </HeartRateBpm>
          <SensorState>Absent</SensorState>
        </Trackpoint>
        <Trackpoint>
          <Time>2025-01-04T03:14:20Z</Time>
              <Position>
                  <LatitudeDegrees>31.32814186</LatitudeDegrees>
                  <LongitudeDegrees>102.95403511</LongitudeDegrees>
              </Position>
          <AltitudeMeters>2938</AltitudeMeters>
          <DistanceMeters>1352.0</DistanceMeters>
          <HeartRateBpm>
            <Value>141</Value>
          </HeartRateBpm>
          <SensorState>Absent</SensorState>
        </Trackpoint>
        <Trackpoint>
          <Time>2025-01-04T03:14:28Z</Time>
              <Position>
                  <LatitudeDegrees>31.32710562</LatitudeDegrees>
                  <LongitudeDegrees>102.9536339</LongitudeDegrees>
              </Position>
          <AltitudeMeters>2950</AltitudeMeters>
          <DistanceMeters>1473.0</DistanceMeters>
          <HeartRateBpm>
            <Value>141</Value>
          </HeartRateBpm>
          <SensorState>Absent</SensorState>
        </Trackpoint>
        <Trackpoint>
          <Time>2025-01-04T03:14:32Z</Time>
              <Position>
                  <LatitudeDegrees>31.3265818</LatitudeDegrees>
                  <LongitudeDegrees>102.95351392</LongitudeDegrees>
              </Position>
          <AltitudeMeters>2955</AltitudeMeters>
          <DistanceMeters>1532.0</DistanceMeters>
          <HeartRateBpm>
            <Value>140</Value>
          </HeartRateBpm>
          <SensorState>Absent</SensorState>
        </Trackpoint>
        <Trackpoint>
          <Time>2025-01-04T03:14:36Z</Time>
              <Position>
                  <LatitudeDegrees>31.32605586</LatitudeDegrees>
                  <LongitudeDegrees>102.9534009</LongitudeDegrees>
              </Position>
          <AltitudeMeters>2959</AltitudeMeters>
          <DistanceMeters>1591.0</DistanceMeters>
          <HeartRateBpm>
            <Value>140</Value>
          </HeartRateBpm>
          <SensorState>Absent</SensorState>
        </Trackpoint>
        <Trackpoint>
          <Time>2025-01-04T03:14:40Z</Time>
              <Position>
                  <LatitudeDegrees>31.32553306</LatitudeDegrees>
                  <LongitudeDegrees>102.95325741</LongitudeDegrees>
              </Position>
          <AltitudeMeters>2962</AltitudeMeters>
          <DistanceMeters>1651.0</DistanceMeters>
          <HeartRateBpm>
            <Value>139</Value>
          </HeartRateBpm>
          <SensorState>Absent</SensorState>
        </Trackpoint>
        <Trackpoint>
          <Time>2025-01-04T03:14:48Z</Time>
              <Position>
                  <LatitudeDegrees>31.324515</LatitudeDegrees>
                  <LongitudeDegrees>102.95277096</LongitudeDegrees>
              </Position>
          <AltitudeMeters>2966</AltitudeMeters>
          <DistanceMeters>1773.0</DistanceMeters>
          <HeartRateBpm>
            <Value>135</Value>
          </HeartRateBpm>
          <SensorState>Absent</SensorState>
        </Trackpoint>
        <Trackpoint>
          <Time>2025-01-04T03:14:52Z</Time>
              <Position>
                  <LatitudeDegrees>31.32396751</LatitudeDegrees>
                  <LongitudeDegrees>102.9525984</LongitudeDegrees>
              </Position>
          <AltitudeMeters>2965</AltitudeMeters>
          <DistanceMeters>1836.0</DistanceMeters>
          <HeartRateBpm>
            <Value>132</Value>
          </HeartRateBpm>
          <SensorState>Absent</SensorState>
        </Trackpoint>
        <Trackpoint>
          <Time>2025-01-04T03:32:06Z</Time>
              <Position>
                  <LatitudeDegrees>31.25122558</LatitudeDegrees>
                  <LongitudeDegrees>102.88924492</LongitudeDegrees>
              </Position>
          <AltitudeMeters>3527</AltitudeMeters>
          <DistanceMeters>1839.0</DistanceMeters>
          <HeartRateBpm>
            <Value>78</Value>
          </HeartRateBpm>
          <Cadence><Value>55</Value></Cadence>
          <SensorState>Absent</SensorState>
        </Trackpoint>
        <Trackpoint>
          <Time>2025-01-04T03:32:10Z</Time>
              <Position>
                  <LatitudeDegrees>31.25122835</LatitudeDegrees>
                  <LongitudeDegrees>102.8892827</LongitudeDegrees>
              </Position>
          <AltitudeMeters>3527</AltitudeMeters>
          <DistanceMeters>1843.0</DistanceMeters>
          <HeartRateBpm>
            <Value>78</Value>
          </HeartRateBpm>
          <Cadence><Value>55</Value></Cadence>
          <SensorState>Absent</SensorState>
        </Trackpoint>
        <Trackpoint>
          <Time>2025-01-04T03:32:14Z</Time>
              <Position>
                  <LatitudeDegrees>31.25121496</LatitudeDegrees>
                  <LongitudeDegrees>102.88931467</LongitudeDegrees>
              </Position>
          <AltitudeMeters>3527</AltitudeMeters>
          <DistanceMeters>1846.0</DistanceMeters>
          <HeartRateBpm>
            <Value>79</Value>
          </HeartRateBpm>
          <Cadence><Value>55</Value></Cadence>
          <SensorState>Absent</SensorState>
        </Trackpoint>
        <Trackpoint>
          <Time>2025-01-04T03:32:18Z</Time>
              <Position>
                  <LatitudeDegrees>31.25121062</LatitudeDegrees>
                  <LongitudeDegrees>102.88935482</LongitudeDegrees>
              </Position>
          <AltitudeMeters>3527</AltitudeMeters>
          <DistanceMeters>1850.0</DistanceMeters>
          <HeartRateBpm>
            <Value>99</Value>
          </HeartRateBpm>
          <Cadence><Value>55</Value></Cadence>
          <SensorState>Absent</SensorState>
        </Trackpoint>
        <Trackpoint>
          <Time>2025-01-04T03:32:22Z</Time>
              <Position>
                  <LatitudeDegrees>31.25120929</LatitudeDegrees>
                  <LongitudeDegrees>102.889384</LongitudeDegrees>
              </Position>
          <AltitudeMeters>3526</AltitudeMeters>
          <DistanceMeters>1853.0</DistanceMeters>
          <HeartRateBpm>
            <Value>101</Value>
          </HeartRateBpm>
          <Cadence><Value>55</Value></Cadence>
          <SensorState>Absent</SensorState>
        </Trackpoint>
        <Trackpoint>
          <Time>2025-01-04T03:36:26Z</Time>
              <Position>
                  <LatitudeDegrees>31.25120207</LatitudeDegrees>
                  <LongitudeDegrees>102.88922993</LongitudeDegrees>
              </Position>
          <AltitudeMeters>3528</AltitudeMeters>
          <DistanceMeters>1865.0</DistanceMeters>
          <HeartRateBpm>
            <Value>95</Value>
          </HeartRateBpm>
          <Cadence><Value>75</Value></Cadence>
          <SensorState>Absent</SensorState>
        </Trackpoint>
        <Trackpoint>
          <Time>2025-01-04T03:36:58Z</Time>
              <Position>
                  <LatitudeDegrees>31.25118567</LatitudeDegrees>
                  <LongitudeDegrees>102.88911459</LongitudeDegrees>
              </Position>
          <AltitudeMeters>3527</AltitudeMeters>
          <DistanceMeters>1869.0</DistanceMeters>
          <HeartRateBpm>
            <Value>95</Value>
          </HeartRateBpm>
          <Cadence><Value>75</Value></Cadence>
          <SensorState>Absent</SensorState>
        </Trackpoint>
        <Trackpoint>
          <Time>2025-01-04T03:37:02Z</Time>
              <Position>
                  <LatitudeDegrees>31.25118662</LatitudeDegrees>
                  <LongitudeDegrees>102.8890772</LongitudeDegrees>
              </Position>
          <AltitudeMeters>3528</AltitudeMeters>
          <DistanceMeters>1873.0</DistanceMeters>
          <HeartRateBpm>
            <Value>95</Value>
          </HeartRateBpm>
          <Cadence><Value>87</Value></Cadence>
          <SensorState>Absent</SensorState>
        </Trackpoint>
        <Trackpoint>
          <Time>2025-01-04T03:37:06Z</Time>
              <Position>
                  <LatitudeDegrees>31.25118086</LatitudeDegrees>
                  <LongitudeDegrees>102.88904009</LongitudeDegrees>
              </Position>
          <AltitudeMeters>3528</AltitudeMeters>
          <DistanceMeters>1877.0</DistanceMeters>
          <HeartRateBpm>
            <Value>95</Value>
          </HeartRateBpm>
          <Cadence><Value>87</Value></Cadence>
          <SensorState>Absent</SensorState>
        </Trackpoint>
        <Trackpoint>
          <Time>2025-01-04T03:37:10Z</Time>
              <Position>
                  <LatitudeDegrees>31.25116536</LatitudeDegrees>
                  <LongitudeDegrees>102.88900225</LongitudeDegrees>
              </Position>
          <AltitudeMeters>3529</AltitudeMeters>
          <DistanceMeters>1881.0</DistanceMeters>
          <HeartRateBpm>
            <Value>95</Value>
          </HeartRateBpm>
          <Cadence><Value>87</Value></Cadence>
          <SensorState>Absent</SensorState>
        </Trackpoint>
        <Trackpoint>
          <Time>2025-01-04T03:37:14Z</Time>
              <Position>
                  <LatitudeDegrees>31.25114659</LatitudeDegrees>
                  <LongitudeDegrees>102.88896504</LongitudeDegrees>
              </Position>
          <AltitudeMeters>3529</AltitudeMeters>
          <DistanceMeters>1885.0</DistanceMeters>
          <HeartRateBpm>
            <Value>96</Value>
          </HeartRateBpm>
          <Cadence><Value>87</Value></Cadence>
          <SensorState>Absent</SensorState>
        </Trackpoint>
        <Trackpoint>
          <Time>2025-01-04T03:37:18Z</Time>
              <Position>
                  <LatitudeDegrees>31.25112981</LatitudeDegrees>
                  <LongitudeDegrees>102.8889365</LongitudeDegrees>
              </Position>
          <AltitudeMeters>3529</AltitudeMeters>
          <DistanceMeters>1888.0</DistanceMeters>
          <HeartRateBpm>
            <Value>98</Value>
          </HeartRateBpm>
          <Cadence><Value>87</Value></Cadence>
          <SensorState>Absent</SensorState>
        </Trackpoint>
        <Trackpoint>
          <Time>2025-01-04T03:37:38Z</Time>
              <Position>
                  <LatitudeDegrees>31.25105145</LatitudeDegrees>
                  <LongitudeDegrees>102.88888162</LongitudeDegrees>
              </Position>
          <AltitudeMeters>3530</AltitudeMeters>
          <DistanceMeters>1892.0</DistanceMeters>
          <HeartRateBpm>
            <Value>98</Value>
          </HeartRateBpm>
          <Cadence><Value>87</Value></Cadence>
          <SensorState>Absent</SensorState>
        </Trackpoint>
        <Trackpoint>
          <Time>2025-01-04T03:37:42Z</Time>
              <Position>
                  <LatitudeDegrees>31.25102448</LatitudeDegrees>
                  <LongitudeDegrees>102.88888651</LongitudeDegrees>
              </Position>
          <AltitudeMeters>3531</AltitudeMeters>
          <DistanceMeters>1895.0</DistanceMeters>
          <HeartRateBpm>
            <Value>93</Value>
          </HeartRateBpm>
          <Cadence><Value>87</Value></Cadence>
          <SensorState>Absent</SensorState>
        </Trackpoint>
        <Trackpoint>
          <Time>2025-01-04T03:37:45Z</Time>
              <Position>
                  <LatitudeDegrees>31.25098381</LatitudeDegrees>
                  <LongitudeDegrees>102.8888792</LongitudeDegrees>
              </Position>
          <AltitudeMeters>3532</AltitudeMeters>
          <DistanceMeters>1900.0</DistanceMeters>
          <HeartRateBpm>
            <Value>94</Value>
          </HeartRateBpm>
          <Cadence><Value>87</Value></Cadence>
          <SensorState>Absent</SensorState>
        </Trackpoint>
        <Trackpoint>
          <Time>2025-01-04T03:37:50Z</Time>
              <Position>
                  <LatitudeDegrees>31.25094172</LatitudeDegrees>
                  <LongitudeDegrees>102.88887379</LongitudeDegrees>
              </Position>
          <AltitudeMeters>3532</AltitudeMeters>
          <DistanceMeters>1905.0</DistanceMeters>
          <HeartRateBpm>
            <Value>96</Value>
          </HeartRateBpm>
          <Cadence><Value>87</Value></Cadence>
          <SensorState>Absent</SensorState>
        </Trackpoint>
        <Trackpoint>
          <Time>2025-01-04T03:37:54Z</Time>
              <Position>
                  <LatitudeDegrees>31.25090408</LatitudeDegrees>
                  <LongitudeDegrees>102.88886725</LongitudeDegrees>
              </Position>
          <AltitudeMeters>3532</AltitudeMeters>
          <DistanceMeters>1909.0</DistanceMeters>
          <HeartRateBpm>
            <Value>98</Value>
          </HeartRateBpm>
          <Cadence><Value>87</Value></Cadence>
          <SensorState>Absent</SensorState>
        </Trackpoint>
        <Trackpoint>
          <Time>2025-01-04T03:37:58Z</Time>
              <Position>
                  <LatitudeDegrees>31.25087782</LatitudeDegrees>
                  <LongitudeDegrees>102.88886059</LongitudeDegrees>
              </Position>
          <AltitudeMeters>3532</AltitudeMeters>
          <DistanceMeters>1912.0</DistanceMeters>
          <HeartRateBpm>
            <Value>99</Value>
          </HeartRateBpm>
          <Cadence><Value>87</Value></Cadence>
          <SensorState>Absent</SensorState>
        </Trackpoint>
        <Trackpoint>
          <Time>2025-01-04T04:03:17Z</Time>
              <Position>
                  <LatitudeDegrees>31.22899405</LatitudeDegrees>
                  <LongitudeDegrees>102.8696402</LongitudeDegrees>
              </Position>
          <AltitudeMeters>3647</AltitudeMeters>
          <DistanceMeters>1918.0</DistanceMeters>
          <HeartRateBpm>
            <Value>98</Value>
          </HeartRateBpm>
          <Cadence><Value>111</Value></Cadence>
          <SensorState>Absent</SensorState>
        </Trackpoint>
        <Trackpoint>
          <Time>2025-01-04T04:03:21Z</Time>
              <Position>
                  <LatitudeDegrees>31.2289758</LatitudeDegrees>
                  <LongitudeDegrees>102.86960277</LongitudeDegrees>
              </Position>
          <AltitudeMeters>3647</AltitudeMeters>
          <DistanceMeters>1922.0</DistanceMeters>
          <HeartRateBpm>
            <Value>99</Value>
          </HeartRateBpm>
          <Cadence><Value>111</Value></Cadence>
          <SensorState>Absent</SensorState>
        </Trackpoint>
        <Trackpoint>
          <Time>2025-01-04T04:03:25Z</Time>
              <Position>
                  <LatitudeDegrees>31.2289561</LatitudeDegrees>
                  <LongitudeDegrees>102.86956259</LongitudeDegrees>
              </Position>
          <AltitudeMeters>3647</AltitudeMeters>
          <DistanceMeters>1926.0</DistanceMeters>
          <HeartRateBpm>
            <Value>99</Value>
          </HeartRateBpm>
          <Cadence><Value>111</Value></Cadence>
          <SensorState>Absent</SensorState>
        </Trackpoint>
        <Trackpoint>
          <Time>2025-01-04T04:03:29Z</Time>
              <Position>
                  <LatitudeDegrees>31.22893829</LatitudeDegrees>
                  <LongitudeDegrees>102.86952196</LongitudeDegrees>
              </Position>
          <AltitudeMeters>3646</AltitudeMeters>
          <DistanceMeters>1930.0</DistanceMeters>
          <HeartRateBpm>
            <Value>99</Value>
          </HeartRateBpm>
          <Cadence><Value>111</Value></Cadence>
          <SensorState>Absent</SensorState>
        </Trackpoint>
        <Trackpoint>
          <Time>2025-01-04T04:03:33Z</Time>
              <Position>
                  <LatitudeDegrees>31.22892685</LatitudeDegrees>
                  <LongitudeDegrees>102.86948337</LongitudeDegrees>
              </Position>
          <AltitudeMeters>3645</AltitudeMeters>
          <DistanceMeters>1934.0</DistanceMeters>
          <HeartRateBpm>
            <Value>100</Value>
          </HeartRateBpm>
          <Cadence><Value>111</Value></Cadence>
          <SensorState>Absent</SensorState>
        </Trackpoint>
        <Trackpoint>
          <Time>2025-01-04T04:03:37Z</Time>
              <Position>
                  <LatitudeDegrees>31.22890765</LatitudeDegrees>
                  <LongitudeDegrees>102.86944772</LongitudeDegrees>
              </Position>
          <AltitudeMeters>3644</AltitudeMeters>
          <DistanceMeters>1938.0</DistanceMeters>
          <HeartRateBpm>
            <Value>100</Value>
          </HeartRateBpm>
          <Cadence><Value>111</Value></Cadence>
          <SensorState>Absent</SensorState>
        </Trackpoint>
        <Trackpoint>
          <Time>2025-01-04T04:03:41Z</Time>
              <Position>
                  <LatitudeDegrees>31.22888897</LatitudeDegrees>
                  <LongitudeDegrees>102.869408</LongitudeDegrees>
              </Position>
          <AltitudeMeters>3644</AltitudeMeters>
          <DistanceMeters>1942.0</DistanceMeters>
          <HeartRateBpm>
            <Value>100</Value>
          </HeartRateBpm>
          <Cadence><Value>111</Value></Cadence>
          <SensorState>Absent</SensorState>
        </Trackpoint>
        <Trackpoint>
          <Time>2025-01-04T04:03:45Z</Time>
              <Position>
                  <LatitudeDegrees>31.22886942</LatitudeDegrees>
                  <LongitudeDegrees>102.86936427</LongitudeDegrees>
              </Position>
          <AltitudeMeters>3644</AltitudeMeters>
          <DistanceMeters>1947.0</DistanceMeters>
          <HeartRateBpm>
            <Value>102</Value>
          </HeartRateBpm>
          <Cadence><Value>111</Value></Cadence>
          <SensorState>Absent</SensorState>
        </Trackpoint>
        <Trackpoint>
          <Time>2025-01-04T04:03:49Z</Time>
              <Position>
                  <LatitudeDegrees>31.2288482</LatitudeDegrees>
                  <LongitudeDegrees>102.86932503</LongitudeDegrees>
              </Position>
          <AltitudeMeters>3642</AltitudeMeters>
          <DistanceMeters>1951.0</DistanceMeters>
          <HeartRateBpm>
            <Value>103</Value>
          </HeartRateBpm>
          <Cadence><Value>111</Value></Cadence>
          <SensorState>Absent</SensorState>
        </Trackpoint>
        <Trackpoint>
          <Time>2025-01-04T04:03:53Z</Time>
              <Position>
                  <LatitudeDegrees>31.22882126</LatitudeDegrees>
                  <LongitudeDegrees>102.8692903</LongitudeDegrees>
              </Position>
          <AltitudeMeters>3644</AltitudeMeters>
          <DistanceMeters>1955.0</DistanceMeters>
          <HeartRateBpm>
            <Value>105</Value>
          </HeartRateBpm>
          <Cadence><Value>111</Value></Cadence>
          <SensorState>Absent</SensorState>
        </Trackpoint>
        <Trackpoint>
          <Time>2025-01-04T04:03:57Z</Time>
              <Position>
                  <LatitudeDegrees>31.22880161</LatitudeDegrees>
                  <LongitudeDegrees>102.86925572</LongitudeDegrees>
              </Position>
          <AltitudeMeters>3643</AltitudeMeters>
          <DistanceMeters>1959.0</DistanceMeters>
          <HeartRateBpm>
            <Value>106</Value>
          </HeartRateBpm>
          <Cadence><Value>111</Value></Cadence>
          <SensorState>Absent</SensorState>
        </Trackpoint>
        <Trackpoint>
          <Time>2025-01-04T04:04:01Z</Time>
              <Position>
                  <LatitudeDegrees>31.22878052</LatitudeDegrees>
                  <LongitudeDegrees>102.86922472</LongitudeDegrees>
              </Position>
          <AltitudeMeters>3642</AltitudeMeters>
          <DistanceMeters>1963.0</DistanceMeters>
          <HeartRateBpm>
            <Value>107</Value>
          </HeartRateBpm>
          <Cadence><Value>114</Value></Cadence>
          <SensorState>Absent</SensorState>
        </Trackpoint>
        <Trackpoint>
          <Time>2025-01-04T04:04:05Z</Time>
              <Position>
                  <LatitudeDegrees>31.22876075</LatitudeDegrees>
                  <LongitudeDegrees>102.86918978</LongitudeDegrees>
              </Position>
          <AltitudeMeters>3641</AltitudeMeters>
          <DistanceMeters>1967.0</DistanceMeters>
          <HeartRateBpm>
            <Value>108</Value>
          </HeartRateBpm>
          <Cadence><Value>114</Value></Cadence>
          <SensorState>Absent</SensorState>
        </Trackpoint>
        <Trackpoint>
          <Time>2025-01-04T04:04:09Z</Time>
              <Position>
                  <LatitudeDegrees>31.2287358</LatitudeDegrees>
                  <LongitudeDegrees>102.86915826</LongitudeDegrees>
              </Position>
          <AltitudeMeters>3641</AltitudeMeters>
          <DistanceMeters>1971.0</DistanceMeters>
          <HeartRateBpm>
            <Value>108</Value>
          </HeartRateBpm>
          <Cadence><Value>114</Value></Cadence>
          <SensorState>Absent</SensorState>
        </Trackpoint>
        <Trackpoint>
          <Time>2025-01-04T04:04:13Z</Time>
              <Position>
                  <LatitudeDegrees>31.22873727</LatitudeDegrees>
                  <LongitudeDegrees>102.86910401</LongitudeDegrees>
              </Position>
          <AltitudeMeters>3639</AltitudeMeters>
          <DistanceMeters>1976.0</DistanceMeters>
          <HeartRateBpm>
            <Value>108</Value>
          </HeartRateBpm>
          <Cadence><Value>114</Value></Cadence>
          <SensorState>Absent</SensorState>
        </Trackpoint>
        <Trackpoint>
          <Time>2025-01-04T04:04:17Z</Time>
              <Position>
                  <LatitudeDegrees>31.2287219</LatitudeDegrees>
                  <LongitudeDegrees>102.86907442</LongitudeDegrees>
              </Position>
          <AltitudeMeters>3639</AltitudeMeters>
          <DistanceMeters>1979.0</DistanceMeters>
          <HeartRateBpm>
            <Value>108</Value>
          </HeartRateBpm>
          <Cadence><Value>114</Value></Cadence>
          <SensorState>Absent</SensorState>
        </Trackpoint>
        <Trackpoint>
          <Time>2025-01-04T04:04:21Z</Time>
              <Position>
                  <LatitudeDegrees>31.22867733</LatitudeDegrees>
                  <LongitudeDegrees>102.86907002</LongitudeDegrees>
              </Position>
          <AltitudeMeters>3640</AltitudeMeters>
          <DistanceMeters>1984.0</DistanceMeters>
          <HeartRateBpm>
            <Value>108</Value>
          </HeartRateBpm>
          <Cadence><Value>114</Value></Cadence>
          <SensorState>Absent</SensorState>
        </Trackpoint>
        <Trackpoint>
          <Time>2025-01-04T04:04:25Z</Time>
              <Position>
                  <LatitudeDegrees>31.22862682</LatitudeDegrees>
                  <LongitudeDegrees>102.86907011</LongitudeDegrees>
              </Position>
          <AltitudeMeters>3640</AltitudeMeters>
          <DistanceMeters>1990.0</DistanceMeters>
          <HeartRateBpm>
            <Value>108</Value>
          </HeartRateBpm>
          <Cadence><Value>114</Value></Cadence>
          <SensorState>Absent</SensorState>
        </Trackpoint>
        <Trackpoint>
          <Time>2025-01-04T04:07:13Z</Time>
              <Position>
                  <LatitudeDegrees>31.2272809</LatitudeDegrees>
                  <LongitudeDegrees>102.86813082</LongitudeDegrees>
              </Position>
          <AltitudeMeters>3652</AltitudeMeters>
          <DistanceMeters>2164.0</DistanceMeters>
          <HeartRateBpm>
            <Value>109</Value>
          </HeartRateBpm>
          <Cadence><Value>50</Value></Cadence>
          <SensorState>Absent</SensorState>
        </Trackpoint>
        <Trackpoint>
          <Time>2025-01-04T04:07:21Z</Time>
              <Position>
                  <LatitudeDegrees>31.22732051</LatitudeDegrees>
                  <LongitudeDegrees>102.86798849</LongitudeDegrees>
              </Position>
          <AltitudeMeters>3653</AltitudeMeters>
          <DistanceMeters>2178.0</DistanceMeters>
          <HeartRateBpm>
            <Value>109</Value>
          </HeartRateBpm>
          <Cadence><Value>50</Value></Cadence>
          <SensorState>Absent</SensorState>
        </Trackpoint>
        <Trackpoint>
          <Time>2025-01-04T04:10:07Z</Time>
              <Position>
                  <LatitudeDegrees>31.22737251</LatitudeDegrees>
                  <LongitudeDegrees>102.86771092</LongitudeDegrees>
              </Position>
          <AltitudeMeters>3646</AltitudeMeters>
          <DistanceMeters>2182.0</DistanceMeters>
          <HeartRateBpm>
            <Value>100</Value>
          </HeartRateBpm>
          <Cadence><Value>68</Value></Cadence>
          <SensorState>Absent</SensorState>
        </Trackpoint>
        <Trackpoint>
          <Time>2025-01-04T04:10:11Z</Time>
              <Position>
                  <LatitudeDegrees>31.22737086</LatitudeDegrees>
                  <LongitudeDegrees>102.86764398</LongitudeDegrees>
              </Position>
          <AltitudeMeters>3647</AltitudeMeters>
          <DistanceMeters>2188.0</DistanceMeters>
          <HeartRateBpm>
            <Value>99</Value>
          </HeartRateBpm>
          <Cadence><Value>68</Value></Cadence>
          <SensorState>Absent</SensorState>
        </Trackpoint>
        <Trackpoint>
          <Time>2025-01-04T04:10:15Z</Time>
              <Position>
                  <LatitudeDegrees>31.22735168</LatitudeDegrees>
                  <LongitudeDegrees>102.86758538</LongitudeDegrees>
              </Position>
          <AltitudeMeters>3648</AltitudeMeters>
          <DistanceMeters>2194.0</DistanceMeters>
          <HeartRateBpm>
            <Value>96</Value>
          </HeartRateBpm>
          <Cadence><Value>68</Value></Cadence>
          <SensorState>Absent</SensorState>
        </Trackpoint>
        <Trackpoint>
          <Time>2025-01-04T04:10:19Z</Time>
              <Position>
                  <LatitudeDegrees>31.22732774</LatitudeDegrees>
                  <LongitudeDegrees>102.86752504</LongitudeDegrees>
              </Position>
          <AltitudeMeters>3647</AltitudeMeters>
          <DistanceMeters>2200.0</DistanceMeters>
          <HeartRateBpm>
            <Value>96</Value>
          </HeartRateBpm>
          <Cadence><Value>68</Value></Cadence>
          <SensorState>Absent</SensorState>
        </Trackpoint>
        <Trackpoint>
          <Time>2025-01-04T04:10:23Z</Time>
              <Position>
                  <LatitudeDegrees>31.22730209</LatitudeDegrees>
                  <LongitudeDegrees>102.86746854</LongitudeDegrees>
              </Position>
          <AltitudeMeters>3648</AltitudeMeters>
          <DistanceMeters>2206.0</DistanceMeters>
          <HeartRateBpm>
            <Value>95</Value>
          </HeartRateBpm>
          <Cadence><Value>68</Value></Cadence>
          <SensorState>Absent</SensorState>
        </Trackpoint>
        <Trackpoint>
          <Time>2025-01-04T04:10:27Z</Time>
              <Position>
                  <LatitudeDegrees>31.2272768</LatitudeDegrees>
                  <LongitudeDegrees>102.86742744</LongitudeDegrees>
              </Position>
          <AltitudeMeters>3647</AltitudeMeters>
          <DistanceMeters>2211.0</DistanceMeters>
          <HeartRateBpm>
            <Value>91</Value>
          </HeartRateBpm>
          <Cadence><Value>68</Value></Cadence>
          <SensorState>Absent</SensorState>
        </Trackpoint>
        <Trackpoint>
          <Time>2025-01-04T04:11:39Z</Time>
              <Position>
                  <LatitudeDegrees>31.22723709</LatitudeDegrees>
                  <LongitudeDegrees>102.86736099</LongitudeDegrees>
              </Position>
          <AltitudeMeters>3649</AltitudeMeters>
          <DistanceMeters>2214.0</DistanceMeters>
          <HeartRateBpm>
            <Value>91</Value>
          </HeartRateBpm>
          <SensorState>Absent</SensorState>
        </Trackpoint>
        <Trackpoint>
          <Time>2025-01-04T04:11:43Z</Time>
              <Position>
                  <LatitudeDegrees>31.22718425</LatitudeDegrees>
                  <LongitudeDegrees>102.867361</LongitudeDegrees>
              </Position>
          <AltitudeMeters>3649</AltitudeMeters>
          <DistanceMeters>2220.0</DistanceMeters>
          <HeartRateBpm>
            <Value>90</Value>
          </HeartRateBpm>
          <SensorState>Absent</SensorState>
        </Trackpoint>
        <Trackpoint>
          <Time>2025-01-04T04:11:47Z</Time>
              <Position>
                  <LatitudeDegrees>31.22714098</LatitudeDegrees>
                  <LongitudeDegrees>102.86735927</LongitudeDegrees>
              </Position>
          <AltitudeMeters>3649</AltitudeMeters>
          <DistanceMeters>2225.0</DistanceMeters>
          <HeartRateBpm>
            <Value>84</Value>
          </HeartRateBpm>
          <SensorState>Absent</SensorState>
        </Trackpoint>
        <Trackpoint>
          <Time>2025-01-04T04:12:35Z</Time>
              <Position>
                  <LatitudeDegrees>31.2269799</LatitudeDegrees>
                  <LongitudeDegrees>102.86717462</LongitudeDegrees>
              </Position>
          <AltitudeMeters>3649</AltitudeMeters>
          <DistanceMeters>2245.0</DistanceMeters>
          <HeartRateBpm>
            <Value>85</Value>
          </HeartRateBpm>
          <SensorState>Absent</SensorState>
        </Trackpoint>
        <Trackpoint>
          <Time>2025-01-04T04:12:39Z</Time>
              <Position>
                  <LatitudeDegrees>31.22676347</LatitudeDegrees>
                  <LongitudeDegrees>102.86697609</LongitudeDegrees>
              </Position>
          <AltitudeMeters>3646</AltitudeMeters>
          <DistanceMeters>2276.0</DistanceMeters>
          <HeartRateBpm>
            <Value>86</Value>
          </HeartRateBpm>
          <SensorState>Absent</SensorState>
        </Trackpoint>
        <Trackpoint>
          <Time>2025-01-04T04:12:43Z</Time>
              <Position>
                  <LatitudeDegrees>31.22648922</LatitudeDegrees>
                  <LongitudeDegrees>102.86697881</LongitudeDegrees>
              </Position>
          <AltitudeMeters>3649</AltitudeMeters>
          <DistanceMeters>2306.0</DistanceMeters>
          <HeartRateBpm>
            <Value>86</Value>
          </HeartRateBpm>
          <SensorState>Absent</SensorState>
        </Trackpoint>
        <Trackpoint>
          <Time>2025-01-04T04:12:47Z</Time>
              <Position>
                  <LatitudeDegrees>31.22622607</LatitudeDegrees>
                  <LongitudeDegrees>102.8670831</LongitudeDegrees>
              </Position>
          <AltitudeMeters>3650</AltitudeMeters>
          <DistanceMeters>2337.0</DistanceMeters>
          <HeartRateBpm>
            <Value>87</Value>
          </HeartRateBpm>
          <SensorState>Absent</SensorState>
        </Trackpoint>
        <Trackpoint>
          <Time>2025-01-04T04:46:04Z</Time>
              <Position>
                  <LatitudeDegrees>31.22098669</LatitudeDegrees>
                  <LongitudeDegrees>102.84607658</LongitudeDegrees>
              </Position>
          <AltitudeMeters>3847</AltitudeMeters>
          <DistanceMeters>4421.0</DistanceMeters>
          <HeartRateBpm>
            <Value>96</Value>
          </HeartRateBpm>
          <Cadence><Value>95</Value></Cadence>
          <SensorState>Absent</SensorState>
        </Trackpoint>
        <Trackpoint>
          <Time>2025-01-04T04:46:11Z</Time>
              <Position>
                  <LatitudeDegrees>31.22089172</LatitudeDegrees>
                  <LongitudeDegrees>102.84593434</LongitudeDegrees>
              </Position>
          <AltitudeMeters>3818</AltitudeMeters>
          <DistanceMeters>4438.0</DistanceMeters>
          <HeartRateBpm>
            <Value>96</Value>
          </HeartRateBpm>
          <Cadence><Value>95</Value></Cadence>
          <SensorState>Absent</SensorState>
        </Trackpoint>
        <Trackpoint>
          <Time>2025-01-04T04:46:15Z</Time>
              <Position>
                  <LatitudeDegrees>31.22088351</LatitudeDegrees>
                  <LongitudeDegrees>102.84597421</LongitudeDegrees>
              </Position>
          <AltitudeMeters>3816</AltitudeMeters>
          <DistanceMeters>4442.0</DistanceMeters>
          <HeartRateBpm>
            <Value>97</Value>
          </HeartRateBpm>
          <Cadence><Value>95</Value></Cadence>
          <SensorState>Absent</SensorState>
        </Trackpoint>
        <Trackpoint>
          <Time>2025-01-04T04:46:19Z</Time>
              <Position>
                  <LatitudeDegrees>31.22087684</LatitudeDegrees>
                  <LongitudeDegrees>102.84601407</LongitudeDegrees>
              </Position>
          <AltitudeMeters>3814</AltitudeMeters>
          <DistanceMeters>4446.0</DistanceMeters>
          <HeartRateBpm>
            <Value>97</Value>
          </HeartRateBpm>
          <Cadence><Value>95</Value></Cadence>
          <SensorState>Absent</SensorState>
        </Trackpoint>
        <Trackpoint>
          <Time>2025-01-04T04:46:23Z</Time>
              <Position>
                  <LatitudeDegrees>31.22087904</LatitudeDegrees>
                  <LongitudeDegrees>102.84606192</LongitudeDegrees>
              </Position>
          <AltitudeMeters>3813</AltitudeMeters>
          <DistanceMeters>4451.0</DistanceMeters>
          <HeartRateBpm>
            <Value>97</Value>
          </HeartRateBpm>
          <Cadence><Value>95</Value></Cadence>
          <SensorState>Absent</SensorState>
        </Trackpoint>
        <Trackpoint>
          <Time>2025-01-04T04:46:27Z</Time>
              <Position>
                  <LatitudeDegrees>31.22087237</LatitudeDegrees>
                  <LongitudeDegrees>102.84611807</LongitudeDegrees>
              </Position>
          <AltitudeMeters>3812</AltitudeMeters>
          <DistanceMeters>4456.0</DistanceMeters>
          <HeartRateBpm>
            <Value>97</Value>
          </HeartRateBpm>
          <Cadence><Value>95</Value></Cadence>
          <SensorState>Absent</SensorState>
        </Trackpoint>
        <Trackpoint>
          <Time>2025-01-04T04:46:31Z</Time>
              <Position>
                  <LatitudeDegrees>31.22086014</LatitudeDegrees>
                  <LongitudeDegrees>102.84615881</LongitudeDegrees>
              </Position>
          <AltitudeMeters>3810</AltitudeMeters>
          <DistanceMeters>4460.0</DistanceMeters>
          <HeartRateBpm>
            <Value>98</Value>
          </HeartRateBpm>
          <Cadence><Value>95</Value></Cadence>
          <SensorState>Absent</SensorState>
        </Trackpoint>
        <Trackpoint>
          <Time>2025-01-04T04:46:35Z</Time>
              <Position>
                  <LatitudeDegrees>31.22084302</LatitudeDegrees>
                  <LongitudeDegrees>102.84620093</LongitudeDegrees>
              </Position>
          <AltitudeMeters>3809</AltitudeMeters>
          <DistanceMeters>4464.0</DistanceMeters>
          <HeartRateBpm>
            <Value>98</Value>
          </HeartRateBpm>
          <Cadence><Value>95</Value></Cadence>
          <SensorState>Absent</SensorState>
        </Trackpoint>
        <Trackpoint>
          <Time>2025-01-04T04:46:39Z</Time>
              <Position>
                  <LatitudeDegrees>31.22082274</LatitudeDegrees>
                  <LongitudeDegrees>102.84623591</LongitudeDegrees>
              </Position>
          <AltitudeMeters>3807</AltitudeMeters>
          <DistanceMeters>4468.0</DistanceMeters>
          <HeartRateBpm>
            <Value>98</Value>
          </HeartRateBpm>
          <Cadence><Value>95</Value></Cadence>
          <SensorState>Absent</SensorState>
        </Trackpoint>
        <Trackpoint>
          <Time>2025-01-04T04:46:43Z</Time>
              <Position>
                  <LatitudeDegrees>31.22080205</LatitudeDegrees>
                  <LongitudeDegrees>102.84627756</LongitudeDegrees>
              </Position>
          <AltitudeMeters>3807</AltitudeMeters>
          <DistanceMeters>4473.0</DistanceMeters>
          <HeartRateBpm>
            <Value>98</Value>
          </HeartRateBpm>
          <Cadence><Value>95</Value></Cadence>
          <SensorState>Absent</SensorState>
        </Trackpoint>
        <Trackpoint>
          <Time>2025-01-04T04:46:47Z</Time>
              <Position>
                  <LatitudeDegrees>31.22079441</LatitudeDegrees>
                  <LongitudeDegrees>102.84631994</LongitudeDegrees>
              </Position>
          <AltitudeMeters>3806</AltitudeMeters>
          <DistanceMeters>4477.0</DistanceMeters>
          <HeartRateBpm>
            <Value>98</Value>
          </HeartRateBpm>
          <Cadence><Value>95</Value></Cadence>
          <SensorState>Absent</SensorState>
        </Trackpoint>
        <Trackpoint>
          <Time>2025-01-04T04:46:51Z</Time>
              <Position>
                  <LatitudeDegrees>31.22078863</LatitudeDegrees>
                  <LongitudeDegrees>102.84636621</LongitudeDegrees>
              </Position>
          <AltitudeMeters>3806</AltitudeMeters>
          <DistanceMeters>4481.0</DistanceMeters>
          <HeartRateBpm>
            <Value>121</Value>
          </HeartRateBpm>
          <Cadence><Value>95</Value></Cadence>
          <SensorState>Absent</SensorState>
        </Trackpoint>
        <Trackpoint>
          <Time>2025-01-04T04:46:55Z</Time>
              <Position>
                  <LatitudeDegrees>31.22080186</LatitudeDegrees>
                  <LongitudeDegrees>102.84640584</LongitudeDegrees>
              </Position>
          <AltitudeMeters>3806</AltitudeMeters>
          <DistanceMeters>4485.0</DistanceMeters>
          <HeartRateBpm>
            <Value>121</Value>
          </HeartRateBpm>
          <Cadence><Value>95</Value></Cadence>
          <SensorState>Absent</SensorState>
        </Trackpoint>
        <Trackpoint>
          <Time>2025-01-04T04:46:59Z</Time>
              <Position>
                  <LatitudeDegrees>31.22080514</LatitudeDegrees>
                  <LongitudeDegrees>102.84644723</LongitudeDegrees>
              </Position>
          <AltitudeMeters>3806</AltitudeMeters>
          <DistanceMeters>4489.0</DistanceMeters>
          <HeartRateBpm>
            <Value>120</Value>
          </HeartRateBpm>
          <Cadence><Value>95</Value></Cadence>
          <SensorState>Absent</SensorState>
        </Trackpoint>
        <Trackpoint>
          <Time>2025-01-04T04:47:03Z</Time>
              <Position>
                  <LatitudeDegrees>31.22081024</LatitudeDegrees>
                  <LongitudeDegrees>102.84648542</LongitudeDegrees>
              </Position>
          <AltitudeMeters>3806</AltitudeMeters>
          <DistanceMeters>4493.0</DistanceMeters>
          <HeartRateBpm>
            <Value>118</Value>
          </HeartRateBpm>
          <SensorState>Absent</SensorState>
        </Trackpoint>
        <Trackpoint>
          <Time>2025-01-04T04:47:07Z</Time>
              <Position>
                  <LatitudeDegrees>31.2208217</LatitudeDegrees>
                  <LongitudeDegrees>102.84652347</LongitudeDegrees>
              </Position>
          <AltitudeMeters>3806</AltitudeMeters>
          <DistanceMeters>4497.0</DistanceMeters>
          <HeartRateBpm>
            <Value>115</Value>
          </HeartRateBpm>
          <SensorState>Absent</SensorState>
        </Trackpoint>
        <Trackpoint>
          <Time>2025-01-04T04:50:17Z</Time>
              <Position>
                  <LatitudeDegrees>31.22037355</LatitudeDegrees>
                  <LongitudeDegrees>102.84715481</LongitudeDegrees>
              </Position>
          <AltitudeMeters>3788</AltitudeMeters>
          <DistanceMeters>4575.0</DistanceMeters>
          <HeartRateBpm>
            <Value>111</Value>
          </HeartRateBpm>
          <Cadence><Value>68</Value></Cadence>
          <SensorState>Absent</SensorState>
        </Trackpoint>
        <Trackpoint>
          <Time>2025-01-04T04:50:25Z</Time>
              <Position>
                  <LatitudeDegrees>31.2202938</LatitudeDegrees>
                  <LongitudeDegrees>102.84719211</LongitudeDegrees>
              </Position>
          <AltitudeMeters>3796</AltitudeMeters>
          <DistanceMeters>4585.0</DistanceMeters>
          <HeartRateBpm>
            <Value>112</Value>
          </HeartRateBpm>
          <Cadence><Value>68</Value></Cadence>
          <SensorState>Absent</SensorState>
        </Trackpoint>
        <Trackpoint>
          <Time>2025-01-04T04:51:16Z</Time>
              <Position>
                  <LatitudeDegrees>31.22030508</LatitudeDegrees>
                  <LongitudeDegrees>102.84745029</LongitudeDegrees>
              </Position>
          <AltitudeMeters>3796</AltitudeMeters>
          <DistanceMeters>4590.0</DistanceMeters>
          <HeartRateBpm>
            <Value>112</Value>
          </HeartRateBpm>
          <Cadence><Value>82</Value></Cadence>
          <SensorState>Absent</SensorState>
        </Trackpoint>
        <Trackpoint>
          <Time>2025-01-04T04:51:20Z</Time>
              <Position>
                  <LatitudeDegrees>31.22033616</LatitudeDegrees>
                  <LongitudeDegrees>102.84748659</LongitudeDegrees>
              </Position>
          <AltitudeMeters>3796</AltitudeMeters>
          <DistanceMeters>4595.0</DistanceMeters>
          <HeartRateBpm>
            <Value>112</Value>
          </HeartRateBpm>
          <Cadence><Value>82</Value></Cadence>
          <SensorState>Absent</SensorState>
        </Trackpoint>
        <Trackpoint>
          <Time>2025-01-04T04:51:24Z</Time>
              <Position>
                  <LatitudeDegrees>31.22036316</LatitudeDegrees>
                  <LongitudeDegrees>102.84752142</LongitudeDegrees>
              </Position>
          <AltitudeMeters>3797</AltitudeMeters>
          <DistanceMeters>4599.0</DistanceMeters>
          <HeartRateBpm>
            <Value>111</Value>
          </HeartRateBpm>
          <Cadence><Value>82</Value></Cadence>
          <SensorState>Absent</SensorState>
        </Trackpoint>
        <Trackpoint>
          <Time>2025-01-04T04:51:28Z</Time>
              <Position>
                  <LatitudeDegrees>31.22038843</LatitudeDegrees>
                  <LongitudeDegrees>102.84755989</LongitudeDegrees>
              </Position>
          <AltitudeMeters>3796</AltitudeMeters>
          <DistanceMeters>4604.0</DistanceMeters>
          <HeartRateBpm>
            <Value>110</Value>
          </HeartRateBpm>
          <Cadence><Value>82</Value></Cadence>
          <SensorState>Absent</SensorState>
        </Trackpoint>
        <Trackpoint>
          <Time>2025-01-04T04:51:32Z</Time>
              <Position>
                  <LatitudeDegrees>31.22041677</LatitudeDegrees>
                  <LongitudeDegrees>102.84759718</LongitudeDegrees>
              </Position>
          <AltitudeMeters>3796</AltitudeMeters>
          <DistanceMeters>4609.0</DistanceMeters>
          <HeartRateBpm>
            <Value>110</Value>
          </HeartRateBpm>
          <Cadence><Value>82</Value></Cadence>
          <SensorState>Absent</SensorState>
        </Trackpoint>
        <Trackpoint>
          <Time>2025-01-04T04:51:36Z</Time>
              <Position>
                  <LatitudeDegrees>31.22044961</LatitudeDegrees>
                  <LongitudeDegrees>102.84762924</LongitudeDegrees>
              </Position>
          <AltitudeMeters>3796</AltitudeMeters>
          <DistanceMeters>4614.0</DistanceMeters>
          <HeartRateBpm>
            <Value>109</Value>
          </HeartRateBpm>
          <Cadence><Value>82</Value></Cadence>
          <SensorState>Absent</SensorState>
        </Trackpoint>
        <Trackpoint>
          <Time>2025-01-04T05:07:31Z</Time>
              <Position>
                  <LatitudeDegrees>31.22778405</LatitudeDegrees>
                  <LongitudeDegrees>102.8687908</LongitudeDegrees>
              </Position>
          <AltitudeMeters>3640</AltitudeMeters>
          <DistanceMeters>4623.0</DistanceMeters>
          <HeartRateBpm>
            <Value>101</Value>
          </HeartRateBpm>
          <Cadence><Value>92</Value></Cadence>
          <SensorState>Absent</SensorState>
        </Trackpoint>
        <Trackpoint>
          <Time>2025-01-04T05:07:35Z</Time>
              <Position>
                  <LatitudeDegrees>31.22781961</LatitudeDegrees>
                  <LongitudeDegrees>102.86880383</LongitudeDegrees>
              </Position>
          <AltitudeMeters>3641</AltitudeMeters>
          <DistanceMeters>4627.0</DistanceMeters>
          <HeartRateBpm>
            <Value>101</Value>
          </HeartRateBpm>
          <Cadence><Value>92</Value></Cadence>
          <SensorState>Absent</SensorState>
        </Trackpoint>
        <Trackpoint>
          <Time>2025-01-04T05:07:39Z</Time>
              <Position>
                  <LatitudeDegrees>31.22785242</LatitudeDegrees>
                  <LongitudeDegrees>102.86881604</LongitudeDegrees>
              </Position>
          <AltitudeMeters>3642</AltitudeMeters>
          <DistanceMeters>4631.0</DistanceMeters>
          <HeartRateBpm>
            <Value>101</Value>
          </HeartRateBpm>
          <Cadence><Value>92</Value></Cadence>
          <SensorState>Absent</SensorState>
        </Trackpoint>
        <Trackpoint>
          <Time>2025-01-04T05:07:43Z</Time>
              <Position>
                  <LatitudeDegrees>31.22788015</LatitudeDegrees>
                  <LongitudeDegrees>102.86883044</LongitudeDegrees>
              </Position>
          <AltitudeMeters>3642</AltitudeMeters>
          <DistanceMeters>4634.0</DistanceMeters>
          <HeartRateBpm>
            <Value>102</Value>
          </HeartRateBpm>
          <Cadence><Value>92</Value></Cadence>
          <SensorState>Absent</SensorState>
        </Trackpoint>
        <Trackpoint>
          <Time>2025-01-04T05:07:47Z</Time>
              <Position>
                  <LatitudeDegrees>31.22791106</LatitudeDegrees>
                  <LongitudeDegrees>102.86883931</LongitudeDegrees>
              </Position>
          <AltitudeMeters>3641</AltitudeMeters>
          <DistanceMeters>4638.0</DistanceMeters>
          <HeartRateBpm>
            <Value>102</Value>
          </HeartRateBpm>
          <Cadence><Value>92</Value></Cadence>
          <SensorState>Absent</SensorState>
        </Trackpoint>
        <Trackpoint>
          <Time>2025-01-04T05:07:51Z</Time>
              <Position>
                  <LatitudeDegrees>31.22793856</LatitudeDegrees>
                  <LongitudeDegrees>102.86884137</LongitudeDegrees>
              </Position>
          <AltitudeMeters>3641</AltitudeMeters>
          <DistanceMeters>4641.0</DistanceMeters>
          <HeartRateBpm>
            <Value>102</Value>
          </HeartRateBpm>
          <Cadence><Value>92</Value></Cadence>
          <SensorState>Absent</SensorState>
        </Trackpoint>
        <Trackpoint>
          <Time>2025-01-04T05:07:55Z</Time>
              <Position>
                  <LatitudeDegrees>31.2279654</LatitudeDegrees>
                  <LongitudeDegrees>102.8688462</LongitudeDegrees>
              </Position>
          <AltitudeMeters>3640</AltitudeMeters>
          <DistanceMeters>4644.0</DistanceMeters>
          <HeartRateBpm>
            <Value>101</Value>
          </HeartRateBpm>
          <Cadence><Value>92</Value></Cadence>
          <SensorState>Absent</SensorState>
        </Trackpoint>
        <Trackpoint>
          <Time>2025-01-04T05:07:59Z</Time>
              <Position>
                  <LatitudeDegrees>31.22799918</LatitudeDegrees>
                  <LongitudeDegrees>102.86885671</LongitudeDegrees>
              </Position>
          <AltitudeMeters>3640</AltitudeMeters>
          <DistanceMeters>4648.0</DistanceMeters>
          <HeartRateBpm>
            <Value>101</Value>
          </HeartRateBpm>
          <Cadence><Value>92</Value></Cadence>
          <SensorState>Absent</SensorState>
        </Trackpoint>
        <Trackpoint>
          <Time>2025-01-04T05:08:03Z</Time>
              <Position>
                  <LatitudeDegrees>31.22802949</LatitudeDegrees>
                  <LongitudeDegrees>102.86886736</LongitudeDegrees>
              </Position>
          <AltitudeMeters>3640</AltitudeMeters>
          <DistanceMeters>4652.0</DistanceMeters>
          <HeartRateBpm>
            <Value>101</Value>
          </HeartRateBpm>
          <Cadence><Value>110</Value></Cadence>
          <SensorState>Absent</SensorState>
        </Trackpoint>
        <Trackpoint>
          <Time>2025-01-04T05:08:07Z</Time>
              <Position>
                  <LatitudeDegrees>31.22806521</LatitudeDegrees>
                  <LongitudeDegrees>102.86887392</LongitudeDegrees>
              </Position>
          <AltitudeMeters>3640</AltitudeMeters>
          <DistanceMeters>4656.0</DistanceMeters>
          <HeartRateBpm>
            <Value>100</Value>
          </HeartRateBpm>
          <Cadence><Value>110</Value></Cadence>
          <SensorState>Absent</SensorState>
        </Trackpoint>
        <Trackpoint>
          <Time>2025-01-04T05:08:11Z</Time>
              <Position>
                  <LatitudeDegrees>31.22810167</LatitudeDegrees>
                  <LongitudeDegrees>102.86888256</LongitudeDegrees>
              </Position>
          <AltitudeMeters>3641</AltitudeMeters>
          <DistanceMeters>4660.0</DistanceMeters>
          <HeartRateBpm>
            <Value>100</Value>
          </HeartRateBpm>
          <Cadence><Value>110</Value></Cadence>
          <SensorState>Absent</SensorState>
        </Trackpoint>
        <Trackpoint>
          <Time>2025-01-04T05:08:15Z</Time>
              <Position>
                  <LatitudeDegrees>31.22813692</LatitudeDegrees>
                  <LongitudeDegrees>102.86890024</LongitudeDegrees>
              </Position>
          <AltitudeMeters>3642</AltitudeMeters>
          <DistanceMeters>4664.0</DistanceMeters>
          <HeartRateBpm>
            <Value>100</Value>
          </HeartRateBpm>
          <Cadence><Value>110</Value></Cadence>
          <SensorState>Absent</SensorState>
        </Trackpoint>
        <Trackpoint>
          <Time>2025-01-04T05:08:19Z</Time>
              <Position>
                  <LatitudeDegrees>31.22816592</LatitudeDegrees>
                  <LongitudeDegrees>102.86891959</LongitudeDegrees>
              </Position>
          <AltitudeMeters>3641</AltitudeMeters>
          <DistanceMeters>4668.0</DistanceMeters>
          <HeartRateBpm>
            <Value>100</Value>
          </HeartRateBpm>
          <Cadence><Value>110</Value></Cadence>
          <SensorState>Absent</SensorState>
        </Trackpoint>
        <Trackpoint>
          <Time>2025-01-04T05:08:23Z</Time>
              <Position>
                  <LatitudeDegrees>31.2281994</LatitudeDegrees>
                  <LongitudeDegrees>102.86894634</LongitudeDegrees>
              </Position>
          <AltitudeMeters>3642</AltitudeMeters>
          <DistanceMeters>4673.0</DistanceMeters>
          <HeartRateBpm>
            <Value>100</Value>
          </HeartRateBpm>
          <Cadence><Value>110</Value></Cadence>
          <SensorState>Absent</SensorState>
        </Trackpoint>
        <Trackpoint>
          <Time>2025-01-04T05:21:32Z</Time>
              <Position>
                  <LatitudeDegrees>31.24128475</LatitudeDegrees>
                  <LongitudeDegrees>102.88151015</LongitudeDegrees>
              </Position>
          <AltitudeMeters>3596</AltitudeMeters>
          <DistanceMeters>6554.0</DistanceMeters>
          <HeartRateBpm>
            <Value>109</Value>
          </HeartRateBpm>
          <SensorState>Absent</SensorState>
        </Trackpoint>
        <Trackpoint>
          <Time>2025-01-04T05:21:39Z</Time>
              <Position>
                  <LatitudeDegrees>31.24167849</LatitudeDegrees>
                  <LongitudeDegrees>102.88152335</LongitudeDegrees>
              </Position>
          <AltitudeMeters>3581</AltitudeMeters>
          <DistanceMeters>6598.0</DistanceMeters>
          <HeartRateBpm>
            <Value>109</Value>
          </HeartRateBpm>
          <SensorState>Absent</SensorState>
        </Trackpoint>
        <Trackpoint>
          <Time>2025-01-04T05:21:43Z</Time>
              <Position>
                  <LatitudeDegrees>31.24187961</LatitudeDegrees>
                  <LongitudeDegrees>102.88177832</LongitudeDegrees>
              </Position>
          <AltitudeMeters>3577</AltitudeMeters>
          <DistanceMeters>6631.0</DistanceMeters>
          <HeartRateBpm>
            <Value>109</Value>
          </HeartRateBpm>
          <SensorState>Absent</SensorState>
        </Trackpoint>
        <Trackpoint>
          <Time>2025-01-04T05:21:47Z</Time>
              <Position>
                  <LatitudeDegrees>31.24213639</LatitudeDegrees>
                  <LongitudeDegrees>102.88191227</LongitudeDegrees>
              </Position>
          <AltitudeMeters>3575</AltitudeMeters>
          <DistanceMeters>6662.0</DistanceMeters>
          <HeartRateBpm>
            <Value>109</Value>
          </HeartRateBpm>
          <SensorState>Absent</SensorState>
        </Trackpoint>
        <Trackpoint>
          <Time>2025-01-04T05:21:51Z</Time>
              <Position>
                  <LatitudeDegrees>31.24239127</LatitudeDegrees>
                  <LongitudeDegrees>102.88206359</LongitudeDegrees>
              </Position>
          <AltitudeMeters>3573</AltitudeMeters>
          <DistanceMeters>6694.0</DistanceMeters>
          <HeartRateBpm>
            <Value>110</Value>
          </HeartRateBpm>
          <SensorState>Absent</SensorState>
        </Trackpoint>
        <Trackpoint>
          <Time>2025-01-04T05:21:55Z</Time>
              <Position>
                  <LatitudeDegrees>31.24266271</LatitudeDegrees>
                  <LongitudeDegrees>102.88219135</LongitudeDegrees>
              </Position>
          <AltitudeMeters>3571</AltitudeMeters>
          <DistanceMeters>6726.0</DistanceMeters>
          <HeartRateBpm>
            <Value>110</Value>
          </HeartRateBpm>
          <SensorState>Absent</SensorState>
        </Trackpoint>
        <Trackpoint>
          <Time>2025-01-04T05:21:59Z</Time>
              <Position>
                  <LatitudeDegrees>31.24289378</LatitudeDegrees>
                  <LongitudeDegrees>102.88239572</LongitudeDegrees>
              </Position>
          <AltitudeMeters>3569</AltitudeMeters>
          <DistanceMeters>6758.0</DistanceMeters>
          <HeartRateBpm>
            <Value>110</Value>
          </HeartRateBpm>
          <SensorState>Absent</SensorState>
        </Trackpoint>
        <Trackpoint>
          <Time>2025-01-04T05:22:03Z</Time>
              <Position>
                  <LatitudeDegrees>31.2430844</LatitudeDegrees>
                  <LongitudeDegrees>102.88263716</LongitudeDegrees>
              </Position>
          <AltitudeMeters>3567</AltitudeMeters>
          <DistanceMeters>6789.0</DistanceMeters>
          <HeartRateBpm>
            <Value>110</Value>
          </HeartRateBpm>
          <SensorState>Absent</SensorState>
        </Trackpoint>
        <Trackpoint>
          <Time>2025-01-04T05:22:07Z</Time>
              <Position>
                  <LatitudeDegrees>31.24323621</LatitudeDegrees>
                  <LongitudeDegrees>102.88292958</LongitudeDegrees>
              </Position>
          <AltitudeMeters>3567</AltitudeMeters>
          <DistanceMeters>6822.0</DistanceMeters>
          <HeartRateBpm>
            <Value>110</Value>
          </HeartRateBpm>
          <SensorState>Absent</SensorState>
        </Trackpoint>
        <Trackpoint>
          <Time>2025-01-04T05:22:11Z</Time>
              <Position>
                  <LatitudeDegrees>31.24330645</LatitudeDegrees>
                  <LongitudeDegrees>102.88323867</LongitudeDegrees>
              </Position>
          <AltitudeMeters>3565</AltitudeMeters>
          <DistanceMeters>6852.0</DistanceMeters>
          <HeartRateBpm>
            <Value>110</Value>
          </HeartRateBpm>
          <SensorState>Absent</SensorState>
        </Trackpoint>
        <Trackpoint>
          <Time>2025-01-04T05:22:15Z</Time>
              <Position>
                  <LatitudeDegrees>31.24348077</LatitudeDegrees>
                  <LongitudeDegrees>102.88346645</LongitudeDegrees>
              </Position>
          <AltitudeMeters>3563</AltitudeMeters>
          <DistanceMeters>6881.0</DistanceMeters>
          <HeartRateBpm>
            <Value>111</Value>
          </HeartRateBpm>
          <SensorState>Absent</SensorState>
        </Trackpoint>
        <Trackpoint>
          <Time>2025-01-04T05:22:19Z</Time>
              <Position>
                  <LatitudeDegrees>31.24373619</LatitudeDegrees>
                  <LongitudeDegrees>102.88362965</LongitudeDegrees>
              </Position>
          <AltitudeMeters>3562</AltitudeMeters>
          <DistanceMeters>6913.0</DistanceMeters>
          <HeartRateBpm>
            <Value>111</Value>
          </HeartRateBpm>
          <SensorState>Absent</SensorState>
        </Trackpoint>
        <Trackpoint>
          <Time>2025-01-04T05:22:23Z</Time>
              <Position>
                  <LatitudeDegrees>31.24400289</LatitudeDegrees>
                  <LongitudeDegrees>102.88375997</LongitudeDegrees>
              </Position>
          <AltitudeMeters>3560</AltitudeMeters>
          <DistanceMeters>6945.0</DistanceMeters>
          <HeartRateBpm>
            <Value>111</Value>
          </HeartRateBpm>
          <SensorState>Absent</SensorState>
        </Trackpoint>
        <Trackpoint>
          <Time>2025-01-04T05:22:27Z</Time>
              <Position>
                  <LatitudeDegrees>31.2441595</LatitudeDegrees>
                  <LongitudeDegrees>102.88402164</LongitudeDegrees>
              </Position>
          <AltitudeMeters>3558</AltitudeMeters>
          <DistanceMeters>6975.0</DistanceMeters>
          <HeartRateBpm>
            <Value>111</Value>
          </HeartRateBpm>
          <SensorState>Absent</SensorState>
        </Trackpoint>
        <Trackpoint>
          <Time>2025-01-04T05:22:31Z</Time>
              <Position>
                  <LatitudeDegrees>31.24410021</LatitudeDegrees>
                  <LongitudeDegrees>102.88435343</LongitudeDegrees>
              </Position>
          <AltitudeMeters>3558</AltitudeMeters>
          <DistanceMeters>7007.0</DistanceMeters>
          <HeartRateBpm>
            <Value>106</Value>
          </HeartRateBpm>
          <SensorState>Absent</SensorState>
        </Trackpoint>
        <Trackpoint>
          <Time>2025-01-04T05:22:35Z</Time>
              <Position>
                  <LatitudeDegrees>31.24407721</LatitudeDegrees>
                  <LongitudeDegrees>102.88469643</LongitudeDegrees>
              </Position>
          <AltitudeMeters>3557</AltitudeMeters>
          <DistanceMeters>7040.0</DistanceMeters>
          <HeartRateBpm>
            <Value>105</Value>
          </HeartRateBpm>
          <SensorState>Absent</SensorState>
        </Trackpoint>
	  </Track>
      </Lap>
      </Activity>
  </Activities>

</TrainingCenterDatabase>