<?xml version="1.0" encoding="UTF-8" standalone="no" ?>
<TrainingCenterDatabase xmlns="http://www.garmin.com/xmlschemas/TrainingCenterDatabase/v2" xmlns:xsi="http://www.w3.org/2001/XMLSchema-instance" xsi:schemaLocation="http://www.garmin.com/xmlschemas/TrainingCenterDatabase/v2 http://www.garmin.com/xmlschemas/TrainingCenterDatabasev2.xsd">
  <Activities>
    <Activity Sport="Other">
      <Id>2025-01-04T00:47:12Z</Id>
      <Notes>健走</Notes>
      <Lap StartTime="2025-01-04T00:47:12Z">
        <TotalTimeSeconds>337</TotalTimeSeconds>
        <DistanceMeters>233</DistanceMeters>
        <Calories>45</Calories>
        <AverageHeartRateBpm>
          <Value>109</Value>
        </AverageHeartRateBpm>
        <MaximumHeartRateBpm>
          <Value>141</Value>
        </MaximumHeartRateBpm>
        <Intensity>Active</Intensity>
        <TriggerMethod>Manual</TriggerMethod>	  <Track>
        <Trackpoint>
          <Time>2025-01-04T00:47:12Z</Time>
              <Position>
                  <LatitudeDegrees>31.52133632</LatitudeDegrees>
                  <LongitudeDegrees>102.99252156</LongitudeDegrees>
              </Position>
          <AltitudeMeters>2639</AltitudeMeters>
          <DistanceMeters>0.0</DistanceMeters>
          <HeartRateBpm>
            <Value>111</Value>
          </HeartRateBpm>
          <SensorState>Absent</SensorState>
        </Trackpoint>
        <Trackpoint>
          <Time>2025-01-04T00:47:16Z</Time>
              <Position>
                  <LatitudeDegrees>31.52133097</LatitudeDegrees>
                  <LongitudeDegrees>102.99252757</LongitudeDegrees>
              </Position>
          <AltitudeMeters>2641</AltitudeMeters>
          <DistanceMeters>1.0</DistanceMeters>
          <HeartRateBpm>
            <Value>111</Value>
          </HeartRateBpm>
          <SensorState>Absent</SensorState>
        </Trackpoint>
        <Trackpoint>
          <Time>2025-01-04T00:47:17Z</Time>
              <Position>
                  <LatitudeDegrees>31.52132984</LatitudeDegrees>
                  <LongitudeDegrees>102.99253134</LongitudeDegrees>
              </Position>
          <AltitudeMeters>2641</AltitudeMeters>
          <DistanceMeters>1.0</DistanceMeters>
          <HeartRateBpm>
            <Value>111</Value>
          </HeartRateBpm>
          <SensorState>Absent</SensorState>
        </Trackpoint>
        <Trackpoint>
          <Time>2025-01-04T00:47:18Z</Time>
              <Position>
                  <LatitudeDegrees>31.52132932</LatitudeDegrees>
                  <LongitudeDegrees>102.99252084</LongitudeDegrees>
              </Position>
          <AltitudeMeters>2641</AltitudeMeters>
          <DistanceMeters>2.0</DistanceMeters>
          <HeartRateBpm>
            <Value>110</Value>
          </HeartRateBpm>
          <SensorState>Absent</SensorState>
        </Trackpoint>
        <Trackpoint>
          <Time>2025-01-04T00:47:19Z</Time>
              <Position>
                  <LatitudeDegrees>31.52132891</LatitudeDegrees>
                  <LongitudeDegrees>102.99252378</LongitudeDegrees>
              </Position>
          <AltitudeMeters>2639</AltitudeMeters>
          <DistanceMeters>2.0</DistanceMeters>
          <HeartRateBpm>
            <Value>109</Value>
          </HeartRateBpm>
          <SensorState>Absent</SensorState>
        </Trackpoint>
        <Trackpoint>
          <Time>2025-01-04T00:47:20Z</Time>
              <Position>
                  <LatitudeDegrees>31.52132906</LatitudeDegrees>
                  <LongitudeDegrees>102.99252305</LongitudeDegrees>
              </Position>
          <AltitudeMeters>2639</AltitudeMeters>
          <DistanceMeters>2.0</DistanceMeters>
          <HeartRateBpm>
            <Value>109</Value>
          </HeartRateBpm>
          <SensorState>Absent</SensorState>
        </Trackpoint>
        <Trackpoint>
          <Time>2025-01-04T00:47:21Z</Time>
              <Position>
                  <LatitudeDegrees>31.52131806</LatitudeDegrees>
                  <LongitudeDegrees>102.9925209</LongitudeDegrees>
              </Position>
          <AltitudeMeters>2639</AltitudeMeters>
          <DistanceMeters>3.0</DistanceMeters>
          <HeartRateBpm>
            <Value>109</Value>
          </HeartRateBpm>
          <SensorState>Absent</SensorState>
        </Trackpoint>
        <Trackpoint>
          <Time>2025-01-04T00:47:22Z</Time>
              <Position>
                  <LatitudeDegrees>31.52131138</LatitudeDegrees>
                  <LongitudeDegrees>102.9925178</LongitudeDegrees>
              </Position>
          <AltitudeMeters>2641</AltitudeMeters>
          <DistanceMeters>4.0</DistanceMeters>
          <HeartRateBpm>
            <Value>110</Value>
          </HeartRateBpm>
          <SensorState>Absent</SensorState>
        </Trackpoint>
        <Trackpoint>
          <Time>2025-01-04T00:47:23Z</Time>
              <Position>
                  <LatitudeDegrees>31.52131736</LatitudeDegrees>
                  <LongitudeDegrees>102.99250994</LongitudeDegrees>
              </Position>
          <AltitudeMeters>2641</AltitudeMeters>
          <DistanceMeters>5.0</DistanceMeters>
          <HeartRateBpm>
            <Value>109</Value>
          </HeartRateBpm>
          <SensorState>Absent</SensorState>
        </Trackpoint>
        <Trackpoint>
          <Time>2025-01-04T00:47:24Z</Time>
              <Position>
                  <LatitudeDegrees>31.52132756</LatitudeDegrees>
                  <LongitudeDegrees>102.99249982</LongitudeDegrees>
              </Position>
          <AltitudeMeters>2642</AltitudeMeters>
          <DistanceMeters>6.0</DistanceMeters>
          <HeartRateBpm>
            <Value>108</Value>
          </HeartRateBpm>
          <SensorState>Absent</SensorState>
        </Trackpoint>
        <Trackpoint>
          <Time>2025-01-04T00:47:25Z</Time>
              <Position>
                  <LatitudeDegrees>31.52132791</LatitudeDegrees>
                  <LongitudeDegrees>102.99249456</LongitudeDegrees>
              </Position>
          <AltitudeMeters>2642</AltitudeMeters>
          <DistanceMeters>7.0</DistanceMeters>
          <HeartRateBpm>
            <Value>107</Value>
          </HeartRateBpm>
          <SensorState>Absent</SensorState>
        </Trackpoint>
        <Trackpoint>
          <Time>2025-01-04T00:47:26Z</Time>
              <Position>
                  <LatitudeDegrees>31.52132864</LatitudeDegrees>
                  <LongitudeDegrees>102.99249264</LongitudeDegrees>
              </Position>
          <AltitudeMeters>2641</AltitudeMeters>
          <DistanceMeters>7.0</DistanceMeters>
          <HeartRateBpm>
            <Value>105</Value>
          </HeartRateBpm>
          <SensorState>Absent</SensorState>
        </Trackpoint>
        <Trackpoint>
          <Time>2025-01-04T00:47:27Z</Time>
              <Position>
                  <LatitudeDegrees>31.52133057</LatitudeDegrees>
                  <LongitudeDegrees>102.9924906</LongitudeDegrees>
              </Position>
          <AltitudeMeters>2642</AltitudeMeters>
          <DistanceMeters>7.0</DistanceMeters>
          <HeartRateBpm>
            <Value>102</Value>
          </HeartRateBpm>
          <SensorState>Absent</SensorState>
        </Trackpoint>
        <Trackpoint>
          <Time>2025-01-04T00:47:28Z</Time>
              <Position>
                  <LatitudeDegrees>31.52133482</LatitudeDegrees>
                  <LongitudeDegrees>102.99248813</LongitudeDegrees>
              </Position>
          <AltitudeMeters>2641</AltitudeMeters>
          <DistanceMeters>8.0</DistanceMeters>
          <HeartRateBpm>
            <Value>101</Value>
          </HeartRateBpm>
          <SensorState>Absent</SensorState>
        </Trackpoint>
        <Trackpoint>
          <Time>2025-01-04T00:47:29Z</Time>
              <Position>
                  <LatitudeDegrees>31.52133536</LatitudeDegrees>
                  <LongitudeDegrees>102.99248757</LongitudeDegrees>
              </Position>
          <AltitudeMeters>2641</AltitudeMeters>
          <DistanceMeters>8.0</DistanceMeters>
          <HeartRateBpm>
            <Value>101</Value>
          </HeartRateBpm>
          <SensorState>Absent</SensorState>
        </Trackpoint>
        <Trackpoint>
          <Time>2025-01-04T00:47:30Z</Time>
              <Position>
                  <LatitudeDegrees>31.52133544</LatitudeDegrees>
                  <LongitudeDegrees>102.99248744</LongitudeDegrees>
              </Position>
          <AltitudeMeters>2641</AltitudeMeters>
          <DistanceMeters>8.0</DistanceMeters>
          <HeartRateBpm>
            <Value>100</Value>
          </HeartRateBpm>
          <SensorState>Absent</SensorState>
        </Trackpoint>
        <Trackpoint>
          <Time>2025-01-04T00:47:31Z</Time>
              <Position>
                  <LatitudeDegrees>31.52133585</LatitudeDegrees>
                  <LongitudeDegrees>102.99248706</LongitudeDegrees>
              </Position>
          <AltitudeMeters>2641</AltitudeMeters>
          <DistanceMeters>8.0</DistanceMeters>
          <HeartRateBpm>
            <Value>100</Value>
          </HeartRateBpm>
          <SensorState>Absent</SensorState>
        </Trackpoint>
        <Trackpoint>
          <Time>2025-01-04T00:47:32Z</Time>
              <Position>
                  <LatitudeDegrees>31.52133615</LatitudeDegrees>
                  <LongitudeDegrees>102.99248691</LongitudeDegrees>
              </Position>
          <AltitudeMeters>2642</AltitudeMeters>
          <DistanceMeters>8.0</DistanceMeters>
          <HeartRateBpm>
            <Value>100</Value>
          </HeartRateBpm>
          <SensorState>Absent</SensorState>
        </Trackpoint>
        <Trackpoint>
          <Time>2025-01-04T00:47:33Z</Time>
              <Position>
                  <LatitudeDegrees>31.52134347</LatitudeDegrees>
                  <LongitudeDegrees>102.99247954</LongitudeDegrees>
              </Position>
          <AltitudeMeters>2642</AltitudeMeters>
          <DistanceMeters>9.0</DistanceMeters>
          <HeartRateBpm>
            <Value>100</Value>
          </HeartRateBpm>
          <SensorState>Absent</SensorState>
        </Trackpoint>
        <Trackpoint>
          <Time>2025-01-04T00:47:34Z</Time>
              <Position>
                  <LatitudeDegrees>31.52134978</LatitudeDegrees>
                  <LongitudeDegrees>102.99247445</LongitudeDegrees>
              </Position>
          <AltitudeMeters>2643</AltitudeMeters>
          <DistanceMeters>10.0</DistanceMeters>
          <HeartRateBpm>
            <Value>99</Value>
          </HeartRateBpm>
          <SensorState>Absent</SensorState>
        </Trackpoint>
        <Trackpoint>
          <Time>2025-01-04T00:47:35Z</Time>
              <Position>
                  <LatitudeDegrees>31.52135871</LatitudeDegrees>
                  <LongitudeDegrees>102.99246894</LongitudeDegrees>
              </Position>
          <AltitudeMeters>2643</AltitudeMeters>
          <DistanceMeters>11.0</DistanceMeters>
          <HeartRateBpm>
            <Value>99</Value>
          </HeartRateBpm>
          <SensorState>Absent</SensorState>
        </Trackpoint>
        <Trackpoint>
          <Time>2025-01-04T00:47:36Z</Time>
              <Position>
                  <LatitudeDegrees>31.52135816</LatitudeDegrees>
                  <LongitudeDegrees>102.99246682</LongitudeDegrees>
              </Position>
          <AltitudeMeters>2643</AltitudeMeters>
          <DistanceMeters>11.0</DistanceMeters>
          <HeartRateBpm>
            <Value>99</Value>
          </HeartRateBpm>
          <SensorState>Absent</SensorState>
        </Trackpoint>
        <Trackpoint>
          <Time>2025-01-04T00:47:37Z</Time>
              <Position>
                  <LatitudeDegrees>31.52136359</LatitudeDegrees>
                  <LongitudeDegrees>102.9924659</LongitudeDegrees>
              </Position>
          <AltitudeMeters>2643</AltitudeMeters>
          <DistanceMeters>12.0</DistanceMeters>
          <HeartRateBpm>
            <Value>99</Value>
          </HeartRateBpm>
          <SensorState>Absent</SensorState>
        </Trackpoint>
        <Trackpoint>
          <Time>2025-01-04T00:47:38Z</Time>
              <Position>
                  <LatitudeDegrees>31.52136805</LatitudeDegrees>
                  <LongitudeDegrees>102.99245962</LongitudeDegrees>
              </Position>
          <AltitudeMeters>2643</AltitudeMeters>
          <DistanceMeters>13.0</DistanceMeters>
          <HeartRateBpm>
            <Value>99</Value>
          </HeartRateBpm>
          <SensorState>Absent</SensorState>
        </Trackpoint>
        <Trackpoint>
          <Time>2025-01-04T00:47:39Z</Time>
              <Position>
                  <LatitudeDegrees>31.52137154</LatitudeDegrees>
                  <LongitudeDegrees>102.99245771</LongitudeDegrees>
              </Position>
          <AltitudeMeters>2644</AltitudeMeters>
          <DistanceMeters>13.0</DistanceMeters>
          <HeartRateBpm>
            <Value>99</Value>
          </HeartRateBpm>
          <SensorState>Absent</SensorState>
        </Trackpoint>
        <Trackpoint>
          <Time>2025-01-04T00:47:40Z</Time>
              <Position>
                  <LatitudeDegrees>31.52137056</LatitudeDegrees>
                  <LongitudeDegrees>102.99246174</LongitudeDegrees>
              </Position>
          <AltitudeMeters>2644</AltitudeMeters>
          <DistanceMeters>13.0</DistanceMeters>
          <HeartRateBpm>
            <Value>99</Value>
          </HeartRateBpm>
          <SensorState>Absent</SensorState>
        </Trackpoint>
        <Trackpoint>
          <Time>2025-01-04T00:47:41Z</Time>
              <Position>
                  <LatitudeDegrees>31.52138025</LatitudeDegrees>
                  <LongitudeDegrees>102.99246691</LongitudeDegrees>
              </Position>
          <AltitudeMeters>2644</AltitudeMeters>
          <DistanceMeters>14.0</DistanceMeters>
          <HeartRateBpm>
            <Value>99</Value>
          </HeartRateBpm>
          <SensorState>Absent</SensorState>
        </Trackpoint>
        <Trackpoint>
          <Time>2025-01-04T00:47:42Z</Time>
              <Position>
                  <LatitudeDegrees>31.52138859</LatitudeDegrees>
                  <LongitudeDegrees>102.99246935</LongitudeDegrees>
              </Position>
          <AltitudeMeters>2643</AltitudeMeters>
          <DistanceMeters>15.0</DistanceMeters>
          <HeartRateBpm>
            <Value>99</Value>
          </HeartRateBpm>
          <SensorState>Absent</SensorState>
        </Trackpoint>
        <Trackpoint>
          <Time>2025-01-04T01:04:36Z</Time>
              <Position>
                  <LatitudeDegrees>31.5205208</LatitudeDegrees>
                  <LongitudeDegrees>102.99162954</LongitudeDegrees>
              </Position>
          <AltitudeMeters>2614</AltitudeMeters>
          <DistanceMeters>25.0</DistanceMeters>
          <HeartRateBpm>
            <Value>130</Value>
          </HeartRateBpm>
          <SensorState>Absent</SensorState>
        </Trackpoint>
        <Trackpoint>
          <Time>2025-01-04T01:04:40Z</Time>
              <Position>
                  <LatitudeDegrees>31.52056528</LatitudeDegrees>
                  <LongitudeDegrees>102.99165426</LongitudeDegrees>
              </Position>
          <AltitudeMeters>2615</AltitudeMeters>
          <DistanceMeters>30.0</DistanceMeters>
          <HeartRateBpm>
            <Value>128</Value>
          </HeartRateBpm>
          <SensorState>Absent</SensorState>
        </Trackpoint>
        <Trackpoint>
          <Time>2025-01-04T01:04:44Z</Time>
              <Position>
                  <LatitudeDegrees>31.52061941</LatitudeDegrees>
                  <LongitudeDegrees>102.99165147</LongitudeDegrees>
              </Position>
          <AltitudeMeters>2616</AltitudeMeters>
          <DistanceMeters>36.0</DistanceMeters>
          <HeartRateBpm>
            <Value>126</Value>
          </HeartRateBpm>
          <SensorState>Absent</SensorState>
        </Trackpoint>
        <Trackpoint>
          <Time>2025-01-04T01:04:48Z</Time>
              <Position>
                  <LatitudeDegrees>31.52066163</LatitudeDegrees>
                  <LongitudeDegrees>102.99164221</LongitudeDegrees>
              </Position>
          <AltitudeMeters>2616</AltitudeMeters>
          <DistanceMeters>41.0</DistanceMeters>
          <HeartRateBpm>
            <Value>124</Value>
          </HeartRateBpm>
          <SensorState>Absent</SensorState>
        </Trackpoint>
        <Trackpoint>
          <Time>2025-01-04T01:04:52Z</Time>
              <Position>
                  <LatitudeDegrees>31.520713</LatitudeDegrees>
                  <LongitudeDegrees>102.99163898</LongitudeDegrees>
              </Position>
          <AltitudeMeters>2618</AltitudeMeters>
          <DistanceMeters>47.0</DistanceMeters>
          <HeartRateBpm>
            <Value>124</Value>
          </HeartRateBpm>
          <SensorState>Absent</SensorState>
        </Trackpoint>
        <Trackpoint>
          <Time>2025-01-04T01:05:08Z</Time>
              <Position>
                  <LatitudeDegrees>31.52079493</LatitudeDegrees>
                  <LongitudeDegrees>102.99161164</LongitudeDegrees>
              </Position>
          <AltitudeMeters>2622</AltitudeMeters>
          <DistanceMeters>53.0</DistanceMeters>
          <HeartRateBpm>
            <Value>132</Value>
          </HeartRateBpm>
          <SensorState>Absent</SensorState>
        </Trackpoint>
        <Trackpoint>
          <Time>2025-01-04T01:05:12Z</Time>
              <Position>
                  <LatitudeDegrees>31.52083706</LatitudeDegrees>
                  <LongitudeDegrees>102.99159443</LongitudeDegrees>
              </Position>
          <AltitudeMeters>2619</AltitudeMeters>
          <DistanceMeters>58.0</DistanceMeters>
          <HeartRateBpm>
            <Value>132</Value>
          </HeartRateBpm>
          <SensorState>Absent</SensorState>
        </Trackpoint>
        <Trackpoint>
          <Time>2025-01-04T01:05:16Z</Time>
              <Position>
                  <LatitudeDegrees>31.52088123</LatitudeDegrees>
                  <LongitudeDegrees>102.99161632</LongitudeDegrees>
              </Position>
          <AltitudeMeters>2620</AltitudeMeters>
          <DistanceMeters>63.0</DistanceMeters>
          <HeartRateBpm>
            <Value>131</Value>
          </HeartRateBpm>
          <SensorState>Absent</SensorState>
        </Trackpoint>
        <Trackpoint>
          <Time>2025-01-04T01:05:20Z</Time>
              <Position>
                  <LatitudeDegrees>31.5209176</LatitudeDegrees>
                  <LongitudeDegrees>102.99165091</LongitudeDegrees>
              </Position>
          <AltitudeMeters>2621</AltitudeMeters>
          <DistanceMeters>68.0</DistanceMeters>
          <HeartRateBpm>
            <Value>131</Value>
          </HeartRateBpm>
          <SensorState>Absent</SensorState>
        </Trackpoint>
        <Trackpoint>
          <Time>2025-01-04T01:05:24Z</Time>
              <Position>
                  <LatitudeDegrees>31.52095848</LatitudeDegrees>
                  <LongitudeDegrees>102.99167642</LongitudeDegrees>
              </Position>
          <AltitudeMeters>2621</AltitudeMeters>
          <DistanceMeters>73.0</DistanceMeters>
          <HeartRateBpm>
            <Value>135</Value>
          </HeartRateBpm>
          <SensorState>Absent</SensorState>
        </Trackpoint>
        <Trackpoint>
          <Time>2025-01-04T01:05:28Z</Time>
              <Position>
                  <LatitudeDegrees>31.52099363</LatitudeDegrees>
                  <LongitudeDegrees>102.99168572</LongitudeDegrees>
              </Position>
          <AltitudeMeters>2621</AltitudeMeters>
          <DistanceMeters>77.0</DistanceMeters>
          <HeartRateBpm>
            <Value>138</Value>
          </HeartRateBpm>
          <SensorState>Absent</SensorState>
        </Trackpoint>
        <Trackpoint>
          <Time>2025-01-04T01:05:32Z</Time>
              <Position>
                  <LatitudeDegrees>31.52102552</LatitudeDegrees>
                  <LongitudeDegrees>102.99167688</LongitudeDegrees>
              </Position>
          <AltitudeMeters>2620</AltitudeMeters>
          <DistanceMeters>81.0</DistanceMeters>
          <HeartRateBpm>
            <Value>139</Value>
          </HeartRateBpm>
          <SensorState>Absent</SensorState>
        </Trackpoint>
        <Trackpoint>
          <Time>2025-01-04T01:06:28Z</Time>
              <Position>
                  <LatitudeDegrees>31.5210547</LatitudeDegrees>
                  <LongitudeDegrees>102.99171024</LongitudeDegrees>
              </Position>
          <AltitudeMeters>2617</AltitudeMeters>
          <DistanceMeters>84.0</DistanceMeters>
          <HeartRateBpm>
            <Value>132</Value>
          </HeartRateBpm>
          <SensorState>Absent</SensorState>
        </Trackpoint>
        <Trackpoint>
          <Time>2025-01-04T01:58:41Z</Time>
              <Position>
                  <LatitudeDegrees>31.41576316</LatitudeDegrees>
                  <LongitudeDegrees>102.98505803</LongitudeDegrees>
              </Position>
          <AltitudeMeters>2233</AltitudeMeters>
          <DistanceMeters>89.0</DistanceMeters>
          <HeartRateBpm>
            <Value>92</Value>
          </HeartRateBpm>
          <SensorState>Absent</SensorState>
        </Trackpoint>
        <Trackpoint>
          <Time>2025-01-04T01:58:45Z</Time>
              <Position>
                  <LatitudeDegrees>31.41580414</LatitudeDegrees>
                  <LongitudeDegrees>102.98504384</LongitudeDegrees>
              </Position>
          <AltitudeMeters>2233</AltitudeMeters>
          <DistanceMeters>94.0</DistanceMeters>
          <HeartRateBpm>
            <Value>93</Value>
          </HeartRateBpm>
          <SensorState>Absent</SensorState>
        </Trackpoint>
        <Trackpoint>
          <Time>2025-01-04T01:58:49Z</Time>
              <Position>
                  <LatitudeDegrees>31.41584213</LatitudeDegrees>
                  <LongitudeDegrees>102.98507846</LongitudeDegrees>
              </Position>
          <AltitudeMeters>2233</AltitudeMeters>
          <DistanceMeters>99.0</DistanceMeters>
          <HeartRateBpm>
            <Value>94</Value>
          </HeartRateBpm>
          <SensorState>Absent</SensorState>
        </Trackpoint>
        <Trackpoint>
          <Time>2025-01-04T01:58:53Z</Time>
              <Position>
                  <LatitudeDegrees>31.4158535</LatitudeDegrees>
                  <LongitudeDegrees>102.98514236</LongitudeDegrees>
              </Position>
          <AltitudeMeters>2231</AltitudeMeters>
          <DistanceMeters>105.0</DistanceMeters>
          <HeartRateBpm>
            <Value>94</Value>
          </HeartRateBpm>
          <SensorState>Absent</SensorState>
        </Trackpoint>
        <Trackpoint>
          <Time>2025-01-04T01:58:57Z</Time>
              <Position>
                  <LatitudeDegrees>31.41583317</LatitudeDegrees>
                  <LongitudeDegrees>102.98519998</LongitudeDegrees>
              </Position>
          <AltitudeMeters>2231</AltitudeMeters>
          <DistanceMeters>111.0</DistanceMeters>
          <HeartRateBpm>
            <Value>98</Value>
          </HeartRateBpm>
          <SensorState>Absent</SensorState>
        </Trackpoint>
        <Trackpoint>
          <Time>2025-01-04T01:59:01Z</Time>
              <Position>
                  <LatitudeDegrees>31.41580377</LatitudeDegrees>
                  <LongitudeDegrees>102.98523671</LongitudeDegrees>
              </Position>
          <AltitudeMeters>2230</AltitudeMeters>
          <DistanceMeters>116.0</DistanceMeters>
          <HeartRateBpm>
            <Value>98</Value>
          </HeartRateBpm>
          <SensorState>Absent</SensorState>
        </Trackpoint>
        <Trackpoint>
          <Time>2025-01-04T01:59:05Z</Time>
              <Position>
                  <LatitudeDegrees>31.41578941</LatitudeDegrees>
                  <LongitudeDegrees>102.98528363</LongitudeDegrees>
              </Position>
          <AltitudeMeters>2230</AltitudeMeters>
          <DistanceMeters>121.0</DistanceMeters>
          <HeartRateBpm>
            <Value>99</Value>
          </HeartRateBpm>
          <SensorState>Absent</SensorState>
        </Trackpoint>
        <Trackpoint>
          <Time>2025-01-04T01:59:09Z</Time>
              <Position>
                  <LatitudeDegrees>31.4157633</LatitudeDegrees>
                  <LongitudeDegrees>102.98530495</LongitudeDegrees>
              </Position>
          <AltitudeMeters>2231</AltitudeMeters>
          <DistanceMeters>125.0</DistanceMeters>
          <HeartRateBpm>
            <Value>99</Value>
          </HeartRateBpm>
          <SensorState>Absent</SensorState>
        </Trackpoint>
        <Trackpoint>
          <Time>2025-01-04T01:59:25Z</Time>
              <Position>
                  <LatitudeDegrees>31.41572174</LatitudeDegrees>
                  <LongitudeDegrees>102.9854898</LongitudeDegrees>
              </Position>
          <AltitudeMeters>2228</AltitudeMeters>
          <DistanceMeters>131.0</DistanceMeters>
          <HeartRateBpm>
            <Value>96</Value>
          </HeartRateBpm>
          <SensorState>Absent</SensorState>
        </Trackpoint>
        <Trackpoint>
          <Time>2025-01-04T01:59:29Z</Time>
              <Position>
                  <LatitudeDegrees>31.41570844</LatitudeDegrees>
                  <LongitudeDegrees>102.9855549</LongitudeDegrees>
              </Position>
          <AltitudeMeters>2225</AltitudeMeters>
          <DistanceMeters>137.0</DistanceMeters>
          <HeartRateBpm>
            <Value>95</Value>
          </HeartRateBpm>
          <SensorState>Absent</SensorState>
        </Trackpoint>
        <Trackpoint>
          <Time>2025-01-04T01:59:33Z</Time>
              <Position>
                  <LatitudeDegrees>31.4157025</LatitudeDegrees>
                  <LongitudeDegrees>102.98563202</LongitudeDegrees>
              </Position>
          <AltitudeMeters>2225</AltitudeMeters>
          <DistanceMeters>144.0</DistanceMeters>
          <HeartRateBpm>
            <Value>96</Value>
          </HeartRateBpm>
          <Cadence><Value>106</Value></Cadence>
          <SensorState>Absent</SensorState>
        </Trackpoint>
        <Trackpoint>
          <Time>2025-01-04T01:59:37Z</Time>
              <Position>
                  <LatitudeDegrees>31.41571346</LatitudeDegrees>
                  <LongitudeDegrees>102.98570074</LongitudeDegrees>
              </Position>
          <AltitudeMeters>2224</AltitudeMeters>
          <DistanceMeters>151.0</DistanceMeters>
          <HeartRateBpm>
            <Value>96</Value>
          </HeartRateBpm>
          <Cadence><Value>106</Value></Cadence>
          <SensorState>Absent</SensorState>
        </Trackpoint>
        <Trackpoint>
          <Time>2025-01-04T01:59:41Z</Time>
              <Position>
                  <LatitudeDegrees>31.41571381</LatitudeDegrees>
                  <LongitudeDegrees>102.98575508</LongitudeDegrees>
              </Position>
          <AltitudeMeters>2221</AltitudeMeters>
          <DistanceMeters>156.0</DistanceMeters>
          <HeartRateBpm>
            <Value>96</Value>
          </HeartRateBpm>
          <SensorState>Absent</SensorState>
        </Trackpoint>
        <Trackpoint>
          <Time>2025-01-04T01:59:45Z</Time>
              <Position>
                  <LatitudeDegrees>31.41565631</LatitudeDegrees>
                  <LongitudeDegrees>102.98576134</LongitudeDegrees>
              </Position>
          <AltitudeMeters>2221</AltitudeMeters>
          <DistanceMeters>162.0</DistanceMeters>
          <HeartRateBpm>
            <Value>98</Value>
          </HeartRateBpm>
          <SensorState>Absent</SensorState>
        </Trackpoint>
        <Trackpoint>
          <Time>2025-01-04T01:59:49Z</Time>
              <Position>
                  <LatitudeDegrees>31.41561339</LatitudeDegrees>
                  <LongitudeDegrees>102.9856916</LongitudeDegrees>
              </Position>
          <AltitudeMeters>2222</AltitudeMeters>
          <DistanceMeters>170.0</DistanceMeters>
          <HeartRateBpm>
            <Value>98</Value>
          </HeartRateBpm>
          <SensorState>Absent</SensorState>
        </Trackpoint>
        <Trackpoint>
          <Time>2025-01-04T01:59:53Z</Time>
              <Position>
                  <LatitudeDegrees>31.41560278</LatitudeDegrees>
                  <LongitudeDegrees>102.98561863</LongitudeDegrees>
              </Position>
          <AltitudeMeters>2222</AltitudeMeters>
          <DistanceMeters>177.0</DistanceMeters>
          <HeartRateBpm>
            <Value>100</Value>
          </HeartRateBpm>
          <SensorState>Absent</SensorState>
        </Trackpoint>
        <Trackpoint>
          <Time>2025-01-04T01:59:57Z</Time>
              <Position>
                  <LatitudeDegrees>31.41554258</LatitudeDegrees>
                  <LongitudeDegrees>102.9856385</LongitudeDegrees>
              </Position>
          <AltitudeMeters>2223</AltitudeMeters>
          <DistanceMeters>184.0</DistanceMeters>
          <HeartRateBpm>
            <Value>100</Value>
          </HeartRateBpm>
          <SensorState>Absent</SensorState>
        </Trackpoint>
        <Trackpoint>
          <Time>2025-01-04T02:02:55Z</Time>
              <Position>
                  <LatitudeDegrees>31.41575907</LatitudeDegrees>
                  <LongitudeDegrees>102.98543091</LongitudeDegrees>
              </Position>
          <AltitudeMeters>2232</AltitudeMeters>
          <DistanceMeters>186.0</DistanceMeters>
          <HeartRateBpm>
            <Value>123</Value>
          </HeartRateBpm>
          <SensorState>Absent</SensorState>
        </Trackpoint>
        <Trackpoint>
          <Time>2025-01-04T02:03:23Z</Time>
              <Position>
                  <LatitudeDegrees>31.41578895</LatitudeDegrees>
                  <LongitudeDegrees>102.9853693</LongitudeDegrees>
              </Position>
          <AltitudeMeters>2231</AltitudeMeters>
          <DistanceMeters>189.0</DistanceMeters>
          <HeartRateBpm>
            <Value>108</Value>
          </HeartRateBpm>
          <SensorState>Absent</SensorState>
        </Trackpoint>
        <Trackpoint>
          <Time>2025-01-04T02:22:43Z</Time>
              <Position>
                  <LatitudeDegrees>31.41523371</LatitudeDegrees>
                  <LongitudeDegrees>102.98561584</LongitudeDegrees>
              </Position>
          <AltitudeMeters>2239</AltitudeMeters>
          <DistanceMeters>207.0</DistanceMeters>
          <HeartRateBpm>
            <Value>95</Value>
          </HeartRateBpm>
          <SensorState>Absent</SensorState>
        </Trackpoint>
        <Trackpoint>
          <Time>2025-01-04T02:22:47Z</Time>
              <Position>
                  <LatitudeDegrees>31.41519498</LatitudeDegrees>
                  <LongitudeDegrees>102.98563224</LongitudeDegrees>
              </Position>
          <AltitudeMeters>2239</AltitudeMeters>
          <DistanceMeters>212.0</DistanceMeters>
          <HeartRateBpm>
            <Value>95</Value>
          </HeartRateBpm>
          <SensorState>Absent</SensorState>
        </Trackpoint>
        <Trackpoint>
          <Time>2025-01-04T02:22:51Z</Time>
              <Position>
                  <LatitudeDegrees>31.41516054</LatitudeDegrees>
                  <LongitudeDegrees>102.98564189</LongitudeDegrees>
              </Position>
          <AltitudeMeters>2238</AltitudeMeters>
          <DistanceMeters>216.0</DistanceMeters>
          <HeartRateBpm>
            <Value>96</Value>
          </HeartRateBpm>
          <SensorState>Absent</SensorState>
        </Trackpoint>
        <Trackpoint>
          <Time>2025-01-04T02:22:55Z</Time>
              <Position>
                  <LatitudeDegrees>31.41512587</LatitudeDegrees>
                  <LongitudeDegrees>102.98565814</LongitudeDegrees>
              </Position>
          <AltitudeMeters>2237</AltitudeMeters>
          <DistanceMeters>220.0</DistanceMeters>
          <HeartRateBpm>
            <Value>97</Value>
          </HeartRateBpm>
          <SensorState>Absent</SensorState>
        </Trackpoint>
        <Trackpoint>
          <Time>2025-01-04T02:22:59Z</Time>
              <Position>
                  <LatitudeDegrees>31.4151118</LatitudeDegrees>
                  <LongitudeDegrees>102.98568834</LongitudeDegrees>
              </Position>
          <AltitudeMeters>2237</AltitudeMeters>
          <DistanceMeters>223.0</DistanceMeters>
          <HeartRateBpm>
            <Value>97</Value>
          </HeartRateBpm>
          <SensorState>Absent</SensorState>
        </Trackpoint>
        <Trackpoint>
          <Time>2025-01-04T02:23:03Z</Time>
              <Position>
                  <LatitudeDegrees>31.41511878</LatitudeDegrees>
                  <LongitudeDegrees>102.98572075</LongitudeDegrees>
              </Position>
          <AltitudeMeters>2237</AltitudeMeters>
          <DistanceMeters>226.0</DistanceMeters>
          <HeartRateBpm>
            <Value>97</Value>
          </HeartRateBpm>
          <SensorState>Absent</SensorState>
        </Trackpoint>
        <Trackpoint>
          <Time>2025-01-04T02:23:07Z</Time>
              <Position>
                  <LatitudeDegrees>31.41512702</LatitudeDegrees>
                  <LongitudeDegrees>102.98574192</LongitudeDegrees>
              </Position>
          <AltitudeMeters>2237</AltitudeMeters>
          <DistanceMeters>228.0</DistanceMeters>
          <HeartRateBpm>
            <Value>97</Value>
          </HeartRateBpm>
          <SensorState>Absent</SensorState>
        </Trackpoint>
        <Trackpoint>
          <Time>2025-01-04T02:23:11Z</Time>
              <Position>
                  <LatitudeDegrees>31.41513754</LatitudeDegrees>
                  <LongitudeDegrees>102.98576324</LongitudeDegrees>
              </Position>
          <AltitudeMeters>2238</AltitudeMeters>
          <DistanceMeters>230.0</DistanceMeters>
          <HeartRateBpm>
            <Value>98</Value>
          </HeartRateBpm>
          <SensorState>Absent</SensorState>
        </Trackpoint>
        <Trackpoint>
          <Time>2025-01-04T02:23:15Z</Time>
              <Position>
                  <LatitudeDegrees>31.41514817</LatitudeDegrees>
                  <LongitudeDegrees>102.98578969</LongitudeDegrees>
              </Position>
          <AltitudeMeters>2239</AltitudeMeters>
          <DistanceMeters>233.0</DistanceMeters>
          <HeartRateBpm>
            <Value>99</Value>
          </HeartRateBpm>
          <SensorState>Absent</SensorState>
        </Trackpoint>
	  </Track>
      </Lap>
      </Activity>
  </Activities>

</TrainingCenterDatabase>