<?xml version="1.0" encoding="UTF-8" standalone="no" ?>
<TrainingCenterDatabase xmlns="http://www.garmin.com/xmlschemas/TrainingCenterDatabase/v2" xmlns:xsi="http://www.w3.org/2001/XMLSchema-instance" xsi:schemaLocation="http://www.garmin.com/xmlschemas/TrainingCenterDatabase/v2 http://www.garmin.com/xmlschemas/TrainingCenterDatabasev2.xsd">
  <Activities>
    <Activity Sport="Other">
      <Id>2025-01-04T00:08:38Z</Id>
      <Notes>健走</Notes>
      <Lap StartTime="2025-01-04T00:08:38Z">
        <TotalTimeSeconds>760</TotalTimeSeconds>
        <DistanceMeters>77</DistanceMeters>
        <Calories>101</Calories>
        <AverageHeartRateBpm>
          <Value>107</Value>
        </AverageHeartRateBpm>
        <MaximumHeartRateBpm>
          <Value>135</Value>
        </MaximumHeartRateBpm>
        <Intensity>Active</Intensity>
        <TriggerMethod>Manual</TriggerMethod>	  <Track>
        <Trackpoint>
          <Time>2025-01-04T00:08:38Z</Time>
              <Position>
                  <LatitudeDegrees>31.52093779</LatitudeDegrees>
                  <LongitudeDegrees>102.9916378</LongitudeDegrees>
              </Position>
          <AltitudeMeters>2598</AltitudeMeters>
          <DistanceMeters>0.0</DistanceMeters>
          <HeartRateBpm>
            <Value>115</Value>
          </HeartRateBpm>
          <SensorState>Absent</SensorState>
        </Trackpoint>
        <Trackpoint>
          <Time>2025-01-04T00:08:41Z</Time>
              <Position>
                  <LatitudeDegrees>31.52093486</LatitudeDegrees>
                  <LongitudeDegrees>102.99168691</LongitudeDegrees>
              </Position>
          <AltitudeMeters>2629</AltitudeMeters>
          <DistanceMeters>5.0</DistanceMeters>
          <HeartRateBpm>
            <Value>115</Value>
          </HeartRateBpm>
          <SensorState>Absent</SensorState>
        </Trackpoint>
        <Trackpoint>
          <Time>2025-01-04T00:08:43Z</Time>
              <Position>
                  <LatitudeDegrees>31.52095045</LatitudeDegrees>
                  <LongitudeDegrees>102.99159509</LongitudeDegrees>
              </Position>
          <AltitudeMeters>2618</AltitudeMeters>
          <DistanceMeters>14.0</DistanceMeters>
          <HeartRateBpm>
            <Value>115</Value>
          </HeartRateBpm>
          <SensorState>Absent</SensorState>
        </Trackpoint>
        <Trackpoint>
          <Time>2025-01-04T00:08:44Z</Time>
              <Position>
                  <LatitudeDegrees>31.52093498</LatitudeDegrees>
                  <LongitudeDegrees>102.99158931</LongitudeDegrees>
              </Position>
          <AltitudeMeters>2615</AltitudeMeters>
          <DistanceMeters>16.0</DistanceMeters>
          <HeartRateBpm>
            <Value>115</Value>
          </HeartRateBpm>
          <SensorState>Absent</SensorState>
        </Trackpoint>
        <Trackpoint>
          <Time>2025-01-04T00:08:45Z</Time>
              <Position>
                  <LatitudeDegrees>31.52092393</LatitudeDegrees>
                  <LongitudeDegrees>102.99158441</LongitudeDegrees>
              </Position>
          <AltitudeMeters>2613</AltitudeMeters>
          <DistanceMeters>17.0</DistanceMeters>
          <HeartRateBpm>
            <Value>115</Value>
          </HeartRateBpm>
          <SensorState>Absent</SensorState>
        </Trackpoint>
        <Trackpoint>
          <Time>2025-01-04T00:08:46Z</Time>
              <Position>
                  <LatitudeDegrees>31.52091034</LatitudeDegrees>
                  <LongitudeDegrees>102.99158475</LongitudeDegrees>
              </Position>
          <AltitudeMeters>2613</AltitudeMeters>
          <DistanceMeters>19.0</DistanceMeters>
          <HeartRateBpm>
            <Value>115</Value>
          </HeartRateBpm>
          <SensorState>Absent</SensorState>
        </Trackpoint>
        <Trackpoint>
          <Time>2025-01-04T00:08:47Z</Time>
              <Position>
                  <LatitudeDegrees>31.52090826</LatitudeDegrees>
                  <LongitudeDegrees>102.99157825</LongitudeDegrees>
              </Position>
          <AltitudeMeters>2613</AltitudeMeters>
          <DistanceMeters>20.0</DistanceMeters>
          <HeartRateBpm>
            <Value>115</Value>
          </HeartRateBpm>
          <SensorState>Absent</SensorState>
        </Trackpoint>
        <Trackpoint>
          <Time>2025-01-04T00:08:48Z</Time>
              <Position>
                  <LatitudeDegrees>31.52090822</LatitudeDegrees>
                  <LongitudeDegrees>102.99157521</LongitudeDegrees>
              </Position>
          <AltitudeMeters>2613</AltitudeMeters>
          <DistanceMeters>20.0</DistanceMeters>
          <HeartRateBpm>
            <Value>114</Value>
          </HeartRateBpm>
          <SensorState>Absent</SensorState>
        </Trackpoint>
        <Trackpoint>
          <Time>2025-01-04T00:08:49Z</Time>
              <Position>
                  <LatitudeDegrees>31.52090854</LatitudeDegrees>
                  <LongitudeDegrees>102.99157381</LongitudeDegrees>
              </Position>
          <AltitudeMeters>2613</AltitudeMeters>
          <DistanceMeters>20.0</DistanceMeters>
          <HeartRateBpm>
            <Value>113</Value>
          </HeartRateBpm>
          <SensorState>Absent</SensorState>
        </Trackpoint>
        <Trackpoint>
          <Time>2025-01-04T00:08:50Z</Time>
              <Position>
                  <LatitudeDegrees>31.52090862</LatitudeDegrees>
                  <LongitudeDegrees>102.99157344</LongitudeDegrees>
              </Position>
          <AltitudeMeters>2613</AltitudeMeters>
          <DistanceMeters>20.0</DistanceMeters>
          <HeartRateBpm>
            <Value>113</Value>
          </HeartRateBpm>
          <SensorState>Absent</SensorState>
        </Trackpoint>
        <Trackpoint>
          <Time>2025-01-04T00:08:51Z</Time>
              <Position>
                  <LatitudeDegrees>31.52090707</LatitudeDegrees>
                  <LongitudeDegrees>102.99157476</LongitudeDegrees>
              </Position>
          <AltitudeMeters>2614</AltitudeMeters>
          <DistanceMeters>20.0</DistanceMeters>
          <HeartRateBpm>
            <Value>113</Value>
          </HeartRateBpm>
          <SensorState>Absent</SensorState>
        </Trackpoint>
        <Trackpoint>
          <Time>2025-01-04T00:08:52Z</Time>
              <Position>
                  <LatitudeDegrees>31.52090801</LatitudeDegrees>
                  <LongitudeDegrees>102.99158286</LongitudeDegrees>
              </Position>
          <AltitudeMeters>2614</AltitudeMeters>
          <DistanceMeters>21.0</DistanceMeters>
          <HeartRateBpm>
            <Value>112</Value>
          </HeartRateBpm>
          <SensorState>Absent</SensorState>
        </Trackpoint>
        <Trackpoint>
          <Time>2025-01-04T00:08:53Z</Time>
              <Position>
                  <LatitudeDegrees>31.52091652</LatitudeDegrees>
                  <LongitudeDegrees>102.99160371</LongitudeDegrees>
              </Position>
          <AltitudeMeters>2616</AltitudeMeters>
          <DistanceMeters>23.0</DistanceMeters>
          <HeartRateBpm>
            <Value>112</Value>
          </HeartRateBpm>
          <SensorState>Absent</SensorState>
        </Trackpoint>
        <Trackpoint>
          <Time>2025-01-04T00:08:54Z</Time>
              <Position>
                  <LatitudeDegrees>31.52092827</LatitudeDegrees>
                  <LongitudeDegrees>102.99162193</LongitudeDegrees>
              </Position>
          <AltitudeMeters>2616</AltitudeMeters>
          <DistanceMeters>25.0</DistanceMeters>
          <HeartRateBpm>
            <Value>113</Value>
          </HeartRateBpm>
          <SensorState>Absent</SensorState>
        </Trackpoint>
        <Trackpoint>
          <Time>2025-01-04T00:08:55Z</Time>
              <Position>
                  <LatitudeDegrees>31.52094386</LatitudeDegrees>
                  <LongitudeDegrees>102.99163984</LongitudeDegrees>
              </Position>
          <AltitudeMeters>2616</AltitudeMeters>
          <DistanceMeters>27.0</DistanceMeters>
          <HeartRateBpm>
            <Value>113</Value>
          </HeartRateBpm>
          <SensorState>Absent</SensorState>
        </Trackpoint>
        <Trackpoint>
          <Time>2025-01-04T00:08:56Z</Time>
              <Position>
                  <LatitudeDegrees>31.52095962</LatitudeDegrees>
                  <LongitudeDegrees>102.99165208</LongitudeDegrees>
              </Position>
          <AltitudeMeters>2616</AltitudeMeters>
          <DistanceMeters>29.0</DistanceMeters>
          <HeartRateBpm>
            <Value>114</Value>
          </HeartRateBpm>
          <SensorState>Absent</SensorState>
        </Trackpoint>
        <Trackpoint>
          <Time>2025-01-04T00:08:57Z</Time>
              <Position>
                  <LatitudeDegrees>31.5209737</LatitudeDegrees>
                  <LongitudeDegrees>102.99165755</LongitudeDegrees>
              </Position>
          <AltitudeMeters>2616</AltitudeMeters>
          <DistanceMeters>31.0</DistanceMeters>
          <HeartRateBpm>
            <Value>115</Value>
          </HeartRateBpm>
          <SensorState>Absent</SensorState>
        </Trackpoint>
        <Trackpoint>
          <Time>2025-01-04T00:08:58Z</Time>
              <Position>
                  <LatitudeDegrees>31.5209893</LatitudeDegrees>
                  <LongitudeDegrees>102.99166518</LongitudeDegrees>
              </Position>
          <AltitudeMeters>2616</AltitudeMeters>
          <DistanceMeters>33.0</DistanceMeters>
          <HeartRateBpm>
            <Value>114</Value>
          </HeartRateBpm>
          <SensorState>Absent</SensorState>
        </Trackpoint>
        <Trackpoint>
          <Time>2025-01-04T00:08:59Z</Time>
              <Position>
                  <LatitudeDegrees>31.5210046</LatitudeDegrees>
                  <LongitudeDegrees>102.99167219</LongitudeDegrees>
              </Position>
          <AltitudeMeters>2616</AltitudeMeters>
          <DistanceMeters>35.0</DistanceMeters>
          <HeartRateBpm>
            <Value>114</Value>
          </HeartRateBpm>
          <SensorState>Absent</SensorState>
        </Trackpoint>
        <Trackpoint>
          <Time>2025-01-04T00:09:00Z</Time>
              <Position>
                  <LatitudeDegrees>31.52101872</LatitudeDegrees>
                  <LongitudeDegrees>102.99167373</LongitudeDegrees>
              </Position>
          <AltitudeMeters>2616</AltitudeMeters>
          <DistanceMeters>37.0</DistanceMeters>
          <HeartRateBpm>
            <Value>114</Value>
          </HeartRateBpm>
          <SensorState>Absent</SensorState>
        </Trackpoint>
        <Trackpoint>
          <Time>2025-01-04T00:09:01Z</Time>
              <Position>
                  <LatitudeDegrees>31.52103123</LatitudeDegrees>
                  <LongitudeDegrees>102.99167763</LongitudeDegrees>
              </Position>
          <AltitudeMeters>2617</AltitudeMeters>
          <DistanceMeters>38.0</DistanceMeters>
          <HeartRateBpm>
            <Value>114</Value>
          </HeartRateBpm>
          <SensorState>Absent</SensorState>
        </Trackpoint>
        <Trackpoint>
          <Time>2025-01-04T00:09:02Z</Time>
              <Position>
                  <LatitudeDegrees>31.52104352</LatitudeDegrees>
                  <LongitudeDegrees>102.99168048</LongitudeDegrees>
              </Position>
          <AltitudeMeters>2617</AltitudeMeters>
          <DistanceMeters>39.0</DistanceMeters>
          <HeartRateBpm>
            <Value>114</Value>
          </HeartRateBpm>
          <SensorState>Absent</SensorState>
        </Trackpoint>
        <Trackpoint>
          <Time>2025-01-04T00:09:03Z</Time>
              <Position>
                  <LatitudeDegrees>31.52105264</LatitudeDegrees>
                  <LongitudeDegrees>102.99168128</LongitudeDegrees>
              </Position>
          <AltitudeMeters>2616</AltitudeMeters>
          <DistanceMeters>40.0</DistanceMeters>
          <HeartRateBpm>
            <Value>114</Value>
          </HeartRateBpm>
          <SensorState>Absent</SensorState>
        </Trackpoint>
        <Trackpoint>
          <Time>2025-01-04T00:09:04Z</Time>
              <Position>
                  <LatitudeDegrees>31.52106324</LatitudeDegrees>
                  <LongitudeDegrees>102.99168504</LongitudeDegrees>
              </Position>
          <AltitudeMeters>2617</AltitudeMeters>
          <DistanceMeters>41.0</DistanceMeters>
          <HeartRateBpm>
            <Value>114</Value>
          </HeartRateBpm>
          <SensorState>Absent</SensorState>
        </Trackpoint>
        <Trackpoint>
          <Time>2025-01-04T00:09:05Z</Time>
              <Position>
                  <LatitudeDegrees>31.52107663</LatitudeDegrees>
                  <LongitudeDegrees>102.99168857</LongitudeDegrees>
              </Position>
          <AltitudeMeters>2617</AltitudeMeters>
          <DistanceMeters>43.0</DistanceMeters>
          <HeartRateBpm>
            <Value>114</Value>
          </HeartRateBpm>
          <SensorState>Absent</SensorState>
        </Trackpoint>
        <Trackpoint>
          <Time>2025-01-04T00:09:06Z</Time>
              <Position>
                  <LatitudeDegrees>31.52109034</LatitudeDegrees>
                  <LongitudeDegrees>102.99169177</LongitudeDegrees>
              </Position>
          <AltitudeMeters>2616</AltitudeMeters>
          <DistanceMeters>45.0</DistanceMeters>
          <HeartRateBpm>
            <Value>114</Value>
          </HeartRateBpm>
          <SensorState>Absent</SensorState>
        </Trackpoint>
        <Trackpoint>
          <Time>2025-01-04T00:09:07Z</Time>
              <Position>
                  <LatitudeDegrees>31.52110423</LatitudeDegrees>
                  <LongitudeDegrees>102.99169662</LongitudeDegrees>
              </Position>
          <AltitudeMeters>2617</AltitudeMeters>
          <DistanceMeters>47.0</DistanceMeters>
          <HeartRateBpm>
            <Value>114</Value>
          </HeartRateBpm>
          <SensorState>Absent</SensorState>
        </Trackpoint>
        <Trackpoint>
          <Time>2025-01-04T00:09:08Z</Time>
              <Position>
                  <LatitudeDegrees>31.52111827</LatitudeDegrees>
                  <LongitudeDegrees>102.99170123</LongitudeDegrees>
              </Position>
          <AltitudeMeters>2617</AltitudeMeters>
          <DistanceMeters>49.0</DistanceMeters>
          <HeartRateBpm>
            <Value>114</Value>
          </HeartRateBpm>
          <SensorState>Absent</SensorState>
        </Trackpoint>
        <Trackpoint>
          <Time>2025-01-04T00:09:09Z</Time>
              <Position>
                  <LatitudeDegrees>31.52113262</LatitudeDegrees>
                  <LongitudeDegrees>102.99170206</LongitudeDegrees>
              </Position>
          <AltitudeMeters>2618</AltitudeMeters>
          <DistanceMeters>51.0</DistanceMeters>
          <HeartRateBpm>
            <Value>114</Value>
          </HeartRateBpm>
          <SensorState>Absent</SensorState>
        </Trackpoint>
        <Trackpoint>
          <Time>2025-01-04T00:09:10Z</Time>
              <Position>
                  <LatitudeDegrees>31.52114485</LatitudeDegrees>
                  <LongitudeDegrees>102.99170488</LongitudeDegrees>
              </Position>
          <AltitudeMeters>2618</AltitudeMeters>
          <DistanceMeters>52.0</DistanceMeters>
          <HeartRateBpm>
            <Value>114</Value>
          </HeartRateBpm>
          <SensorState>Absent</SensorState>
        </Trackpoint>
        <Trackpoint>
          <Time>2025-01-04T00:09:11Z</Time>
              <Position>
                  <LatitudeDegrees>31.52115418</LatitudeDegrees>
                  <LongitudeDegrees>102.99171372</LongitudeDegrees>
              </Position>
          <AltitudeMeters>2619</AltitudeMeters>
          <DistanceMeters>53.0</DistanceMeters>
          <HeartRateBpm>
            <Value>113</Value>
          </HeartRateBpm>
          <SensorState>Absent</SensorState>
        </Trackpoint>
        <Trackpoint>
          <Time>2025-01-04T00:09:19Z</Time>
              <Position>
                  <LatitudeDegrees>31.52118818</LatitudeDegrees>
                  <LongitudeDegrees>102.99171229</LongitudeDegrees>
              </Position>
          <AltitudeMeters>2614</AltitudeMeters>
          <DistanceMeters>54.0</DistanceMeters>
          <HeartRateBpm>
            <Value>113</Value>
          </HeartRateBpm>
          <SensorState>Absent</SensorState>
        </Trackpoint>
        <Trackpoint>
          <Time>2025-01-04T00:09:20Z</Time>
              <Position>
                  <LatitudeDegrees>31.52119908</LatitudeDegrees>
                  <LongitudeDegrees>102.99171386</LongitudeDegrees>
              </Position>
          <AltitudeMeters>2614</AltitudeMeters>
          <DistanceMeters>55.0</DistanceMeters>
          <HeartRateBpm>
            <Value>112</Value>
          </HeartRateBpm>
          <SensorState>Absent</SensorState>
        </Trackpoint>
        <Trackpoint>
          <Time>2025-01-04T00:09:21Z</Time>
              <Position>
                  <LatitudeDegrees>31.52121248</LatitudeDegrees>
                  <LongitudeDegrees>102.99170928</LongitudeDegrees>
              </Position>
          <AltitudeMeters>2612</AltitudeMeters>
          <DistanceMeters>57.0</DistanceMeters>
          <HeartRateBpm>
            <Value>112</Value>
          </HeartRateBpm>
          <SensorState>Absent</SensorState>
        </Trackpoint>
        <Trackpoint>
          <Time>2025-01-04T00:09:22Z</Time>
              <Position>
                  <LatitudeDegrees>31.52122535</LatitudeDegrees>
                  <LongitudeDegrees>102.99170714</LongitudeDegrees>
              </Position>
          <AltitudeMeters>2612</AltitudeMeters>
          <DistanceMeters>58.0</DistanceMeters>
          <HeartRateBpm>
            <Value>113</Value>
          </HeartRateBpm>
          <SensorState>Absent</SensorState>
        </Trackpoint>
        <Trackpoint>
          <Time>2025-01-04T00:09:23Z</Time>
              <Position>
                  <LatitudeDegrees>31.52123914</LatitudeDegrees>
                  <LongitudeDegrees>102.99170243</LongitudeDegrees>
              </Position>
          <AltitudeMeters>2612</AltitudeMeters>
          <DistanceMeters>60.0</DistanceMeters>
          <HeartRateBpm>
            <Value>114</Value>
          </HeartRateBpm>
          <SensorState>Absent</SensorState>
        </Trackpoint>
        <Trackpoint>
          <Time>2025-01-04T00:09:24Z</Time>
              <Position>
                  <LatitudeDegrees>31.52125169</LatitudeDegrees>
                  <LongitudeDegrees>102.99169711</LongitudeDegrees>
              </Position>
          <AltitudeMeters>2612</AltitudeMeters>
          <DistanceMeters>61.0</DistanceMeters>
          <HeartRateBpm>
            <Value>113</Value>
          </HeartRateBpm>
          <SensorState>Absent</SensorState>
        </Trackpoint>
        <Trackpoint>
          <Time>2025-01-04T00:09:25Z</Time>
              <Position>
                  <LatitudeDegrees>31.52126389</LatitudeDegrees>
                  <LongitudeDegrees>102.99169462</LongitudeDegrees>
              </Position>
          <AltitudeMeters>2612</AltitudeMeters>
          <DistanceMeters>62.0</DistanceMeters>
          <HeartRateBpm>
            <Value>113</Value>
          </HeartRateBpm>
          <SensorState>Absent</SensorState>
        </Trackpoint>
        <Trackpoint>
          <Time>2025-01-04T00:09:26Z</Time>
              <Position>
                  <LatitudeDegrees>31.52127907</LatitudeDegrees>
                  <LongitudeDegrees>102.99169373</LongitudeDegrees>
              </Position>
          <AltitudeMeters>2612</AltitudeMeters>
          <DistanceMeters>64.0</DistanceMeters>
          <HeartRateBpm>
            <Value>113</Value>
          </HeartRateBpm>
          <SensorState>Absent</SensorState>
        </Trackpoint>
        <Trackpoint>
          <Time>2025-01-04T00:09:27Z</Time>
              <Position>
                  <LatitudeDegrees>31.52129239</LatitudeDegrees>
                  <LongitudeDegrees>102.99169276</LongitudeDegrees>
              </Position>
          <AltitudeMeters>2612</AltitudeMeters>
          <DistanceMeters>65.0</DistanceMeters>
          <HeartRateBpm>
            <Value>113</Value>
          </HeartRateBpm>
          <SensorState>Absent</SensorState>
        </Trackpoint>
        <Trackpoint>
          <Time>2025-01-04T00:09:28Z</Time>
              <Position>
                  <LatitudeDegrees>31.5213053</LatitudeDegrees>
                  <LongitudeDegrees>102.99169066</LongitudeDegrees>
              </Position>
          <AltitudeMeters>2612</AltitudeMeters>
          <DistanceMeters>66.0</DistanceMeters>
          <HeartRateBpm>
            <Value>113</Value>
          </HeartRateBpm>
          <SensorState>Absent</SensorState>
        </Trackpoint>
        <Trackpoint>
          <Time>2025-01-04T00:09:29Z</Time>
              <Position>
                  <LatitudeDegrees>31.52131936</LatitudeDegrees>
                  <LongitudeDegrees>102.99168926</LongitudeDegrees>
              </Position>
          <AltitudeMeters>2611</AltitudeMeters>
          <DistanceMeters>68.0</DistanceMeters>
          <HeartRateBpm>
            <Value>117</Value>
          </HeartRateBpm>
          <SensorState>Absent</SensorState>
        </Trackpoint>
        <Trackpoint>
          <Time>2025-01-04T00:09:30Z</Time>
              <Position>
                  <LatitudeDegrees>31.52133276</LatitudeDegrees>
                  <LongitudeDegrees>102.99168729</LongitudeDegrees>
              </Position>
          <AltitudeMeters>2611</AltitudeMeters>
          <DistanceMeters>69.0</DistanceMeters>
          <HeartRateBpm>
            <Value>117</Value>
          </HeartRateBpm>
          <SensorState>Absent</SensorState>
        </Trackpoint>
        <Trackpoint>
          <Time>2025-01-04T00:09:31Z</Time>
              <Position>
                  <LatitudeDegrees>31.52134649</LatitudeDegrees>
                  <LongitudeDegrees>102.99168718</LongitudeDegrees>
              </Position>
          <AltitudeMeters>2612</AltitudeMeters>
          <DistanceMeters>71.0</DistanceMeters>
          <HeartRateBpm>
            <Value>117</Value>
          </HeartRateBpm>
          <SensorState>Absent</SensorState>
        </Trackpoint>
        <Trackpoint>
          <Time>2025-01-04T00:09:32Z</Time>
              <Position>
                  <LatitudeDegrees>31.5213566</LatitudeDegrees>
                  <LongitudeDegrees>102.99168887</LongitudeDegrees>
              </Position>
          <AltitudeMeters>2610</AltitudeMeters>
          <DistanceMeters>72.0</DistanceMeters>
          <HeartRateBpm>
            <Value>117</Value>
          </HeartRateBpm>
          <SensorState>Absent</SensorState>
        </Trackpoint>
        <Trackpoint>
          <Time>2025-01-04T00:09:33Z</Time>
              <Position>
                  <LatitudeDegrees>31.52136696</LatitudeDegrees>
                  <LongitudeDegrees>102.9916909</LongitudeDegrees>
              </Position>
          <AltitudeMeters>2608</AltitudeMeters>
          <DistanceMeters>73.0</DistanceMeters>
          <HeartRateBpm>
            <Value>118</Value>
          </HeartRateBpm>
          <SensorState>Absent</SensorState>
        </Trackpoint>
        <Trackpoint>
          <Time>2025-01-04T00:09:34Z</Time>
              <Position>
                  <LatitudeDegrees>31.52137959</LatitudeDegrees>
                  <LongitudeDegrees>102.99169334</LongitudeDegrees>
              </Position>
          <AltitudeMeters>2608</AltitudeMeters>
          <DistanceMeters>74.0</DistanceMeters>
          <HeartRateBpm>
            <Value>119</Value>
          </HeartRateBpm>
          <SensorState>Absent</SensorState>
        </Trackpoint>
        <Trackpoint>
          <Time>2025-01-04T00:09:35Z</Time>
              <Position>
                  <LatitudeDegrees>31.52139289</LatitudeDegrees>
                  <LongitudeDegrees>102.9916947</LongitudeDegrees>
              </Position>
          <AltitudeMeters>2608</AltitudeMeters>
          <DistanceMeters>75.0</DistanceMeters>
          <HeartRateBpm>
            <Value>119</Value>
          </HeartRateBpm>
          <Cadence><Value>101</Value></Cadence>
          <SensorState>Absent</SensorState>
        </Trackpoint>
        <Trackpoint>
          <Time>2025-01-04T00:09:36Z</Time>
              <Position>
                  <LatitudeDegrees>31.52140474</LatitudeDegrees>
                  <LongitudeDegrees>102.99169388</LongitudeDegrees>
              </Position>
          <AltitudeMeters>2608</AltitudeMeters>
          <DistanceMeters>76.0</DistanceMeters>
          <HeartRateBpm>
            <Value>119</Value>
          </HeartRateBpm>
          <Cadence><Value>101</Value></Cadence>
          <SensorState>Absent</SensorState>
        </Trackpoint>
        <Trackpoint>
          <Time>2025-01-04T00:09:37Z</Time>
              <Position>
                  <LatitudeDegrees>31.52141672</LatitudeDegrees>
                  <LongitudeDegrees>102.99170032</LongitudeDegrees>
              </Position>
          <AltitudeMeters>2608</AltitudeMeters>
          <DistanceMeters>77.0</DistanceMeters>
          <HeartRateBpm>
            <Value>118</Value>
          </HeartRateBpm>
          <Cadence><Value>101</Value></Cadence>
          <SensorState>Absent</SensorState>
        </Trackpoint>
	  </Track>
      </Lap>
      </Activity>
  </Activities>

</TrainingCenterDatabase>