<?xml version="1.0" encoding="UTF-8" standalone="no" ?>
<TrainingCenterDatabase xmlns="http://www.garmin.com/xmlschemas/TrainingCenterDatabase/v2" xmlns:xsi="http://www.w3.org/2001/XMLSchema-instance" xsi:schemaLocation="http://www.garmin.com/xmlschemas/TrainingCenterDatabase/v2 http://www.garmin.com/xmlschemas/TrainingCenterDatabasev2.xsd">
  <Activities>
    <Activity Sport="Other">
      <Id>2025-01-10T14:59:48Z</Id>
      <Notes>舞蹈</Notes>
      <Lap StartTime="2025-01-10T14:59:48Z">
        <TotalTimeSeconds>4814</TotalTimeSeconds>
        <DistanceMeters>1477</DistanceMeters>
        <Calories>616</Calories>
        <AverageHeartRateBpm>
          <Value>122</Value>
        </AverageHeartRateBpm>
        <MaximumHeartRateBpm>
          <Value>182</Value>
        </MaximumHeartRateBpm>
        <Intensity>Active</Intensity>
        <TriggerMethod>Manual</TriggerMethod>
	  <Track>
        <Trackpoint>
          <Time>2025-01-10T15:00:00Z</Time>
          <DistanceMeters>0.0</DistanceMeters>
          <HeartRateBpm>
            <Value>78</Value>
          </HeartRateBpm>
          <SensorState>Absent</SensorState>
        </Trackpoint>
        <Trackpoint>
          <Time>2025-01-10T15:00:03Z</Time>
          <DistanceMeters>0.0</DistanceMeters>
          <HeartRateBpm>
            <Value>72</Value>
          </HeartRateBpm>
          <SensorState>Absent</SensorState>
        </Trackpoint>
        <Trackpoint>
          <Time>2025-01-10T15:00:32Z</Time>
          <DistanceMeters>0.0</DistanceMeters>
          <HeartRateBpm>
            <Value>78</Value>
          </HeartRateBpm>
          <SensorState>Absent</SensorState>
        </Trackpoint>
        <Trackpoint>
          <Time>2025-01-10T15:00:41Z</Time>
          <DistanceMeters>0.0</DistanceMeters>
          <HeartRateBpm>
            <Value>89</Value>
          </HeartRateBpm>
          <SensorState>Absent</SensorState>
        </Trackpoint>
        <Trackpoint>
          <Time>2025-01-10T15:00:46Z</Time>
          <DistanceMeters>0.0</DistanceMeters>
          <HeartRateBpm>
            <Value>95</Value>
          </HeartRateBpm>
          <SensorState>Absent</SensorState>
        </Trackpoint>
        <Trackpoint>
          <Time>2025-01-10T15:00:58Z</Time>
          <DistanceMeters>0.0</DistanceMeters>
          <HeartRateBpm>
            <Value>89</Value>
          </HeartRateBpm>
          <SensorState>Absent</SensorState>
        </Trackpoint>
        <Trackpoint>
          <Time>2025-01-10T15:01:00Z</Time>
          <DistanceMeters>0.0</DistanceMeters>
          <HeartRateBpm>
            <Value>85</Value>
          </HeartRateBpm>
          <Cadence><Value>54</Value></Cadence>
          <SensorState>Absent</SensorState>
        </Trackpoint>
        <Trackpoint>
          <Time>2025-01-10T15:01:04Z</Time>
          <DistanceMeters>0.0</DistanceMeters>
          <HeartRateBpm>
            <Value>95</Value>
          </HeartRateBpm>
          <Cadence><Value>54</Value></Cadence>
          <SensorState>Absent</SensorState>
        </Trackpoint>
        <Trackpoint>
          <Time>2025-01-10T15:01:25Z</Time>
          <DistanceMeters>0.0</DistanceMeters>
          <HeartRateBpm>
            <Value>89</Value>
          </HeartRateBpm>
          <Cadence><Value>54</Value></Cadence>
          <SensorState>Absent</SensorState>
        </Trackpoint>
        <Trackpoint>
          <Time>2025-01-10T15:01:33Z</Time>
          <DistanceMeters>0.0</DistanceMeters>
          <HeartRateBpm>
            <Value>82</Value>
          </HeartRateBpm>
          <Cadence><Value>54</Value></Cadence>
          <SensorState>Absent</SensorState>
        </Trackpoint>
        <Trackpoint>
          <Time>2025-01-10T15:01:59Z</Time>
          <DistanceMeters>0.0</DistanceMeters>
          <HeartRateBpm>
            <Value>88</Value>
          </HeartRateBpm>
          <Cadence><Value>54</Value></Cadence>
          <SensorState>Absent</SensorState>
        </Trackpoint>
        <Trackpoint>
          <Time>2025-01-10T15:02:00Z</Time>
          <DistanceMeters>0.0</DistanceMeters>
          <HeartRateBpm>
            <Value>96</Value>
          </HeartRateBpm>
          <Cadence><Value>104</Value></Cadence>
          <SensorState>Absent</SensorState>
        </Trackpoint>
        <Trackpoint>
          <Time>2025-01-10T15:02:29Z</Time>
          <DistanceMeters>0.0</DistanceMeters>
          <HeartRateBpm>
            <Value>95</Value>
          </HeartRateBpm>
          <Cadence><Value>104</Value></Cadence>
          <SensorState>Absent</SensorState>
        </Trackpoint>
        <Trackpoint>
          <Time>2025-01-10T15:02:34Z</Time>
          <DistanceMeters>0.0</DistanceMeters>
          <HeartRateBpm>
            <Value>103</Value>
          </HeartRateBpm>
          <Cadence><Value>104</Value></Cadence>
          <SensorState>Absent</SensorState>
        </Trackpoint>
        <Trackpoint>
          <Time>2025-01-10T15:02:43Z</Time>
          <DistanceMeters>0.0</DistanceMeters>
          <HeartRateBpm>
            <Value>109</Value>
          </HeartRateBpm>
          <Cadence><Value>104</Value></Cadence>
          <SensorState>Absent</SensorState>
        </Trackpoint>
        <Trackpoint>
          <Time>2025-01-10T15:02:51Z</Time>
          <DistanceMeters>0.0</DistanceMeters>
          <HeartRateBpm>
            <Value>115</Value>
          </HeartRateBpm>
          <Cadence><Value>104</Value></Cadence>
          <SensorState>Absent</SensorState>
        </Trackpoint>
        <Trackpoint>
          <Time>2025-01-10T15:02:56Z</Time>
          <DistanceMeters>0.0</DistanceMeters>
          <HeartRateBpm>
            <Value>123</Value>
          </HeartRateBpm>
          <Cadence><Value>104</Value></Cadence>
          <SensorState>Absent</SensorState>
        </Trackpoint>
        <Trackpoint>
          <Time>2025-01-10T15:03:00Z</Time>
          <DistanceMeters>0.0</DistanceMeters>
          <HeartRateBpm>
            <Value>126</Value>
          </HeartRateBpm>
          <Cadence><Value>105</Value></Cadence>
          <SensorState>Absent</SensorState>
        </Trackpoint>
        <Trackpoint>
          <Time>2025-01-10T15:03:00Z</Time>
          <DistanceMeters>0.0</DistanceMeters>
          <HeartRateBpm>
            <Value>129</Value>
          </HeartRateBpm>
          <Cadence><Value>105</Value></Cadence>
          <SensorState>Absent</SensorState>
        </Trackpoint>
        <Trackpoint>
          <Time>2025-01-10T15:03:08Z</Time>
          <DistanceMeters>0.0</DistanceMeters>
          <HeartRateBpm>
            <Value>137</Value>
          </HeartRateBpm>
          <Cadence><Value>105</Value></Cadence>
          <SensorState>Absent</SensorState>
        </Trackpoint>
        <Trackpoint>
          <Time>2025-01-10T15:03:12Z</Time>
          <DistanceMeters>0.0</DistanceMeters>
          <HeartRateBpm>
            <Value>143</Value>
          </HeartRateBpm>
          <Cadence><Value>105</Value></Cadence>
          <SensorState>Absent</SensorState>
        </Trackpoint>
        <Trackpoint>
          <Time>2025-01-10T15:03:32Z</Time>
          <DistanceMeters>0.0</DistanceMeters>
          <HeartRateBpm>
            <Value>136</Value>
          </HeartRateBpm>
          <Cadence><Value>105</Value></Cadence>
          <SensorState>Absent</SensorState>
        </Trackpoint>
        <Trackpoint>
          <Time>2025-01-10T15:03:40Z</Time>
          <DistanceMeters>0.0</DistanceMeters>
          <HeartRateBpm>
            <Value>129</Value>
          </HeartRateBpm>
          <Cadence><Value>105</Value></Cadence>
          <SensorState>Absent</SensorState>
        </Trackpoint>
        <Trackpoint>
          <Time>2025-01-10T15:03:47Z</Time>
          <DistanceMeters>0.0</DistanceMeters>
          <HeartRateBpm>
            <Value>135</Value>
          </HeartRateBpm>
          <Cadence><Value>105</Value></Cadence>
          <SensorState>Absent</SensorState>
        </Trackpoint>
        <Trackpoint>
          <Time>2025-01-10T15:03:52Z</Time>
          <DistanceMeters>0.0</DistanceMeters>
          <HeartRateBpm>
            <Value>142</Value>
          </HeartRateBpm>
          <Cadence><Value>105</Value></Cadence>
          <SensorState>Absent</SensorState>
        </Trackpoint>
        <Trackpoint>
          <Time>2025-01-10T15:04:00Z</Time>
          <DistanceMeters>0.0</DistanceMeters>
          <HeartRateBpm>
            <Value>129</Value>
          </HeartRateBpm>
          <Cadence><Value>53</Value></Cadence>
          <SensorState>Absent</SensorState>
        </Trackpoint>
        <Trackpoint>
          <Time>2025-01-10T15:04:08Z</Time>
          <DistanceMeters>0.0</DistanceMeters>
          <HeartRateBpm>
            <Value>136</Value>
          </HeartRateBpm>
          <Cadence><Value>53</Value></Cadence>
          <SensorState>Absent</SensorState>
        </Trackpoint>
        <Trackpoint>
          <Time>2025-01-10T15:04:13Z</Time>
          <DistanceMeters>0.0</DistanceMeters>
          <HeartRateBpm>
            <Value>124</Value>
          </HeartRateBpm>
          <Cadence><Value>53</Value></Cadence>
          <SensorState>Absent</SensorState>
        </Trackpoint>
        <Trackpoint>
          <Time>2025-01-10T15:04:39Z</Time>
          <DistanceMeters>0.0</DistanceMeters>
          <HeartRateBpm>
            <Value>130</Value>
          </HeartRateBpm>
          <Cadence><Value>53</Value></Cadence>
          <SensorState>Absent</SensorState>
        </Trackpoint>
        <Trackpoint>
          <Time>2025-01-10T15:04:52Z</Time>
          <DistanceMeters>0.0</DistanceMeters>
          <HeartRateBpm>
            <Value>136</Value>
          </HeartRateBpm>
          <Cadence><Value>53</Value></Cadence>
          <SensorState>Absent</SensorState>
        </Trackpoint>
        <Trackpoint>
          <Time>2025-01-10T15:05:00Z</Time>
          <DistanceMeters>0.0</DistanceMeters>
          <HeartRateBpm>
            <Value>131</Value>
          </HeartRateBpm>
          <SensorState>Absent</SensorState>
        </Trackpoint>
        <Trackpoint>
          <Time>2025-01-10T15:05:21Z</Time>
          <DistanceMeters>0.0</DistanceMeters>
          <HeartRateBpm>
            <Value>130</Value>
          </HeartRateBpm>
          <SensorState>Absent</SensorState>
        </Trackpoint>
        <Trackpoint>
          <Time>2025-01-10T15:06:00Z</Time>
          <DistanceMeters>0.0</DistanceMeters>
          <HeartRateBpm>
            <Value>139</Value>
          </HeartRateBpm>
          <SensorState>Absent</SensorState>
        </Trackpoint>
        <Trackpoint>
          <Time>2025-01-10T15:06:04Z</Time>
          <DistanceMeters>0.0</DistanceMeters>
          <HeartRateBpm>
            <Value>136</Value>
          </HeartRateBpm>
          <SensorState>Absent</SensorState>
        </Trackpoint>
        <Trackpoint>
          <Time>2025-01-10T15:06:16Z</Time>
          <DistanceMeters>0.0</DistanceMeters>
          <HeartRateBpm>
            <Value>143</Value>
          </HeartRateBpm>
          <SensorState>Absent</SensorState>
        </Trackpoint>
        <Trackpoint>
          <Time>2025-01-10T15:06:20Z</Time>
          <DistanceMeters>0.0</DistanceMeters>
          <HeartRateBpm>
            <Value>151</Value>
          </HeartRateBpm>
          <SensorState>Absent</SensorState>
        </Trackpoint>
        <Trackpoint>
          <Time>2025-01-10T15:06:27Z</Time>
          <DistanceMeters>0.0</DistanceMeters>
          <HeartRateBpm>
            <Value>145</Value>
          </HeartRateBpm>
          <SensorState>Absent</SensorState>
        </Trackpoint>
        <Trackpoint>
          <Time>2025-01-10T15:07:00Z</Time>
          <DistanceMeters>0.0</DistanceMeters>
          <HeartRateBpm>
            <Value>152</Value>
          </HeartRateBpm>
          <SensorState>Absent</SensorState>
        </Trackpoint>
        <Trackpoint>
          <Time>2025-01-10T15:07:14Z</Time>
          <DistanceMeters>0.0</DistanceMeters>
          <HeartRateBpm>
            <Value>152</Value>
          </HeartRateBpm>
          <SensorState>Absent</SensorState>
        </Trackpoint>
        <Trackpoint>
          <Time>2025-01-10T15:07:23Z</Time>
          <DistanceMeters>0.0</DistanceMeters>
          <HeartRateBpm>
            <Value>146</Value>
          </HeartRateBpm>
          <SensorState>Absent</SensorState>
        </Trackpoint>
        <Trackpoint>
          <Time>2025-01-10T15:07:28Z</Time>
          <DistanceMeters>0.0</DistanceMeters>
          <HeartRateBpm>
            <Value>154</Value>
          </HeartRateBpm>
          <SensorState>Absent</SensorState>
        </Trackpoint>
        <Trackpoint>
          <Time>2025-01-10T15:07:39Z</Time>
          <DistanceMeters>0.0</DistanceMeters>
          <HeartRateBpm>
            <Value>164</Value>
          </HeartRateBpm>
          <SensorState>Absent</SensorState>
        </Trackpoint>
        <Trackpoint>
          <Time>2025-01-10T15:07:43Z</Time>
          <DistanceMeters>0.0</DistanceMeters>
          <HeartRateBpm>
            <Value>170</Value>
          </HeartRateBpm>
          <SensorState>Absent</SensorState>
        </Trackpoint>
        <Trackpoint>
          <Time>2025-01-10T15:07:52Z</Time>
          <DistanceMeters>0.0</DistanceMeters>
          <HeartRateBpm>
            <Value>178</Value>
          </HeartRateBpm>
          <SensorState>Absent</SensorState>
        </Trackpoint>
        <Trackpoint>
          <Time>2025-01-10T15:07:58Z</Time>
          <DistanceMeters>0.0</DistanceMeters>
          <HeartRateBpm>
            <Value>172</Value>
          </HeartRateBpm>
          <SensorState>Absent</SensorState>
        </Trackpoint>
        <Trackpoint>
          <Time>2025-01-10T15:08:00Z</Time>
          <DistanceMeters>0.0</DistanceMeters>
          <HeartRateBpm>
            <Value>144</Value>
          </HeartRateBpm>
          <Cadence><Value>120</Value></Cadence>
          <SensorState>Absent</SensorState>
        </Trackpoint>
        <Trackpoint>
          <Time>2025-01-10T15:08:04Z</Time>
          <DistanceMeters>0.0</DistanceMeters>
          <HeartRateBpm>
            <Value>164</Value>
          </HeartRateBpm>
          <Cadence><Value>120</Value></Cadence>
          <SensorState>Absent</SensorState>
        </Trackpoint>
        <Trackpoint>
          <Time>2025-01-10T15:08:06Z</Time>
          <DistanceMeters>0.0</DistanceMeters>
          <HeartRateBpm>
            <Value>158</Value>
          </HeartRateBpm>
          <Cadence><Value>120</Value></Cadence>
          <SensorState>Absent</SensorState>
        </Trackpoint>
        <Trackpoint>
          <Time>2025-01-10T15:08:10Z</Time>
          <DistanceMeters>0.0</DistanceMeters>
          <HeartRateBpm>
            <Value>150</Value>
          </HeartRateBpm>
          <Cadence><Value>120</Value></Cadence>
          <SensorState>Absent</SensorState>
        </Trackpoint>
        <Trackpoint>
          <Time>2025-01-10T15:08:14Z</Time>
          <DistanceMeters>0.0</DistanceMeters>
          <HeartRateBpm>
            <Value>140</Value>
          </HeartRateBpm>
          <Cadence><Value>120</Value></Cadence>
          <SensorState>Absent</SensorState>
        </Trackpoint>
        <Trackpoint>
          <Time>2025-01-10T15:08:15Z</Time>
          <DistanceMeters>0.0</DistanceMeters>
          <HeartRateBpm>
            <Value>134</Value>
          </HeartRateBpm>
          <Cadence><Value>120</Value></Cadence>
          <SensorState>Absent</SensorState>
        </Trackpoint>
        <Trackpoint>
          <Time>2025-01-10T15:08:48Z</Time>
          <DistanceMeters>0.0</DistanceMeters>
          <HeartRateBpm>
            <Value>142</Value>
          </HeartRateBpm>
          <Cadence><Value>120</Value></Cadence>
          <SensorState>Absent</SensorState>
        </Trackpoint>
        <Trackpoint>
          <Time>2025-01-10T15:09:00Z</Time>
          <DistanceMeters>0.0</DistanceMeters>
          <HeartRateBpm>
            <Value>156</Value>
          </HeartRateBpm>
          <Cadence><Value>115</Value></Cadence>
          <SensorState>Absent</SensorState>
        </Trackpoint>
        <Trackpoint>
          <Time>2025-01-10T15:09:07Z</Time>
          <DistanceMeters>0.0</DistanceMeters>
          <HeartRateBpm>
            <Value>149</Value>
          </HeartRateBpm>
          <Cadence><Value>115</Value></Cadence>
          <SensorState>Absent</SensorState>
        </Trackpoint>
        <Trackpoint>
          <Time>2025-01-10T15:09:14Z</Time>
          <DistanceMeters>0.0</DistanceMeters>
          <HeartRateBpm>
            <Value>156</Value>
          </HeartRateBpm>
          <Cadence><Value>115</Value></Cadence>
          <SensorState>Absent</SensorState>
        </Trackpoint>
        <Trackpoint>
          <Time>2025-01-10T15:09:23Z</Time>
          <DistanceMeters>0.0</DistanceMeters>
          <HeartRateBpm>
            <Value>162</Value>
          </HeartRateBpm>
          <Cadence><Value>115</Value></Cadence>
          <SensorState>Absent</SensorState>
        </Trackpoint>
        <Trackpoint>
          <Time>2025-01-10T15:09:31Z</Time>
          <DistanceMeters>0.0</DistanceMeters>
          <HeartRateBpm>
            <Value>171</Value>
          </HeartRateBpm>
          <Cadence><Value>115</Value></Cadence>
          <SensorState>Absent</SensorState>
        </Trackpoint>
        <Trackpoint>
          <Time>2025-01-10T15:09:40Z</Time>
          <DistanceMeters>0.0</DistanceMeters>
          <HeartRateBpm>
            <Value>163</Value>
          </HeartRateBpm>
          <Cadence><Value>115</Value></Cadence>
          <SensorState>Absent</SensorState>
        </Trackpoint>
        <Trackpoint>
          <Time>2025-01-10T15:09:58Z</Time>
          <DistanceMeters>0.0</DistanceMeters>
          <HeartRateBpm>
            <Value>156</Value>
          </HeartRateBpm>
          <Cadence><Value>115</Value></Cadence>
          <SensorState>Absent</SensorState>
        </Trackpoint>
        <Trackpoint>
          <Time>2025-01-10T15:10:00Z</Time>
          <DistanceMeters>0.0</DistanceMeters>
          <HeartRateBpm>
            <Value>144</Value>
          </HeartRateBpm>
          <Cadence><Value>94</Value></Cadence>
          <SensorState>Absent</SensorState>
        </Trackpoint>
        <Trackpoint>
          <Time>2025-01-10T15:10:11Z</Time>
          <DistanceMeters>0.0</DistanceMeters>
          <HeartRateBpm>
            <Value>149</Value>
          </HeartRateBpm>
          <Cadence><Value>94</Value></Cadence>
          <SensorState>Absent</SensorState>
        </Trackpoint>
        <Trackpoint>
          <Time>2025-01-10T15:10:17Z</Time>
          <DistanceMeters>0.0</DistanceMeters>
          <HeartRateBpm>
            <Value>142</Value>
          </HeartRateBpm>
          <Cadence><Value>94</Value></Cadence>
          <SensorState>Absent</SensorState>
        </Trackpoint>
        <Trackpoint>
          <Time>2025-01-10T15:10:33Z</Time>
          <DistanceMeters>0.0</DistanceMeters>
          <HeartRateBpm>
            <Value>134</Value>
          </HeartRateBpm>
          <Cadence><Value>94</Value></Cadence>
          <SensorState>Absent</SensorState>
        </Trackpoint>
        <Trackpoint>
          <Time>2025-01-10T15:10:46Z</Time>
          <DistanceMeters>0.0</DistanceMeters>
          <HeartRateBpm>
            <Value>127</Value>
          </HeartRateBpm>
          <Cadence><Value>94</Value></Cadence>
          <SensorState>Absent</SensorState>
        </Trackpoint>
        <Trackpoint>
          <Time>2025-01-10T15:11:00Z</Time>
          <DistanceMeters>529.0</DistanceMeters>
          <HeartRateBpm>
            <Value>143</Value>
          </HeartRateBpm>
          <Cadence><Value>110</Value></Cadence>
          <SensorState>Absent</SensorState>
        </Trackpoint>
        <Trackpoint>
          <Time>2025-01-10T15:11:03Z</Time>
          <DistanceMeters>529.0</DistanceMeters>
          <HeartRateBpm>
            <Value>133</Value>
          </HeartRateBpm>
          <Cadence><Value>110</Value></Cadence>
          <SensorState>Absent</SensorState>
        </Trackpoint>
        <Trackpoint>
          <Time>2025-01-10T15:11:16Z</Time>
          <DistanceMeters>529.0</DistanceMeters>
          <HeartRateBpm>
            <Value>139</Value>
          </HeartRateBpm>
          <Cadence><Value>110</Value></Cadence>
          <SensorState>Absent</SensorState>
        </Trackpoint>
        <Trackpoint>
          <Time>2025-01-10T15:11:24Z</Time>
          <DistanceMeters>529.0</DistanceMeters>
          <HeartRateBpm>
            <Value>145</Value>
          </HeartRateBpm>
          <Cadence><Value>110</Value></Cadence>
          <SensorState>Absent</SensorState>
        </Trackpoint>
        <Trackpoint>
          <Time>2025-01-10T15:11:30Z</Time>
          <DistanceMeters>529.0</DistanceMeters>
          <HeartRateBpm>
            <Value>139</Value>
          </HeartRateBpm>
          <Cadence><Value>110</Value></Cadence>
          <SensorState>Absent</SensorState>
        </Trackpoint>
        <Trackpoint>
          <Time>2025-01-10T15:11:38Z</Time>
          <DistanceMeters>529.0</DistanceMeters>
          <HeartRateBpm>
            <Value>145</Value>
          </HeartRateBpm>
          <Cadence><Value>110</Value></Cadence>
          <SensorState>Absent</SensorState>
        </Trackpoint>
        <Trackpoint>
          <Time>2025-01-10T15:11:48Z</Time>
          <DistanceMeters>529.0</DistanceMeters>
          <HeartRateBpm>
            <Value>151</Value>
          </HeartRateBpm>
          <Cadence><Value>110</Value></Cadence>
          <SensorState>Absent</SensorState>
        </Trackpoint>
        <Trackpoint>
          <Time>2025-01-10T15:11:55Z</Time>
          <DistanceMeters>529.0</DistanceMeters>
          <HeartRateBpm>
            <Value>157</Value>
          </HeartRateBpm>
          <Cadence><Value>110</Value></Cadence>
          <SensorState>Absent</SensorState>
        </Trackpoint>
        <Trackpoint>
          <Time>2025-01-10T15:12:00Z</Time>
          <DistanceMeters>529.0</DistanceMeters>
          <HeartRateBpm>
            <Value>148</Value>
          </HeartRateBpm>
          <Cadence><Value>91</Value></Cadence>
          <SensorState>Absent</SensorState>
        </Trackpoint>
        <Trackpoint>
          <Time>2025-01-10T15:12:08Z</Time>
          <DistanceMeters>529.0</DistanceMeters>
          <HeartRateBpm>
            <Value>151</Value>
          </HeartRateBpm>
          <Cadence><Value>91</Value></Cadence>
          <SensorState>Absent</SensorState>
        </Trackpoint>
        <Trackpoint>
          <Time>2025-01-10T15:12:13Z</Time>
          <DistanceMeters>529.0</DistanceMeters>
          <HeartRateBpm>
            <Value>145</Value>
          </HeartRateBpm>
          <Cadence><Value>91</Value></Cadence>
          <SensorState>Absent</SensorState>
        </Trackpoint>
        <Trackpoint>
          <Time>2025-01-10T15:12:27Z</Time>
          <DistanceMeters>529.0</DistanceMeters>
          <HeartRateBpm>
            <Value>151</Value>
          </HeartRateBpm>
          <Cadence><Value>91</Value></Cadence>
          <SensorState>Absent</SensorState>
        </Trackpoint>
        <Trackpoint>
          <Time>2025-01-10T15:13:00Z</Time>
          <DistanceMeters>529.0</DistanceMeters>
          <HeartRateBpm>
            <Value>148</Value>
          </HeartRateBpm>
          <Cadence><Value>65</Value></Cadence>
          <SensorState>Absent</SensorState>
        </Trackpoint>
        <Trackpoint>
          <Time>2025-01-10T15:13:09Z</Time>
          <DistanceMeters>529.0</DistanceMeters>
          <HeartRateBpm>
            <Value>144</Value>
          </HeartRateBpm>
          <Cadence><Value>65</Value></Cadence>
          <SensorState>Absent</SensorState>
        </Trackpoint>
        <Trackpoint>
          <Time>2025-01-10T15:13:39Z</Time>
          <DistanceMeters>529.0</DistanceMeters>
          <HeartRateBpm>
            <Value>151</Value>
          </HeartRateBpm>
          <Cadence><Value>65</Value></Cadence>
          <SensorState>Absent</SensorState>
        </Trackpoint>
        <Trackpoint>
          <Time>2025-01-10T15:13:49Z</Time>
          <DistanceMeters>529.0</DistanceMeters>
          <HeartRateBpm>
            <Value>158</Value>
          </HeartRateBpm>
          <Cadence><Value>65</Value></Cadence>
          <SensorState>Absent</SensorState>
        </Trackpoint>
        <Trackpoint>
          <Time>2025-01-10T15:13:58Z</Time>
          <DistanceMeters>529.0</DistanceMeters>
          <HeartRateBpm>
            <Value>148</Value>
          </HeartRateBpm>
          <Cadence><Value>65</Value></Cadence>
          <SensorState>Absent</SensorState>
        </Trackpoint>
        <Trackpoint>
          <Time>2025-01-10T15:14:00Z</Time>
          <DistanceMeters>529.0</DistanceMeters>
          <HeartRateBpm>
            <Value>136</Value>
          </HeartRateBpm>
          <Cadence><Value>51</Value></Cadence>
          <SensorState>Absent</SensorState>
        </Trackpoint>
        <Trackpoint>
          <Time>2025-01-10T15:14:02Z</Time>
          <DistanceMeters>529.0</DistanceMeters>
          <HeartRateBpm>
            <Value>142</Value>
          </HeartRateBpm>
          <Cadence><Value>51</Value></Cadence>
          <SensorState>Absent</SensorState>
        </Trackpoint>
        <Trackpoint>
          <Time>2025-01-10T15:14:06Z</Time>
          <DistanceMeters>529.0</DistanceMeters>
          <HeartRateBpm>
            <Value>130</Value>
          </HeartRateBpm>
          <Cadence><Value>51</Value></Cadence>
          <SensorState>Absent</SensorState>
        </Trackpoint>
        <Trackpoint>
          <Time>2025-01-10T15:14:44Z</Time>
          <DistanceMeters>529.0</DistanceMeters>
          <HeartRateBpm>
            <Value>136</Value>
          </HeartRateBpm>
          <Cadence><Value>51</Value></Cadence>
          <SensorState>Absent</SensorState>
        </Trackpoint>
        <Trackpoint>
          <Time>2025-01-10T15:15:00Z</Time>
          <DistanceMeters>529.0</DistanceMeters>
          <HeartRateBpm>
            <Value>153</Value>
          </HeartRateBpm>
          <Cadence><Value>86</Value></Cadence>
          <SensorState>Absent</SensorState>
        </Trackpoint>
        <Trackpoint>
          <Time>2025-01-10T15:15:15Z</Time>
          <DistanceMeters>529.0</DistanceMeters>
          <HeartRateBpm>
            <Value>143</Value>
          </HeartRateBpm>
          <Cadence><Value>86</Value></Cadence>
          <SensorState>Absent</SensorState>
        </Trackpoint>
        <Trackpoint>
          <Time>2025-01-10T15:15:18Z</Time>
          <DistanceMeters>529.0</DistanceMeters>
          <HeartRateBpm>
            <Value>150</Value>
          </HeartRateBpm>
          <Cadence><Value>86</Value></Cadence>
          <SensorState>Absent</SensorState>
        </Trackpoint>
        <Trackpoint>
          <Time>2025-01-10T15:15:20Z</Time>
          <DistanceMeters>529.0</DistanceMeters>
          <HeartRateBpm>
            <Value>158</Value>
          </HeartRateBpm>
          <Cadence><Value>86</Value></Cadence>
          <SensorState>Absent</SensorState>
        </Trackpoint>
        <Trackpoint>
          <Time>2025-01-10T15:15:22Z</Time>
          <DistanceMeters>529.0</DistanceMeters>
          <HeartRateBpm>
            <Value>164</Value>
          </HeartRateBpm>
          <Cadence><Value>86</Value></Cadence>
          <SensorState>Absent</SensorState>
        </Trackpoint>
        <Trackpoint>
          <Time>2025-01-10T15:15:35Z</Time>
          <DistanceMeters>529.0</DistanceMeters>
          <HeartRateBpm>
            <Value>173</Value>
          </HeartRateBpm>
          <Cadence><Value>86</Value></Cadence>
          <SensorState>Absent</SensorState>
        </Trackpoint>
        <Trackpoint>
          <Time>2025-01-10T15:15:59Z</Time>
          <DistanceMeters>529.0</DistanceMeters>
          <HeartRateBpm>
            <Value>167</Value>
          </HeartRateBpm>
          <Cadence><Value>86</Value></Cadence>
          <SensorState>Absent</SensorState>
        </Trackpoint>
        <Trackpoint>
          <Time>2025-01-10T15:16:00Z</Time>
          <DistanceMeters>529.0</DistanceMeters>
          <HeartRateBpm>
            <Value>169</Value>
          </HeartRateBpm>
          <Cadence><Value>88</Value></Cadence>
          <SensorState>Absent</SensorState>
        </Trackpoint>
        <Trackpoint>
          <Time>2025-01-10T15:16:15Z</Time>
          <DistanceMeters>529.0</DistanceMeters>
          <HeartRateBpm>
            <Value>174</Value>
          </HeartRateBpm>
          <Cadence><Value>88</Value></Cadence>
          <SensorState>Absent</SensorState>
        </Trackpoint>
        <Trackpoint>
          <Time>2025-01-10T15:16:41Z</Time>
          <DistanceMeters>529.0</DistanceMeters>
          <HeartRateBpm>
            <Value>180</Value>
          </HeartRateBpm>
          <Cadence><Value>88</Value></Cadence>
          <SensorState>Absent</SensorState>
        </Trackpoint>
        <Trackpoint>
          <Time>2025-01-10T15:16:59Z</Time>
          <DistanceMeters>529.0</DistanceMeters>
          <HeartRateBpm>
            <Value>174</Value>
          </HeartRateBpm>
          <Cadence><Value>88</Value></Cadence>
          <SensorState>Absent</SensorState>
        </Trackpoint>
        <Trackpoint>
          <Time>2025-01-10T15:17:00Z</Time>
          <DistanceMeters>529.0</DistanceMeters>
          <HeartRateBpm>
            <Value>165</Value>
          </HeartRateBpm>
          <Cadence><Value>82</Value></Cadence>
          <SensorState>Absent</SensorState>
        </Trackpoint>
        <Trackpoint>
          <Time>2025-01-10T15:17:04Z</Time>
          <DistanceMeters>529.0</DistanceMeters>
          <HeartRateBpm>
            <Value>166</Value>
          </HeartRateBpm>
          <Cadence><Value>82</Value></Cadence>
          <SensorState>Absent</SensorState>
        </Trackpoint>
        <Trackpoint>
          <Time>2025-01-10T15:17:16Z</Time>
          <DistanceMeters>529.0</DistanceMeters>
          <HeartRateBpm>
            <Value>174</Value>
          </HeartRateBpm>
          <Cadence><Value>82</Value></Cadence>
          <SensorState>Absent</SensorState>
        </Trackpoint>
        <Trackpoint>
          <Time>2025-01-10T15:17:32Z</Time>
          <DistanceMeters>529.0</DistanceMeters>
          <HeartRateBpm>
            <Value>166</Value>
          </HeartRateBpm>
          <Cadence><Value>82</Value></Cadence>
          <SensorState>Absent</SensorState>
        </Trackpoint>
        <Trackpoint>
          <Time>2025-01-10T15:17:39Z</Time>
          <DistanceMeters>529.0</DistanceMeters>
          <HeartRateBpm>
            <Value>159</Value>
          </HeartRateBpm>
          <Cadence><Value>82</Value></Cadence>
          <SensorState>Absent</SensorState>
        </Trackpoint>
        <Trackpoint>
          <Time>2025-01-10T15:17:54Z</Time>
          <DistanceMeters>529.0</DistanceMeters>
          <HeartRateBpm>
            <Value>153</Value>
          </HeartRateBpm>
          <Cadence><Value>82</Value></Cadence>
          <SensorState>Absent</SensorState>
        </Trackpoint>
        <Trackpoint>
          <Time>2025-01-10T15:18:00Z</Time>
          <DistanceMeters>529.0</DistanceMeters>
          <HeartRateBpm>
            <Value>162</Value>
          </HeartRateBpm>
          <Cadence><Value>77</Value></Cadence>
          <SensorState>Absent</SensorState>
        </Trackpoint>
        <Trackpoint>
          <Time>2025-01-10T15:18:07Z</Time>
          <DistanceMeters>529.0</DistanceMeters>
          <HeartRateBpm>
            <Value>159</Value>
          </HeartRateBpm>
          <Cadence><Value>77</Value></Cadence>
          <SensorState>Absent</SensorState>
        </Trackpoint>
        <Trackpoint>
          <Time>2025-01-10T15:18:21Z</Time>
          <DistanceMeters>529.0</DistanceMeters>
          <HeartRateBpm>
            <Value>165</Value>
          </HeartRateBpm>
          <Cadence><Value>77</Value></Cadence>
          <SensorState>Absent</SensorState>
        </Trackpoint>
        <Trackpoint>
          <Time>2025-01-10T15:18:52Z</Time>
          <DistanceMeters>529.0</DistanceMeters>
          <HeartRateBpm>
            <Value>159</Value>
          </HeartRateBpm>
          <Cadence><Value>77</Value></Cadence>
          <SensorState>Absent</SensorState>
        </Trackpoint>
        <Trackpoint>
          <Time>2025-01-10T15:19:00Z</Time>
          <DistanceMeters>529.0</DistanceMeters>
          <HeartRateBpm>
            <Value>165</Value>
          </HeartRateBpm>
          <Cadence><Value>46</Value></Cadence>
          <SensorState>Absent</SensorState>
        </Trackpoint>
        <Trackpoint>
          <Time>2025-01-10T15:19:20Z</Time>
          <DistanceMeters>529.0</DistanceMeters>
          <HeartRateBpm>
            <Value>166</Value>
          </HeartRateBpm>
          <Cadence><Value>46</Value></Cadence>
          <SensorState>Absent</SensorState>
        </Trackpoint>
        <Trackpoint>
          <Time>2025-01-10T15:19:30Z</Time>
          <DistanceMeters>529.0</DistanceMeters>
          <HeartRateBpm>
            <Value>172</Value>
          </HeartRateBpm>
          <Cadence><Value>46</Value></Cadence>
          <SensorState>Absent</SensorState>
        </Trackpoint>
        <Trackpoint>
          <Time>2025-01-10T15:19:35Z</Time>
          <DistanceMeters>529.0</DistanceMeters>
          <HeartRateBpm>
            <Value>166</Value>
          </HeartRateBpm>
          <Cadence><Value>46</Value></Cadence>
          <SensorState>Absent</SensorState>
        </Trackpoint>
        <Trackpoint>
          <Time>2025-01-10T15:19:39Z</Time>
          <DistanceMeters>529.0</DistanceMeters>
          <HeartRateBpm>
            <Value>172</Value>
          </HeartRateBpm>
          <Cadence><Value>46</Value></Cadence>
          <SensorState>Absent</SensorState>
        </Trackpoint>
        <Trackpoint>
          <Time>2025-01-10T15:19:56Z</Time>
          <DistanceMeters>529.0</DistanceMeters>
          <HeartRateBpm>
            <Value>165</Value>
          </HeartRateBpm>
          <Cadence><Value>46</Value></Cadence>
          <SensorState>Absent</SensorState>
        </Trackpoint>
        <Trackpoint>
          <Time>2025-01-10T15:20:00Z</Time>
          <DistanceMeters>529.0</DistanceMeters>
          <HeartRateBpm>
            <Value>150</Value>
          </HeartRateBpm>
          <SensorState>Absent</SensorState>
        </Trackpoint>
        <Trackpoint>
          <Time>2025-01-10T15:20:06Z</Time>
          <DistanceMeters>529.0</DistanceMeters>
          <HeartRateBpm>
            <Value>158</Value>
          </HeartRateBpm>
          <SensorState>Absent</SensorState>
        </Trackpoint>
        <Trackpoint>
          <Time>2025-01-10T15:20:09Z</Time>
          <DistanceMeters>529.0</DistanceMeters>
          <HeartRateBpm>
            <Value>147</Value>
          </HeartRateBpm>
          <SensorState>Absent</SensorState>
        </Trackpoint>
        <Trackpoint>
          <Time>2025-01-10T15:20:13Z</Time>
          <DistanceMeters>529.0</DistanceMeters>
          <HeartRateBpm>
            <Value>138</Value>
          </HeartRateBpm>
          <SensorState>Absent</SensorState>
        </Trackpoint>
        <Trackpoint>
          <Time>2025-01-10T15:20:43Z</Time>
          <DistanceMeters>529.0</DistanceMeters>
          <HeartRateBpm>
            <Value>144</Value>
          </HeartRateBpm>
          <SensorState>Absent</SensorState>
        </Trackpoint>
        <Trackpoint>
          <Time>2025-01-10T15:21:00Z</Time>
          <DistanceMeters>972.0</DistanceMeters>
          <HeartRateBpm>
            <Value>155</Value>
          </HeartRateBpm>
          <SensorState>Absent</SensorState>
        </Trackpoint>
        <Trackpoint>
          <Time>2025-01-10T15:21:01Z</Time>
          <DistanceMeters>972.0</DistanceMeters>
          <HeartRateBpm>
            <Value>151</Value>
          </HeartRateBpm>
          <SensorState>Absent</SensorState>
        </Trackpoint>
        <Trackpoint>
          <Time>2025-01-10T15:21:27Z</Time>
          <DistanceMeters>972.0</DistanceMeters>
          <HeartRateBpm>
            <Value>158</Value>
          </HeartRateBpm>
          <SensorState>Absent</SensorState>
        </Trackpoint>
        <Trackpoint>
          <Time>2025-01-10T15:21:37Z</Time>
          <DistanceMeters>972.0</DistanceMeters>
          <HeartRateBpm>
            <Value>164</Value>
          </HeartRateBpm>
          <SensorState>Absent</SensorState>
        </Trackpoint>
        <Trackpoint>
          <Time>2025-01-10T15:21:40Z</Time>
          <DistanceMeters>972.0</DistanceMeters>
          <HeartRateBpm>
            <Value>170</Value>
          </HeartRateBpm>
          <SensorState>Absent</SensorState>
        </Trackpoint>
        <Trackpoint>
          <Time>2025-01-10T15:21:50Z</Time>
          <DistanceMeters>972.0</DistanceMeters>
          <HeartRateBpm>
            <Value>164</Value>
          </HeartRateBpm>
          <SensorState>Absent</SensorState>
        </Trackpoint>
        <Trackpoint>
          <Time>2025-01-10T15:22:00Z</Time>
          <DistanceMeters>972.0</DistanceMeters>
          <HeartRateBpm>
            <Value>156</Value>
          </HeartRateBpm>
          <SensorState>Absent</SensorState>
        </Trackpoint>
        <Trackpoint>
          <Time>2025-01-10T15:22:15Z</Time>
          <DistanceMeters>972.0</DistanceMeters>
          <HeartRateBpm>
            <Value>158</Value>
          </HeartRateBpm>
          <SensorState>Absent</SensorState>
        </Trackpoint>
        <Trackpoint>
          <Time>2025-01-10T15:22:29Z</Time>
          <DistanceMeters>972.0</DistanceMeters>
          <HeartRateBpm>
            <Value>152</Value>
          </HeartRateBpm>
          <SensorState>Absent</SensorState>
        </Trackpoint>
        <Trackpoint>
          <Time>2025-01-10T15:22:36Z</Time>
          <DistanceMeters>972.0</DistanceMeters>
          <HeartRateBpm>
            <Value>160</Value>
          </HeartRateBpm>
          <SensorState>Absent</SensorState>
        </Trackpoint>
        <Trackpoint>
          <Time>2025-01-10T15:22:50Z</Time>
          <DistanceMeters>972.0</DistanceMeters>
          <HeartRateBpm>
            <Value>154</Value>
          </HeartRateBpm>
          <SensorState>Absent</SensorState>
        </Trackpoint>
        <Trackpoint>
          <Time>2025-01-10T15:22:54Z</Time>
          <DistanceMeters>972.0</DistanceMeters>
          <HeartRateBpm>
            <Value>146</Value>
          </HeartRateBpm>
          <SensorState>Absent</SensorState>
        </Trackpoint>
        <Trackpoint>
          <Time>2025-01-10T15:23:00Z</Time>
          <DistanceMeters>972.0</DistanceMeters>
          <HeartRateBpm>
            <Value>153</Value>
          </HeartRateBpm>
          <SensorState>Absent</SensorState>
        </Trackpoint>
        <Trackpoint>
          <Time>2025-01-10T15:23:11Z</Time>
          <DistanceMeters>972.0</DistanceMeters>
          <HeartRateBpm>
            <Value>156</Value>
          </HeartRateBpm>
          <SensorState>Absent</SensorState>
        </Trackpoint>
        <Trackpoint>
          <Time>2025-01-10T15:23:36Z</Time>
          <DistanceMeters>972.0</DistanceMeters>
          <HeartRateBpm>
            <Value>162</Value>
          </HeartRateBpm>
          <SensorState>Absent</SensorState>
        </Trackpoint>
        <Trackpoint>
          <Time>2025-01-10T15:23:41Z</Time>
          <DistanceMeters>972.0</DistanceMeters>
          <HeartRateBpm>
            <Value>154</Value>
          </HeartRateBpm>
          <SensorState>Absent</SensorState>
        </Trackpoint>
        <Trackpoint>
          <Time>2025-01-10T15:23:50Z</Time>
          <DistanceMeters>972.0</DistanceMeters>
          <HeartRateBpm>
            <Value>145</Value>
          </HeartRateBpm>
          <SensorState>Absent</SensorState>
        </Trackpoint>
        <Trackpoint>
          <Time>2025-01-10T15:23:55Z</Time>
          <DistanceMeters>972.0</DistanceMeters>
          <HeartRateBpm>
            <Value>139</Value>
          </HeartRateBpm>
          <SensorState>Absent</SensorState>
        </Trackpoint>
        <Trackpoint>
          <Time>2025-01-10T15:23:58Z</Time>
          <DistanceMeters>972.0</DistanceMeters>
          <HeartRateBpm>
            <Value>133</Value>
          </HeartRateBpm>
          <SensorState>Absent</SensorState>
        </Trackpoint>
        <Trackpoint>
          <Time>2025-01-10T15:24:00Z</Time>
          <DistanceMeters>972.0</DistanceMeters>
          <HeartRateBpm>
            <Value>148</Value>
          </HeartRateBpm>
          <SensorState>Absent</SensorState>
        </Trackpoint>
        <Trackpoint>
          <Time>2025-01-10T15:24:06Z</Time>
          <DistanceMeters>972.0</DistanceMeters>
          <HeartRateBpm>
            <Value>126</Value>
          </HeartRateBpm>
          <SensorState>Absent</SensorState>
        </Trackpoint>
        <Trackpoint>
          <Time>2025-01-10T15:24:22Z</Time>
          <DistanceMeters>972.0</DistanceMeters>
          <HeartRateBpm>
            <Value>120</Value>
          </HeartRateBpm>
          <SensorState>Absent</SensorState>
        </Trackpoint>
        <Trackpoint>
          <Time>2025-01-10T15:24:50Z</Time>
          <DistanceMeters>972.0</DistanceMeters>
          <HeartRateBpm>
            <Value>114</Value>
          </HeartRateBpm>
          <SensorState>Absent</SensorState>
        </Trackpoint>
        <Trackpoint>
          <Time>2025-01-10T15:25:00Z</Time>
          <DistanceMeters>972.0</DistanceMeters>
          <HeartRateBpm>
            <Value>141</Value>
          </HeartRateBpm>
          <SensorState>Absent</SensorState>
        </Trackpoint>
        <Trackpoint>
          <Time>2025-01-10T15:25:20Z</Time>
          <DistanceMeters>972.0</DistanceMeters>
          <HeartRateBpm>
            <Value>108</Value>
          </HeartRateBpm>
          <SensorState>Absent</SensorState>
        </Trackpoint>
        <Trackpoint>
          <Time>2025-01-10T15:25:57Z</Time>
          <DistanceMeters>972.0</DistanceMeters>
          <HeartRateBpm>
            <Value>114</Value>
          </HeartRateBpm>
          <SensorState>Absent</SensorState>
        </Trackpoint>
        <Trackpoint>
          <Time>2025-01-10T15:26:00Z</Time>
          <DistanceMeters>972.0</DistanceMeters>
          <HeartRateBpm>
            <Value>113</Value>
          </HeartRateBpm>
          <SensorState>Absent</SensorState>
        </Trackpoint>
        <Trackpoint>
          <Time>2025-01-10T15:26:58Z</Time>
          <DistanceMeters>972.0</DistanceMeters>
          <HeartRateBpm>
            <Value>111</Value>
          </HeartRateBpm>
          <SensorState>Absent</SensorState>
        </Trackpoint>
        <Trackpoint>
          <Time>2025-01-10T15:27:00Z</Time>
          <DistanceMeters>972.0</DistanceMeters>
          <HeartRateBpm>
            <Value>112</Value>
          </HeartRateBpm>
          <SensorState>Absent</SensorState>
        </Trackpoint>
        <Trackpoint>
          <Time>2025-01-10T15:27:40Z</Time>
          <DistanceMeters>972.0</DistanceMeters>
          <HeartRateBpm>
            <Value>117</Value>
          </HeartRateBpm>
          <SensorState>Absent</SensorState>
        </Trackpoint>
        <Trackpoint>
          <Time>2025-01-10T15:28:00Z</Time>
          <DistanceMeters>972.0</DistanceMeters>
          <HeartRateBpm>
            <Value>114</Value>
          </HeartRateBpm>
          <SensorState>Absent</SensorState>
        </Trackpoint>
        <Trackpoint>
          <Time>2025-01-10T15:28:11Z</Time>
          <DistanceMeters>972.0</DistanceMeters>
          <HeartRateBpm>
            <Value>124</Value>
          </HeartRateBpm>
          <SensorState>Absent</SensorState>
        </Trackpoint>
        <Trackpoint>
          <Time>2025-01-10T15:28:27Z</Time>
          <DistanceMeters>972.0</DistanceMeters>
          <HeartRateBpm>
            <Value>117</Value>
          </HeartRateBpm>
          <SensorState>Absent</SensorState>
        </Trackpoint>
        <Trackpoint>
          <Time>2025-01-10T15:28:31Z</Time>
          <DistanceMeters>972.0</DistanceMeters>
          <HeartRateBpm>
            <Value>111</Value>
          </HeartRateBpm>
          <SensorState>Absent</SensorState>
        </Trackpoint>
        <Trackpoint>
          <Time>2025-01-10T15:28:40Z</Time>
          <DistanceMeters>972.0</DistanceMeters>
          <HeartRateBpm>
            <Value>105</Value>
          </HeartRateBpm>
          <SensorState>Absent</SensorState>
        </Trackpoint>
        <Trackpoint>
          <Time>2025-01-10T15:29:00Z</Time>
          <DistanceMeters>972.0</DistanceMeters>
          <HeartRateBpm>
            <Value>112</Value>
          </HeartRateBpm>
          <SensorState>Absent</SensorState>
        </Trackpoint>
        <Trackpoint>
          <Time>2025-01-10T15:29:06Z</Time>
          <DistanceMeters>972.0</DistanceMeters>
          <HeartRateBpm>
            <Value>111</Value>
          </HeartRateBpm>
          <SensorState>Absent</SensorState>
        </Trackpoint>
        <Trackpoint>
          <Time>2025-01-10T15:30:00Z</Time>
          <DistanceMeters>972.0</DistanceMeters>
          <HeartRateBpm>
            <Value>104</Value>
          </HeartRateBpm>
          <SensorState>Absent</SensorState>
        </Trackpoint>
        <Trackpoint>
          <Time>2025-01-10T15:30:08Z</Time>
          <DistanceMeters>972.0</DistanceMeters>
          <HeartRateBpm>
            <Value>109</Value>
          </HeartRateBpm>
          <SensorState>Absent</SensorState>
        </Trackpoint>
        <Trackpoint>
          <Time>2025-01-10T15:30:18Z</Time>
          <DistanceMeters>972.0</DistanceMeters>
          <HeartRateBpm>
            <Value>103</Value>
          </HeartRateBpm>
          <SensorState>Absent</SensorState>
        </Trackpoint>
        <Trackpoint>
          <Time>2025-01-10T15:30:36Z</Time>
          <DistanceMeters>972.0</DistanceMeters>
          <HeartRateBpm>
            <Value>97</Value>
          </HeartRateBpm>
          <SensorState>Absent</SensorState>
        </Trackpoint>
        <Trackpoint>
          <Time>2025-01-10T15:31:00Z</Time>
          <DistanceMeters>979.0</DistanceMeters>
          <HeartRateBpm>
            <Value>97</Value>
          </HeartRateBpm>
          <SensorState>Absent</SensorState>
        </Trackpoint>
        <Trackpoint>
          <Time>2025-01-10T15:31:40Z</Time>
          <DistanceMeters>979.0</DistanceMeters>
          <HeartRateBpm>
            <Value>96</Value>
          </HeartRateBpm>
          <SensorState>Absent</SensorState>
        </Trackpoint>
        <Trackpoint>
          <Time>2025-01-10T15:32:00Z</Time>
          <DistanceMeters>979.0</DistanceMeters>
          <HeartRateBpm>
            <Value>94</Value>
          </HeartRateBpm>
          <SensorState>Absent</SensorState>
        </Trackpoint>
        <Trackpoint>
          <Time>2025-01-10T15:32:41Z</Time>
          <DistanceMeters>979.0</DistanceMeters>
          <HeartRateBpm>
            <Value>93</Value>
          </HeartRateBpm>
          <SensorState>Absent</SensorState>
        </Trackpoint>
        <Trackpoint>
          <Time>2025-01-10T15:33:00Z</Time>
          <DistanceMeters>979.0</DistanceMeters>
          <HeartRateBpm>
            <Value>93</Value>
          </HeartRateBpm>
          <SensorState>Absent</SensorState>
        </Trackpoint>
        <Trackpoint>
          <Time>2025-01-10T15:33:41Z</Time>
          <DistanceMeters>979.0</DistanceMeters>
          <HeartRateBpm>
            <Value>94</Value>
          </HeartRateBpm>
          <SensorState>Absent</SensorState>
        </Trackpoint>
        <Trackpoint>
          <Time>2025-01-10T15:34:00Z</Time>
          <DistanceMeters>979.0</DistanceMeters>
          <HeartRateBpm>
            <Value>92</Value>
          </HeartRateBpm>
          <SensorState>Absent</SensorState>
        </Trackpoint>
        <Trackpoint>
          <Time>2025-01-10T15:34:03Z</Time>
          <DistanceMeters>979.0</DistanceMeters>
          <HeartRateBpm>
            <Value>88</Value>
          </HeartRateBpm>
          <SensorState>Absent</SensorState>
        </Trackpoint>
        <Trackpoint>
          <Time>2025-01-10T15:34:11Z</Time>
          <DistanceMeters>979.0</DistanceMeters>
          <HeartRateBpm>
            <Value>94</Value>
          </HeartRateBpm>
          <SensorState>Absent</SensorState>
        </Trackpoint>
        <Trackpoint>
          <Time>2025-01-10T15:35:00Z</Time>
          <DistanceMeters>979.0</DistanceMeters>
          <HeartRateBpm>
            <Value>91</Value>
          </HeartRateBpm>
          <SensorState>Absent</SensorState>
        </Trackpoint>
        <Trackpoint>
          <Time>2025-01-10T15:35:12Z</Time>
          <DistanceMeters>979.0</DistanceMeters>
          <HeartRateBpm>
            <Value>92</Value>
          </HeartRateBpm>
          <SensorState>Absent</SensorState>
        </Trackpoint>
        <Trackpoint>
          <Time>2025-01-10T15:36:00Z</Time>
          <DistanceMeters>979.0</DistanceMeters>
          <HeartRateBpm>
            <Value>92</Value>
          </HeartRateBpm>
          <SensorState>Absent</SensorState>
        </Trackpoint>
        <Trackpoint>
          <Time>2025-01-10T15:36:14Z</Time>
          <DistanceMeters>979.0</DistanceMeters>
          <HeartRateBpm>
            <Value>91</Value>
          </HeartRateBpm>
          <SensorState>Absent</SensorState>
        </Trackpoint>
        <Trackpoint>
          <Time>2025-01-10T15:36:38Z</Time>
          <DistanceMeters>979.0</DistanceMeters>
          <HeartRateBpm>
            <Value>97</Value>
          </HeartRateBpm>
          <SensorState>Absent</SensorState>
        </Trackpoint>
        <Trackpoint>
          <Time>2025-01-10T15:36:54Z</Time>
          <DistanceMeters>979.0</DistanceMeters>
          <HeartRateBpm>
            <Value>90</Value>
          </HeartRateBpm>
          <SensorState>Absent</SensorState>
        </Trackpoint>
        <Trackpoint>
          <Time>2025-01-10T15:37:00Z</Time>
          <DistanceMeters>979.0</DistanceMeters>
          <HeartRateBpm>
            <Value>90</Value>
          </HeartRateBpm>
          <SensorState>Absent</SensorState>
        </Trackpoint>
        <Trackpoint>
          <Time>2025-01-10T15:37:57Z</Time>
          <DistanceMeters>979.0</DistanceMeters>
          <HeartRateBpm>
            <Value>90</Value>
          </HeartRateBpm>
          <SensorState>Absent</SensorState>
        </Trackpoint>
        <Trackpoint>
          <Time>2025-01-10T15:38:00Z</Time>
          <DistanceMeters>979.0</DistanceMeters>
          <HeartRateBpm>
            <Value>89</Value>
          </HeartRateBpm>
          <SensorState>Absent</SensorState>
        </Trackpoint>
        <Trackpoint>
          <Time>2025-01-10T15:38:59Z</Time>
          <DistanceMeters>979.0</DistanceMeters>
          <HeartRateBpm>
            <Value>90</Value>
          </HeartRateBpm>
          <SensorState>Absent</SensorState>
        </Trackpoint>
        <Trackpoint>
          <Time>2025-01-10T15:39:00Z</Time>
          <DistanceMeters>979.0</DistanceMeters>
          <HeartRateBpm>
            <Value>95</Value>
          </HeartRateBpm>
          <SensorState>Absent</SensorState>
        </Trackpoint>
        <Trackpoint>
          <Time>2025-01-10T15:39:25Z</Time>
          <DistanceMeters>979.0</DistanceMeters>
          <HeartRateBpm>
            <Value>98</Value>
          </HeartRateBpm>
          <SensorState>Absent</SensorState>
        </Trackpoint>
        <Trackpoint>
          <Time>2025-01-10T15:39:28Z</Time>
          <DistanceMeters>979.0</DistanceMeters>
          <HeartRateBpm>
            <Value>106</Value>
          </HeartRateBpm>
          <SensorState>Absent</SensorState>
        </Trackpoint>
        <Trackpoint>
          <Time>2025-01-10T15:39:53Z</Time>
          <DistanceMeters>979.0</DistanceMeters>
          <HeartRateBpm>
            <Value>100</Value>
          </HeartRateBpm>
          <SensorState>Absent</SensorState>
        </Trackpoint>
        <Trackpoint>
          <Time>2025-01-10T15:40:00Z</Time>
          <DistanceMeters>979.0</DistanceMeters>
          <HeartRateBpm>
            <Value>96</Value>
          </HeartRateBpm>
          <SensorState>Absent</SensorState>
        </Trackpoint>
        <Trackpoint>
          <Time>2025-01-10T15:40:43Z</Time>
          <DistanceMeters>979.0</DistanceMeters>
          <HeartRateBpm>
            <Value>94</Value>
          </HeartRateBpm>
          <SensorState>Absent</SensorState>
        </Trackpoint>
        <Trackpoint>
          <Time>2025-01-10T15:41:00Z</Time>
          <DistanceMeters>979.0</DistanceMeters>
          <HeartRateBpm>
            <Value>99</Value>
          </HeartRateBpm>
          <SensorState>Absent</SensorState>
        </Trackpoint>
        <Trackpoint>
          <Time>2025-01-10T15:41:11Z</Time>
          <DistanceMeters>979.0</DistanceMeters>
          <HeartRateBpm>
            <Value>100</Value>
          </HeartRateBpm>
          <SensorState>Absent</SensorState>
        </Trackpoint>
        <Trackpoint>
          <Time>2025-01-10T15:41:20Z</Time>
          <DistanceMeters>979.0</DistanceMeters>
          <HeartRateBpm>
            <Value>106</Value>
          </HeartRateBpm>
          <SensorState>Absent</SensorState>
        </Trackpoint>
        <Trackpoint>
          <Time>2025-01-10T15:41:33Z</Time>
          <DistanceMeters>979.0</DistanceMeters>
          <HeartRateBpm>
            <Value>100</Value>
          </HeartRateBpm>
          <SensorState>Absent</SensorState>
        </Trackpoint>
        <Trackpoint>
          <Time>2025-01-10T15:42:00Z</Time>
          <DistanceMeters>979.0</DistanceMeters>
          <HeartRateBpm>
            <Value>98</Value>
          </HeartRateBpm>
          <SensorState>Absent</SensorState>
        </Trackpoint>
        <Trackpoint>
          <Time>2025-01-10T15:42:34Z</Time>
          <DistanceMeters>979.0</DistanceMeters>
          <HeartRateBpm>
            <Value>96</Value>
          </HeartRateBpm>
          <SensorState>Absent</SensorState>
        </Trackpoint>
        <Trackpoint>
          <Time>2025-01-10T15:43:00Z</Time>
          <DistanceMeters>979.0</DistanceMeters>
          <HeartRateBpm>
            <Value>94</Value>
          </HeartRateBpm>
          <SensorState>Absent</SensorState>
        </Trackpoint>
        <Trackpoint>
          <Time>2025-01-10T15:43:28Z</Time>
          <DistanceMeters>979.0</DistanceMeters>
          <HeartRateBpm>
            <Value>90</Value>
          </HeartRateBpm>
          <SensorState>Absent</SensorState>
        </Trackpoint>
        <Trackpoint>
          <Time>2025-01-10T15:44:00Z</Time>
          <DistanceMeters>979.0</DistanceMeters>
          <HeartRateBpm>
            <Value>96</Value>
          </HeartRateBpm>
          <SensorState>Absent</SensorState>
        </Trackpoint>
        <Trackpoint>
          <Time>2025-01-10T15:44:15Z</Time>
          <DistanceMeters>979.0</DistanceMeters>
          <HeartRateBpm>
            <Value>96</Value>
          </HeartRateBpm>
          <SensorState>Absent</SensorState>
        </Trackpoint>
        <Trackpoint>
          <Time>2025-01-10T15:45:00Z</Time>
          <DistanceMeters>979.0</DistanceMeters>
          <HeartRateBpm>
            <Value>92</Value>
          </HeartRateBpm>
          <SensorState>Absent</SensorState>
        </Trackpoint>
        <Trackpoint>
          <Time>2025-01-10T15:45:18Z</Time>
          <DistanceMeters>979.0</DistanceMeters>
          <HeartRateBpm>
            <Value>96</Value>
          </HeartRateBpm>
          <SensorState>Absent</SensorState>
        </Trackpoint>
        <Trackpoint>
          <Time>2025-01-10T15:45:28Z</Time>
          <DistanceMeters>979.0</DistanceMeters>
          <HeartRateBpm>
            <Value>90</Value>
          </HeartRateBpm>
          <SensorState>Absent</SensorState>
        </Trackpoint>
        <Trackpoint>
          <Time>2025-01-10T15:46:00Z</Time>
          <DistanceMeters>979.0</DistanceMeters>
          <HeartRateBpm>
            <Value>88</Value>
          </HeartRateBpm>
          <SensorState>Absent</SensorState>
        </Trackpoint>
        <Trackpoint>
          <Time>2025-01-10T15:46:29Z</Time>
          <DistanceMeters>979.0</DistanceMeters>
          <HeartRateBpm>
            <Value>88</Value>
          </HeartRateBpm>
          <SensorState>Absent</SensorState>
        </Trackpoint>
        <Trackpoint>
          <Time>2025-01-10T15:47:00Z</Time>
          <DistanceMeters>979.0</DistanceMeters>
          <HeartRateBpm>
            <Value>90</Value>
          </HeartRateBpm>
          <SensorState>Absent</SensorState>
        </Trackpoint>
        <Trackpoint>
          <Time>2025-01-10T15:47:31Z</Time>
          <DistanceMeters>979.0</DistanceMeters>
          <HeartRateBpm>
            <Value>92</Value>
          </HeartRateBpm>
          <SensorState>Absent</SensorState>
        </Trackpoint>
        <Trackpoint>
          <Time>2025-01-10T15:48:00Z</Time>
          <DistanceMeters>979.0</DistanceMeters>
          <HeartRateBpm>
            <Value>90</Value>
          </HeartRateBpm>
          <SensorState>Absent</SensorState>
        </Trackpoint>
        <Trackpoint>
          <Time>2025-01-10T15:48:33Z</Time>
          <DistanceMeters>979.0</DistanceMeters>
          <HeartRateBpm>
            <Value>89</Value>
          </HeartRateBpm>
          <SensorState>Absent</SensorState>
        </Trackpoint>
        <Trackpoint>
          <Time>2025-01-10T15:49:00Z</Time>
          <DistanceMeters>979.0</DistanceMeters>
          <HeartRateBpm>
            <Value>87</Value>
          </HeartRateBpm>
          <SensorState>Absent</SensorState>
        </Trackpoint>
        <Trackpoint>
          <Time>2025-01-10T15:49:02Z</Time>
          <DistanceMeters>979.0</DistanceMeters>
          <HeartRateBpm>
            <Value>83</Value>
          </HeartRateBpm>
          <SensorState>Absent</SensorState>
        </Trackpoint>
        <Trackpoint>
          <Time>2025-01-10T15:49:48Z</Time>
          <DistanceMeters>979.0</DistanceMeters>
          <HeartRateBpm>
            <Value>89</Value>
          </HeartRateBpm>
          <SensorState>Absent</SensorState>
        </Trackpoint>
        <Trackpoint>
          <Time>2025-01-10T15:50:00Z</Time>
          <DistanceMeters>979.0</DistanceMeters>
          <HeartRateBpm>
            <Value>88</Value>
          </HeartRateBpm>
          <SensorState>Absent</SensorState>
        </Trackpoint>
        <Trackpoint>
          <Time>2025-01-10T15:50:48Z</Time>
          <DistanceMeters>979.0</DistanceMeters>
          <HeartRateBpm>
            <Value>88</Value>
          </HeartRateBpm>
          <SensorState>Absent</SensorState>
        </Trackpoint>
        <Trackpoint>
          <Time>2025-01-10T15:51:00Z</Time>
          <DistanceMeters>979.0</DistanceMeters>
          <HeartRateBpm>
            <Value>85</Value>
          </HeartRateBpm>
          <SensorState>Absent</SensorState>
        </Trackpoint>
        <Trackpoint>
          <Time>2025-01-10T15:51:10Z</Time>
          <DistanceMeters>979.0</DistanceMeters>
          <HeartRateBpm>
            <Value>82</Value>
          </HeartRateBpm>
          <SensorState>Absent</SensorState>
        </Trackpoint>
        <Trackpoint>
          <Time>2025-01-10T15:52:00Z</Time>
          <DistanceMeters>979.0</DistanceMeters>
          <HeartRateBpm>
            <Value>91</Value>
          </HeartRateBpm>
          <SensorState>Absent</SensorState>
        </Trackpoint>
        <Trackpoint>
          <Time>2025-01-10T15:52:11Z</Time>
          <DistanceMeters>979.0</DistanceMeters>
          <HeartRateBpm>
            <Value>87</Value>
          </HeartRateBpm>
          <SensorState>Absent</SensorState>
        </Trackpoint>
        <Trackpoint>
          <Time>2025-01-10T15:52:24Z</Time>
          <DistanceMeters>979.0</DistanceMeters>
          <HeartRateBpm>
            <Value>93</Value>
          </HeartRateBpm>
          <SensorState>Absent</SensorState>
        </Trackpoint>
        <Trackpoint>
          <Time>2025-01-10T15:52:47Z</Time>
          <DistanceMeters>979.0</DistanceMeters>
          <HeartRateBpm>
            <Value>101</Value>
          </HeartRateBpm>
          <SensorState>Absent</SensorState>
        </Trackpoint>
        <Trackpoint>
          <Time>2025-01-10T15:52:58Z</Time>
          <DistanceMeters>979.0</DistanceMeters>
          <HeartRateBpm>
            <Value>94</Value>
          </HeartRateBpm>
          <SensorState>Absent</SensorState>
        </Trackpoint>
        <Trackpoint>
          <Time>2025-01-10T15:53:00Z</Time>
          <DistanceMeters>979.0</DistanceMeters>
          <HeartRateBpm>
            <Value>95</Value>
          </HeartRateBpm>
          <SensorState>Absent</SensorState>
        </Trackpoint>
        <Trackpoint>
          <Time>2025-01-10T15:53:22Z</Time>
          <DistanceMeters>979.0</DistanceMeters>
          <HeartRateBpm>
            <Value>101</Value>
          </HeartRateBpm>
          <SensorState>Absent</SensorState>
        </Trackpoint>
        <Trackpoint>
          <Time>2025-01-10T15:53:29Z</Time>
          <DistanceMeters>979.0</DistanceMeters>
          <HeartRateBpm>
            <Value>95</Value>
          </HeartRateBpm>
          <SensorState>Absent</SensorState>
        </Trackpoint>
        <Trackpoint>
          <Time>2025-01-10T15:53:38Z</Time>
          <DistanceMeters>979.0</DistanceMeters>
          <HeartRateBpm>
            <Value>102</Value>
          </HeartRateBpm>
          <SensorState>Absent</SensorState>
        </Trackpoint>
        <Trackpoint>
          <Time>2025-01-10T15:53:46Z</Time>
          <DistanceMeters>979.0</DistanceMeters>
          <HeartRateBpm>
            <Value>96</Value>
          </HeartRateBpm>
          <SensorState>Absent</SensorState>
        </Trackpoint>
        <Trackpoint>
          <Time>2025-01-10T15:54:00Z</Time>
          <DistanceMeters>979.0</DistanceMeters>
          <HeartRateBpm>
            <Value>90</Value>
          </HeartRateBpm>
          <SensorState>Absent</SensorState>
        </Trackpoint>
        <Trackpoint>
          <Time>2025-01-10T15:54:12Z</Time>
          <DistanceMeters>979.0</DistanceMeters>
          <HeartRateBpm>
            <Value>90</Value>
          </HeartRateBpm>
          <SensorState>Absent</SensorState>
        </Trackpoint>
        <Trackpoint>
          <Time>2025-01-10T15:55:00Z</Time>
          <DistanceMeters>979.0</DistanceMeters>
          <HeartRateBpm>
            <Value>95</Value>
          </HeartRateBpm>
          <SensorState>Absent</SensorState>
        </Trackpoint>
        <Trackpoint>
          <Time>2025-01-10T15:55:13Z</Time>
          <DistanceMeters>979.0</DistanceMeters>
          <HeartRateBpm>
            <Value>89</Value>
          </HeartRateBpm>
          <SensorState>Absent</SensorState>
        </Trackpoint>
        <Trackpoint>
          <Time>2025-01-10T15:55:38Z</Time>
          <DistanceMeters>979.0</DistanceMeters>
          <HeartRateBpm>
            <Value>96</Value>
          </HeartRateBpm>
          <SensorState>Absent</SensorState>
        </Trackpoint>
        <Trackpoint>
          <Time>2025-01-10T15:55:43Z</Time>
          <DistanceMeters>979.0</DistanceMeters>
          <HeartRateBpm>
            <Value>102</Value>
          </HeartRateBpm>
          <SensorState>Absent</SensorState>
        </Trackpoint>
        <Trackpoint>
          <Time>2025-01-10T15:55:45Z</Time>
          <DistanceMeters>979.0</DistanceMeters>
          <HeartRateBpm>
            <Value>108</Value>
          </HeartRateBpm>
          <SensorState>Absent</SensorState>
        </Trackpoint>
        <Trackpoint>
          <Time>2025-01-10T15:55:52Z</Time>
          <DistanceMeters>979.0</DistanceMeters>
          <HeartRateBpm>
            <Value>114</Value>
          </HeartRateBpm>
          <SensorState>Absent</SensorState>
        </Trackpoint>
        <Trackpoint>
          <Time>2025-01-10T15:55:58Z</Time>
          <DistanceMeters>979.0</DistanceMeters>
          <HeartRateBpm>
            <Value>122</Value>
          </HeartRateBpm>
          <SensorState>Absent</SensorState>
        </Trackpoint>
        <Trackpoint>
          <Time>2025-01-10T15:56:00Z</Time>
          <DistanceMeters>979.0</DistanceMeters>
          <HeartRateBpm>
            <Value>121</Value>
          </HeartRateBpm>
          <SensorState>Absent</SensorState>
        </Trackpoint>
        <Trackpoint>
          <Time>2025-01-10T15:56:04Z</Time>
          <DistanceMeters>979.0</DistanceMeters>
          <HeartRateBpm>
            <Value>131</Value>
          </HeartRateBpm>
          <SensorState>Absent</SensorState>
        </Trackpoint>
        <Trackpoint>
          <Time>2025-01-10T15:56:06Z</Time>
          <DistanceMeters>979.0</DistanceMeters>
          <HeartRateBpm>
            <Value>137</Value>
          </HeartRateBpm>
          <SensorState>Absent</SensorState>
        </Trackpoint>
        <Trackpoint>
          <Time>2025-01-10T15:56:32Z</Time>
          <DistanceMeters>979.0</DistanceMeters>
          <HeartRateBpm>
            <Value>131</Value>
          </HeartRateBpm>
          <SensorState>Absent</SensorState>
        </Trackpoint>
        <Trackpoint>
          <Time>2025-01-10T15:56:45Z</Time>
          <DistanceMeters>979.0</DistanceMeters>
          <HeartRateBpm>
            <Value>125</Value>
          </HeartRateBpm>
          <SensorState>Absent</SensorState>
        </Trackpoint>
        <Trackpoint>
          <Time>2025-01-10T15:56:56Z</Time>
          <DistanceMeters>979.0</DistanceMeters>
          <HeartRateBpm>
            <Value>119</Value>
          </HeartRateBpm>
          <SensorState>Absent</SensorState>
        </Trackpoint>
        <Trackpoint>
          <Time>2025-01-10T15:57:00Z</Time>
          <DistanceMeters>979.0</DistanceMeters>
          <HeartRateBpm>
            <Value>94</Value>
          </HeartRateBpm>
          <SensorState>Absent</SensorState>
        </Trackpoint>
        <Trackpoint>
          <Time>2025-01-10T15:57:05Z</Time>
          <DistanceMeters>979.0</DistanceMeters>
          <HeartRateBpm>
            <Value>113</Value>
          </HeartRateBpm>
          <SensorState>Absent</SensorState>
        </Trackpoint>
        <Trackpoint>
          <Time>2025-01-10T15:57:11Z</Time>
          <DistanceMeters>979.0</DistanceMeters>
          <HeartRateBpm>
            <Value>87</Value>
          </HeartRateBpm>
          <SensorState>Absent</SensorState>
        </Trackpoint>
        <Trackpoint>
          <Time>2025-01-10T15:57:13Z</Time>
          <DistanceMeters>979.0</DistanceMeters>
          <HeartRateBpm>
            <Value>72</Value>
          </HeartRateBpm>
          <SensorState>Absent</SensorState>
        </Trackpoint>
        <Trackpoint>
          <Time>2025-01-10T15:57:23Z</Time>
          <DistanceMeters>979.0</DistanceMeters>
          <HeartRateBpm>
            <Value>80</Value>
          </HeartRateBpm>
          <SensorState>Absent</SensorState>
        </Trackpoint>
        <Trackpoint>
          <Time>2025-01-10T15:57:40Z</Time>
          <DistanceMeters>979.0</DistanceMeters>
          <HeartRateBpm>
            <Value>73</Value>
          </HeartRateBpm>
          <SensorState>Absent</SensorState>
        </Trackpoint>
        <Trackpoint>
          <Time>2025-01-10T15:57:53Z</Time>
          <DistanceMeters>979.0</DistanceMeters>
          <HeartRateBpm>
            <Value>79</Value>
          </HeartRateBpm>
          <SensorState>Absent</SensorState>
        </Trackpoint>
        <Trackpoint>
          <Time>2025-01-10T15:58:00Z</Time>
          <DistanceMeters>979.0</DistanceMeters>
          <HeartRateBpm>
            <Value>86</Value>
          </HeartRateBpm>
          <SensorState>Absent</SensorState>
        </Trackpoint>
        <Trackpoint>
          <Time>2025-01-10T15:58:36Z</Time>
          <DistanceMeters>979.0</DistanceMeters>
          <HeartRateBpm>
            <Value>85</Value>
          </HeartRateBpm>
          <SensorState>Absent</SensorState>
        </Trackpoint>
        <Trackpoint>
          <Time>2025-01-10T15:59:00Z</Time>
          <DistanceMeters>979.0</DistanceMeters>
          <HeartRateBpm>
            <Value>91</Value>
          </HeartRateBpm>
          <SensorState>Absent</SensorState>
        </Trackpoint>
        <Trackpoint>
          <Time>2025-01-10T15:59:23Z</Time>
          <DistanceMeters>979.0</DistanceMeters>
          <HeartRateBpm>
            <Value>91</Value>
          </HeartRateBpm>
          <SensorState>Absent</SensorState>
        </Trackpoint>
        <Trackpoint>
          <Time>2025-01-10T15:59:32Z</Time>
          <DistanceMeters>979.0</DistanceMeters>
          <HeartRateBpm>
            <Value>97</Value>
          </HeartRateBpm>
          <SensorState>Absent</SensorState>
        </Trackpoint>
        <Trackpoint>
          <Time>2025-01-10T16:00:00Z</Time>
          <DistanceMeters>979.0</DistanceMeters>
          <HeartRateBpm>
            <Value>108</Value>
          </HeartRateBpm>
          <SensorState>Absent</SensorState>
        </Trackpoint>
        <Trackpoint>
          <Time>2025-01-10T16:00:12Z</Time>
          <DistanceMeters>979.0</DistanceMeters>
          <HeartRateBpm>
            <Value>103</Value>
          </HeartRateBpm>
          <SensorState>Absent</SensorState>
        </Trackpoint>
        <Trackpoint>
          <Time>2025-01-10T16:00:19Z</Time>
          <DistanceMeters>979.0</DistanceMeters>
          <HeartRateBpm>
            <Value>109</Value>
          </HeartRateBpm>
          <SensorState>Absent</SensorState>
        </Trackpoint>
        <Trackpoint>
          <Time>2025-01-10T16:00:32Z</Time>
          <DistanceMeters>979.0</DistanceMeters>
          <HeartRateBpm>
            <Value>117</Value>
          </HeartRateBpm>
          <SensorState>Absent</SensorState>
        </Trackpoint>
        <Trackpoint>
          <Time>2025-01-10T16:00:40Z</Time>
          <DistanceMeters>979.0</DistanceMeters>
          <HeartRateBpm>
            <Value>123</Value>
          </HeartRateBpm>
          <SensorState>Absent</SensorState>
        </Trackpoint>
        <Trackpoint>
          <Time>2025-01-10T16:00:46Z</Time>
          <DistanceMeters>979.0</DistanceMeters>
          <HeartRateBpm>
            <Value>130</Value>
          </HeartRateBpm>
          <SensorState>Absent</SensorState>
        </Trackpoint>
        <Trackpoint>
          <Time>2025-01-10T16:01:00Z</Time>
          <DistanceMeters>979.0</DistanceMeters>
          <HeartRateBpm>
            <Value>135</Value>
          </HeartRateBpm>
          <SensorState>Absent</SensorState>
        </Trackpoint>
        <Trackpoint>
          <Time>2025-01-10T16:01:17Z</Time>
          <DistanceMeters>979.0</DistanceMeters>
          <HeartRateBpm>
            <Value>137</Value>
          </HeartRateBpm>
          <SensorState>Absent</SensorState>
        </Trackpoint>
        <Trackpoint>
          <Time>2025-01-10T16:01:28Z</Time>
          <DistanceMeters>979.0</DistanceMeters>
          <HeartRateBpm>
            <Value>146</Value>
          </HeartRateBpm>
          <SensorState>Absent</SensorState>
        </Trackpoint>
        <Trackpoint>
          <Time>2025-01-10T16:01:34Z</Time>
          <DistanceMeters>979.0</DistanceMeters>
          <HeartRateBpm>
            <Value>154</Value>
          </HeartRateBpm>
          <SensorState>Absent</SensorState>
        </Trackpoint>
        <Trackpoint>
          <Time>2025-01-10T16:01:38Z</Time>
          <DistanceMeters>979.0</DistanceMeters>
          <HeartRateBpm>
            <Value>160</Value>
          </HeartRateBpm>
          <SensorState>Absent</SensorState>
        </Trackpoint>
        <Trackpoint>
          <Time>2025-01-10T16:01:58Z</Time>
          <DistanceMeters>979.0</DistanceMeters>
          <HeartRateBpm>
            <Value>166</Value>
          </HeartRateBpm>
          <SensorState>Absent</SensorState>
        </Trackpoint>
        <Trackpoint>
          <Time>2025-01-10T16:02:00Z</Time>
          <DistanceMeters>979.0</DistanceMeters>
          <HeartRateBpm>
            <Value>162</Value>
          </HeartRateBpm>
          <Cadence><Value>55</Value></Cadence>
          <SensorState>Absent</SensorState>
        </Trackpoint>
        <Trackpoint>
          <Time>2025-01-10T16:02:02Z</Time>
          <DistanceMeters>979.0</DistanceMeters>
          <HeartRateBpm>
            <Value>172</Value>
          </HeartRateBpm>
          <Cadence><Value>55</Value></Cadence>
          <SensorState>Absent</SensorState>
        </Trackpoint>
        <Trackpoint>
          <Time>2025-01-10T16:02:09Z</Time>
          <DistanceMeters>979.0</DistanceMeters>
          <HeartRateBpm>
            <Value>164</Value>
          </HeartRateBpm>
          <Cadence><Value>55</Value></Cadence>
          <SensorState>Absent</SensorState>
        </Trackpoint>
        <Trackpoint>
          <Time>2025-01-10T16:02:17Z</Time>
          <DistanceMeters>979.0</DistanceMeters>
          <HeartRateBpm>
            <Value>170</Value>
          </HeartRateBpm>
          <Cadence><Value>55</Value></Cadence>
          <SensorState>Absent</SensorState>
        </Trackpoint>
        <Trackpoint>
          <Time>2025-01-10T16:02:24Z</Time>
          <DistanceMeters>979.0</DistanceMeters>
          <HeartRateBpm>
            <Value>176</Value>
          </HeartRateBpm>
          <Cadence><Value>55</Value></Cadence>
          <SensorState>Absent</SensorState>
        </Trackpoint>
        <Trackpoint>
          <Time>2025-01-10T16:02:31Z</Time>
          <DistanceMeters>979.0</DistanceMeters>
          <HeartRateBpm>
            <Value>182</Value>
          </HeartRateBpm>
          <Cadence><Value>55</Value></Cadence>
          <SensorState>Absent</SensorState>
        </Trackpoint>
        <Trackpoint>
          <Time>2025-01-10T16:02:42Z</Time>
          <DistanceMeters>979.0</DistanceMeters>
          <HeartRateBpm>
            <Value>176</Value>
          </HeartRateBpm>
          <Cadence><Value>55</Value></Cadence>
          <SensorState>Absent</SensorState>
        </Trackpoint>
        <Trackpoint>
          <Time>2025-01-10T16:02:48Z</Time>
          <DistanceMeters>979.0</DistanceMeters>
          <HeartRateBpm>
            <Value>170</Value>
          </HeartRateBpm>
          <Cadence><Value>55</Value></Cadence>
          <SensorState>Absent</SensorState>
        </Trackpoint>
        <Trackpoint>
          <Time>2025-01-10T16:03:00Z</Time>
          <DistanceMeters>979.0</DistanceMeters>
          <HeartRateBpm>
            <Value>165</Value>
          </HeartRateBpm>
          <SensorState>Absent</SensorState>
        </Trackpoint>
        <Trackpoint>
          <Time>2025-01-10T16:03:38Z</Time>
          <DistanceMeters>979.0</DistanceMeters>
          <HeartRateBpm>
            <Value>163</Value>
          </HeartRateBpm>
          <SensorState>Absent</SensorState>
        </Trackpoint>
        <Trackpoint>
          <Time>2025-01-10T16:03:55Z</Time>
          <DistanceMeters>979.0</DistanceMeters>
          <HeartRateBpm>
            <Value>157</Value>
          </HeartRateBpm>
          <SensorState>Absent</SensorState>
        </Trackpoint>
        <Trackpoint>
          <Time>2025-01-10T16:04:00Z</Time>
          <DistanceMeters>979.0</DistanceMeters>
          <HeartRateBpm>
            <Value>168</Value>
          </HeartRateBpm>
          <SensorState>Absent</SensorState>
        </Trackpoint>
        <Trackpoint>
          <Time>2025-01-10T16:04:12Z</Time>
          <DistanceMeters>979.0</DistanceMeters>
          <HeartRateBpm>
            <Value>167</Value>
          </HeartRateBpm>
          <SensorState>Absent</SensorState>
        </Trackpoint>
        <Trackpoint>
          <Time>2025-01-10T16:04:14Z</Time>
          <DistanceMeters>979.0</DistanceMeters>
          <HeartRateBpm>
            <Value>174</Value>
          </HeartRateBpm>
          <SensorState>Absent</SensorState>
        </Trackpoint>
        <Trackpoint>
          <Time>2025-01-10T16:04:38Z</Time>
          <DistanceMeters>979.0</DistanceMeters>
          <HeartRateBpm>
            <Value>167</Value>
          </HeartRateBpm>
          <SensorState>Absent</SensorState>
        </Trackpoint>
        <Trackpoint>
          <Time>2025-01-10T16:04:42Z</Time>
          <DistanceMeters>979.0</DistanceMeters>
          <HeartRateBpm>
            <Value>173</Value>
          </HeartRateBpm>
          <SensorState>Absent</SensorState>
        </Trackpoint>
        <Trackpoint>
          <Time>2025-01-10T16:05:00Z</Time>
          <DistanceMeters>979.0</DistanceMeters>
          <HeartRateBpm>
            <Value>171</Value>
          </HeartRateBpm>
          <Cadence><Value>52</Value></Cadence>
          <SensorState>Absent</SensorState>
        </Trackpoint>
        <Trackpoint>
          <Time>2025-01-10T16:05:11Z</Time>
          <DistanceMeters>979.0</DistanceMeters>
          <HeartRateBpm>
            <Value>167</Value>
          </HeartRateBpm>
          <Cadence><Value>52</Value></Cadence>
          <SensorState>Absent</SensorState>
        </Trackpoint>
        <Trackpoint>
          <Time>2025-01-10T16:05:33Z</Time>
          <DistanceMeters>979.0</DistanceMeters>
          <HeartRateBpm>
            <Value>174</Value>
          </HeartRateBpm>
          <Cadence><Value>52</Value></Cadence>
          <SensorState>Absent</SensorState>
        </Trackpoint>
        <Trackpoint>
          <Time>2025-01-10T16:05:50Z</Time>
          <DistanceMeters>979.0</DistanceMeters>
          <HeartRateBpm>
            <Value>180</Value>
          </HeartRateBpm>
          <Cadence><Value>52</Value></Cadence>
          <SensorState>Absent</SensorState>
        </Trackpoint>
        <Trackpoint>
          <Time>2025-01-10T16:05:58Z</Time>
          <DistanceMeters>979.0</DistanceMeters>
          <HeartRateBpm>
            <Value>170</Value>
          </HeartRateBpm>
          <Cadence><Value>52</Value></Cadence>
          <SensorState>Absent</SensorState>
        </Trackpoint>
        <Trackpoint>
          <Time>2025-01-10T16:06:00Z</Time>
          <DistanceMeters>979.0</DistanceMeters>
          <HeartRateBpm>
            <Value>142</Value>
          </HeartRateBpm>
          <SensorState>Absent</SensorState>
        </Trackpoint>
        <Trackpoint>
          <Time>2025-01-10T16:06:16Z</Time>
          <DistanceMeters>979.0</DistanceMeters>
          <HeartRateBpm>
            <Value>164</Value>
          </HeartRateBpm>
          <SensorState>Absent</SensorState>
        </Trackpoint>
        <Trackpoint>
          <Time>2025-01-10T16:06:18Z</Time>
          <DistanceMeters>979.0</DistanceMeters>
          <HeartRateBpm>
            <Value>157</Value>
          </HeartRateBpm>
          <SensorState>Absent</SensorState>
        </Trackpoint>
        <Trackpoint>
          <Time>2025-01-10T16:06:20Z</Time>
          <DistanceMeters>979.0</DistanceMeters>
          <HeartRateBpm>
            <Value>139</Value>
          </HeartRateBpm>
          <SensorState>Absent</SensorState>
        </Trackpoint>
        <Trackpoint>
          <Time>2025-01-10T16:06:22Z</Time>
          <DistanceMeters>979.0</DistanceMeters>
          <HeartRateBpm>
            <Value>133</Value>
          </HeartRateBpm>
          <SensorState>Absent</SensorState>
        </Trackpoint>
        <Trackpoint>
          <Time>2025-01-10T16:06:23Z</Time>
          <DistanceMeters>979.0</DistanceMeters>
          <HeartRateBpm>
            <Value>125</Value>
          </HeartRateBpm>
          <SensorState>Absent</SensorState>
        </Trackpoint>
        <Trackpoint>
          <Time>2025-01-10T16:06:29Z</Time>
          <DistanceMeters>979.0</DistanceMeters>
          <HeartRateBpm>
            <Value>116</Value>
          </HeartRateBpm>
          <SensorState>Absent</SensorState>
        </Trackpoint>
        <Trackpoint>
          <Time>2025-01-10T16:06:43Z</Time>
          <DistanceMeters>979.0</DistanceMeters>
          <HeartRateBpm>
            <Value>110</Value>
          </HeartRateBpm>
          <SensorState>Absent</SensorState>
        </Trackpoint>
        <Trackpoint>
          <Time>2025-01-10T16:06:48Z</Time>
          <DistanceMeters>979.0</DistanceMeters>
          <HeartRateBpm>
            <Value>104</Value>
          </HeartRateBpm>
          <SensorState>Absent</SensorState>
        </Trackpoint>
        <Trackpoint>
          <Time>2025-01-10T16:06:55Z</Time>
          <DistanceMeters>979.0</DistanceMeters>
          <HeartRateBpm>
            <Value>92</Value>
          </HeartRateBpm>
          <SensorState>Absent</SensorState>
        </Trackpoint>
        <Trackpoint>
          <Time>2025-01-10T16:06:57Z</Time>
          <DistanceMeters>979.0</DistanceMeters>
          <HeartRateBpm>
            <Value>86</Value>
          </HeartRateBpm>
          <SensorState>Absent</SensorState>
        </Trackpoint>
        <Trackpoint>
          <Time>2025-01-10T16:07:00Z</Time>
          <DistanceMeters>979.0</DistanceMeters>
          <HeartRateBpm>
            <Value>97</Value>
          </HeartRateBpm>
          <Cadence><Value>44</Value></Cadence>
          <SensorState>Absent</SensorState>
        </Trackpoint>
        <Trackpoint>
          <Time>2025-01-10T16:07:30Z</Time>
          <DistanceMeters>979.0</DistanceMeters>
          <HeartRateBpm>
            <Value>80</Value>
          </HeartRateBpm>
          <Cadence><Value>44</Value></Cadence>
          <SensorState>Absent</SensorState>
        </Trackpoint>
        <Trackpoint>
          <Time>2025-01-10T16:08:00Z</Time>
          <DistanceMeters>979.0</DistanceMeters>
          <HeartRateBpm>
            <Value>89</Value>
          </HeartRateBpm>
          <SensorState>Absent</SensorState>
        </Trackpoint>
        <Trackpoint>
          <Time>2025-01-10T16:08:24Z</Time>
          <DistanceMeters>979.0</DistanceMeters>
          <HeartRateBpm>
            <Value>86</Value>
          </HeartRateBpm>
          <SensorState>Absent</SensorState>
        </Trackpoint>
        <Trackpoint>
          <Time>2025-01-10T16:08:34Z</Time>
          <DistanceMeters>979.0</DistanceMeters>
          <HeartRateBpm>
            <Value>92</Value>
          </HeartRateBpm>
          <SensorState>Absent</SensorState>
        </Trackpoint>
        <Trackpoint>
          <Time>2025-01-10T16:09:00Z</Time>
          <DistanceMeters>1196.0</DistanceMeters>
          <HeartRateBpm>
            <Value>107</Value>
          </HeartRateBpm>
          <SensorState>Absent</SensorState>
        </Trackpoint>
        <Trackpoint>
          <Time>2025-01-10T16:09:01Z</Time>
          <DistanceMeters>1196.0</DistanceMeters>
          <HeartRateBpm>
            <Value>100</Value>
          </HeartRateBpm>
          <SensorState>Absent</SensorState>
        </Trackpoint>
        <Trackpoint>
          <Time>2025-01-10T16:09:07Z</Time>
          <DistanceMeters>1196.0</DistanceMeters>
          <HeartRateBpm>
            <Value>106</Value>
          </HeartRateBpm>
          <SensorState>Absent</SensorState>
        </Trackpoint>
        <Trackpoint>
          <Time>2025-01-10T16:09:18Z</Time>
          <DistanceMeters>1196.0</DistanceMeters>
          <HeartRateBpm>
            <Value>113</Value>
          </HeartRateBpm>
          <SensorState>Absent</SensorState>
        </Trackpoint>
        <Trackpoint>
          <Time>2025-01-10T16:09:28Z</Time>
          <DistanceMeters>1196.0</DistanceMeters>
          <HeartRateBpm>
            <Value>119</Value>
          </HeartRateBpm>
          <SensorState>Absent</SensorState>
        </Trackpoint>
        <Trackpoint>
          <Time>2025-01-10T16:10:00Z</Time>
          <DistanceMeters>1196.0</DistanceMeters>
          <HeartRateBpm>
            <Value>118</Value>
          </HeartRateBpm>
          <Cadence><Value>48</Value></Cadence>
          <SensorState>Absent</SensorState>
        </Trackpoint>
        <Trackpoint>
          <Time>2025-01-10T16:10:12Z</Time>
          <DistanceMeters>1196.0</DistanceMeters>
          <HeartRateBpm>
            <Value>126</Value>
          </HeartRateBpm>
          <Cadence><Value>48</Value></Cadence>
          <SensorState>Absent</SensorState>
        </Trackpoint>
        <Trackpoint>
          <Time>2025-01-10T16:10:38Z</Time>
          <DistanceMeters>1196.0</DistanceMeters>
          <HeartRateBpm>
            <Value>120</Value>
          </HeartRateBpm>
          <Cadence><Value>48</Value></Cadence>
          <SensorState>Absent</SensorState>
        </Trackpoint>
        <Trackpoint>
          <Time>2025-01-10T16:10:58Z</Time>
          <DistanceMeters>1196.0</DistanceMeters>
          <HeartRateBpm>
            <Value>127</Value>
          </HeartRateBpm>
          <Cadence><Value>48</Value></Cadence>
          <SensorState>Absent</SensorState>
        </Trackpoint>
        <Trackpoint>
          <Time>2025-01-10T16:11:00Z</Time>
          <DistanceMeters>1196.0</DistanceMeters>
          <HeartRateBpm>
            <Value>119</Value>
          </HeartRateBpm>
          <SensorState>Absent</SensorState>
        </Trackpoint>
        <Trackpoint>
          <Time>2025-01-10T16:11:02Z</Time>
          <DistanceMeters>1196.0</DistanceMeters>
          <HeartRateBpm>
            <Value>121</Value>
          </HeartRateBpm>
          <SensorState>Absent</SensorState>
        </Trackpoint>
        <Trackpoint>
          <Time>2025-01-10T16:11:27Z</Time>
          <DistanceMeters>1196.0</DistanceMeters>
          <HeartRateBpm>
            <Value>127</Value>
          </HeartRateBpm>
          <SensorState>Absent</SensorState>
        </Trackpoint>
        <Trackpoint>
          <Time>2025-01-10T16:11:34Z</Time>
          <DistanceMeters>1196.0</DistanceMeters>
          <HeartRateBpm>
            <Value>121</Value>
          </HeartRateBpm>
          <SensorState>Absent</SensorState>
        </Trackpoint>
        <Trackpoint>
          <Time>2025-01-10T16:11:39Z</Time>
          <DistanceMeters>1196.0</DistanceMeters>
          <HeartRateBpm>
            <Value>115</Value>
          </HeartRateBpm>
          <SensorState>Absent</SensorState>
        </Trackpoint>
        <Trackpoint>
          <Time>2025-01-10T16:12:00Z</Time>
          <DistanceMeters>1196.0</DistanceMeters>
          <HeartRateBpm>
            <Value>118</Value>
          </HeartRateBpm>
          <Cadence><Value>50</Value></Cadence>
          <SensorState>Absent</SensorState>
        </Trackpoint>
        <Trackpoint>
          <Time>2025-01-10T16:12:02Z</Time>
          <DistanceMeters>1196.0</DistanceMeters>
          <HeartRateBpm>
            <Value>121</Value>
          </HeartRateBpm>
          <Cadence><Value>50</Value></Cadence>
          <SensorState>Absent</SensorState>
        </Trackpoint>
        <Trackpoint>
          <Time>2025-01-10T16:12:25Z</Time>
          <DistanceMeters>1196.0</DistanceMeters>
          <HeartRateBpm>
            <Value>115</Value>
          </HeartRateBpm>
          <Cadence><Value>50</Value></Cadence>
          <SensorState>Absent</SensorState>
        </Trackpoint>
        <Trackpoint>
          <Time>2025-01-10T16:12:46Z</Time>
          <DistanceMeters>1196.0</DistanceMeters>
          <HeartRateBpm>
            <Value>121</Value>
          </HeartRateBpm>
          <Cadence><Value>50</Value></Cadence>
          <SensorState>Absent</SensorState>
        </Trackpoint>
        <Trackpoint>
          <Time>2025-01-10T16:13:00Z</Time>
          <DistanceMeters>1196.0</DistanceMeters>
          <HeartRateBpm>
            <Value>120</Value>
          </HeartRateBpm>
          <Cadence><Value>64</Value></Cadence>
          <SensorState>Absent</SensorState>
        </Trackpoint>
        <Trackpoint>
          <Time>2025-01-10T16:13:04Z</Time>
          <DistanceMeters>1196.0</DistanceMeters>
          <HeartRateBpm>
            <Value>128</Value>
          </HeartRateBpm>
          <Cadence><Value>64</Value></Cadence>
          <SensorState>Absent</SensorState>
        </Trackpoint>
        <Trackpoint>
          <Time>2025-01-10T16:13:08Z</Time>
          <DistanceMeters>1196.0</DistanceMeters>
          <HeartRateBpm>
            <Value>134</Value>
          </HeartRateBpm>
          <Cadence><Value>64</Value></Cadence>
          <SensorState>Absent</SensorState>
        </Trackpoint>
        <Trackpoint>
          <Time>2025-01-10T16:13:14Z</Time>
          <DistanceMeters>1196.0</DistanceMeters>
          <HeartRateBpm>
            <Value>127</Value>
          </HeartRateBpm>
          <Cadence><Value>64</Value></Cadence>
          <SensorState>Absent</SensorState>
        </Trackpoint>
        <Trackpoint>
          <Time>2025-01-10T16:13:33Z</Time>
          <DistanceMeters>1196.0</DistanceMeters>
          <HeartRateBpm>
            <Value>121</Value>
          </HeartRateBpm>
          <Cadence><Value>64</Value></Cadence>
          <SensorState>Absent</SensorState>
        </Trackpoint>
        <Trackpoint>
          <Time>2025-01-10T16:13:35Z</Time>
          <DistanceMeters>1196.0</DistanceMeters>
          <HeartRateBpm>
            <Value>115</Value>
          </HeartRateBpm>
          <Cadence><Value>64</Value></Cadence>
          <SensorState>Absent</SensorState>
        </Trackpoint>
        <Trackpoint>
          <Time>2025-01-10T16:14:00Z</Time>
          <DistanceMeters>1196.0</DistanceMeters>
          <HeartRateBpm>
            <Value>117</Value>
          </HeartRateBpm>
          <Cadence><Value>66</Value></Cadence>
          <SensorState>Absent</SensorState>
        </Trackpoint>
        <Trackpoint>
          <Time>2025-01-10T16:14:36Z</Time>
          <DistanceMeters>1196.0</DistanceMeters>
          <HeartRateBpm>
            <Value>119</Value>
          </HeartRateBpm>
          <Cadence><Value>66</Value></Cadence>
          <SensorState>Absent</SensorState>
        </Trackpoint>
        <Trackpoint>
          <Time>2025-01-10T16:15:00Z</Time>
          <DistanceMeters>1196.0</DistanceMeters>
          <HeartRateBpm>
            <Value>119</Value>
          </HeartRateBpm>
          <SensorState>Absent</SensorState>
        </Trackpoint>
        <Trackpoint>
          <Time>2025-01-10T16:15:08Z</Time>
          <DistanceMeters>1196.0</DistanceMeters>
          <HeartRateBpm>
            <Value>126</Value>
          </HeartRateBpm>
          <SensorState>Absent</SensorState>
        </Trackpoint>
        <Trackpoint>
          <Time>2025-01-10T16:15:28Z</Time>
          <DistanceMeters>1196.0</DistanceMeters>
          <HeartRateBpm>
            <Value>120</Value>
          </HeartRateBpm>
          <SensorState>Absent</SensorState>
        </Trackpoint>
        <Trackpoint>
          <Time>2025-01-10T16:15:38Z</Time>
          <DistanceMeters>1196.0</DistanceMeters>
          <HeartRateBpm>
            <Value>114</Value>
          </HeartRateBpm>
          <SensorState>Absent</SensorState>
        </Trackpoint>
        <Trackpoint>
          <Time>2025-01-10T16:16:00Z</Time>
          <DistanceMeters>1196.0</DistanceMeters>
          <HeartRateBpm>
            <Value>114</Value>
          </HeartRateBpm>
          <SensorState>Absent</SensorState>
        </Trackpoint>
        <Trackpoint>
          <Time>2025-01-10T16:16:39Z</Time>
          <DistanceMeters>1196.0</DistanceMeters>
          <HeartRateBpm>
            <Value>115</Value>
          </HeartRateBpm>
          <SensorState>Absent</SensorState>
        </Trackpoint>
        <Trackpoint>
          <Time>2025-01-10T16:17:00Z</Time>
          <DistanceMeters>1196.0</DistanceMeters>
          <HeartRateBpm>
            <Value>115</Value>
          </HeartRateBpm>
          <SensorState>Absent</SensorState>
        </Trackpoint>
        <Trackpoint>
          <Time>2025-01-10T16:17:38Z</Time>
          <DistanceMeters>1196.0</DistanceMeters>
          <HeartRateBpm>
            <Value>121</Value>
          </HeartRateBpm>
          <SensorState>Absent</SensorState>
        </Trackpoint>
        <Trackpoint>
          <Time>2025-01-10T16:17:55Z</Time>
          <DistanceMeters>1196.0</DistanceMeters>
          <HeartRateBpm>
            <Value>115</Value>
          </HeartRateBpm>
          <SensorState>Absent</SensorState>
        </Trackpoint>
        <Trackpoint>
          <Time>2025-01-10T16:18:00Z</Time>
          <DistanceMeters>1196.0</DistanceMeters>
          <HeartRateBpm>
            <Value>109</Value>
          </HeartRateBpm>
          <SensorState>Absent</SensorState>
        </Trackpoint>
        <Trackpoint>
          <Time>2025-01-10T16:18:12Z</Time>
          <DistanceMeters>1196.0</DistanceMeters>
          <HeartRateBpm>
            <Value>109</Value>
          </HeartRateBpm>
          <SensorState>Absent</SensorState>
        </Trackpoint>
        <Trackpoint>
          <Time>2025-01-10T16:18:51Z</Time>
          <DistanceMeters>1196.0</DistanceMeters>
          <HeartRateBpm>
            <Value>103</Value>
          </HeartRateBpm>
          <SensorState>Absent</SensorState>
        </Trackpoint>
        <Trackpoint>
          <Time>2025-01-10T16:19:00Z</Time>
          <DistanceMeters>1393.0</DistanceMeters>
          <HeartRateBpm>
            <Value>105</Value>
          </HeartRateBpm>
          <SensorState>Absent</SensorState>
        </Trackpoint>
        <Trackpoint>
          <Time>2025-01-10T16:19:52Z</Time>
          <DistanceMeters>1393.0</DistanceMeters>
          <HeartRateBpm>
            <Value>106</Value>
          </HeartRateBpm>
          <SensorState>Absent</SensorState>
        </Trackpoint>
        <Trackpoint>
          <Time>2025-01-10T16:20:00Z</Time>
          <DistanceMeters>1393.0</DistanceMeters>
          <HeartRateBpm>
            <Value>92</Value>
          </HeartRateBpm>
          <SensorState>Absent</SensorState>
        </Trackpoint>
        <Trackpoint>
          <Time>2025-01-10T16:20:01Z</Time>
          <DistanceMeters>1477.0</DistanceMeters>
           <HeartRateBpm>
            <Value>92</Value>
           </HeartRateBpm>
          <SensorState>Absent</SensorState>
        </Trackpoint>
	  </Track>
      </Lap>
      </Activity>
  </Activities>

</TrainingCenterDatabase>