<?xml version="1.0" encoding="UTF-8" standalone="no" ?>
<TrainingCenterDatabase xmlns="http://www.garmin.com/xmlschemas/TrainingCenterDatabase/v2" xmlns:xsi="http://www.w3.org/2001/XMLSchema-instance" xsi:schemaLocation="http://www.garmin.com/xmlschemas/TrainingCenterDatabase/v2 http://www.garmin.com/xmlschemas/TrainingCenterDatabasev2.xsd">
  <Activities>
    <Activity Sport="Other">
      <Id>2025-02-03T07:58:20Z</Id>
      <Notes>羽毛球</Notes>
      <Lap StartTime="2025-02-03T07:58:20Z">
        <TotalTimeSeconds>4089</TotalTimeSeconds>
        <DistanceMeters>1076</DistanceMeters>
        <Calories>704</Calories>
        <AverageHeartRateBpm>
          <Value>141</Value>
        </AverageHeartRateBpm>
        <MaximumHeartRateBpm>
          <Value>184</Value>
        </MaximumHeartRateBpm>
        <Intensity>Active</Intensity>
        <TriggerMethod>Manual</TriggerMethod>
	  <Track>
        <Trackpoint>
          <Time>2025-02-03T07:59:00Z</Time>
          <DistanceMeters>0.0</DistanceMeters>
          <HeartRateBpm>
            <Value>102</Value>
          </HeartRateBpm>
          <SensorState>Absent</SensorState>
        </Trackpoint>
        <Trackpoint>
          <Time>2025-02-03T07:59:06Z</Time>
          <DistanceMeters>0.0</DistanceMeters>
          <HeartRateBpm>
            <Value>97</Value>
          </HeartRateBpm>
          <SensorState>Absent</SensorState>
        </Trackpoint>
        <Trackpoint>
          <Time>2025-02-03T07:59:11Z</Time>
          <DistanceMeters>0.0</DistanceMeters>
          <HeartRateBpm>
            <Value>105</Value>
          </HeartRateBpm>
          <SensorState>Absent</SensorState>
        </Trackpoint>
        <Trackpoint>
          <Time>2025-02-03T07:59:26Z</Time>
          <DistanceMeters>0.0</DistanceMeters>
          <HeartRateBpm>
            <Value>111</Value>
          </HeartRateBpm>
          <SensorState>Absent</SensorState>
        </Trackpoint>
        <Trackpoint>
          <Time>2025-02-03T08:00:00Z</Time>
          <DistanceMeters>0.0</DistanceMeters>
          <HeartRateBpm>
            <Value>129</Value>
          </HeartRateBpm>
          <SensorState>Absent</SensorState>
        </Trackpoint>
        <Trackpoint>
          <Time>2025-02-03T08:00:00Z</Time>
          <DistanceMeters>0.0</DistanceMeters>
          <HeartRateBpm>
            <Value>118</Value>
          </HeartRateBpm>
          <SensorState>Absent</SensorState>
        </Trackpoint>
        <Trackpoint>
          <Time>2025-02-03T08:00:03Z</Time>
          <DistanceMeters>0.0</DistanceMeters>
          <HeartRateBpm>
            <Value>126</Value>
          </HeartRateBpm>
          <SensorState>Absent</SensorState>
        </Trackpoint>
        <Trackpoint>
          <Time>2025-02-03T08:00:08Z</Time>
          <DistanceMeters>0.0</DistanceMeters>
          <HeartRateBpm>
            <Value>132</Value>
          </HeartRateBpm>
          <SensorState>Absent</SensorState>
        </Trackpoint>
        <Trackpoint>
          <Time>2025-02-03T08:00:21Z</Time>
          <DistanceMeters>0.0</DistanceMeters>
          <HeartRateBpm>
            <Value>138</Value>
          </HeartRateBpm>
          <SensorState>Absent</SensorState>
        </Trackpoint>
        <Trackpoint>
          <Time>2025-02-03T08:00:44Z</Time>
          <DistanceMeters>0.0</DistanceMeters>
          <HeartRateBpm>
            <Value>150</Value>
          </HeartRateBpm>
          <SensorState>Absent</SensorState>
        </Trackpoint>
        <Trackpoint>
          <Time>2025-02-03T08:01:00Z</Time>
          <DistanceMeters>0.0</DistanceMeters>
          <HeartRateBpm>
            <Value>150</Value>
          </HeartRateBpm>
          <SensorState>Absent</SensorState>
        </Trackpoint>
        <Trackpoint>
          <Time>2025-02-03T08:01:03Z</Time>
          <DistanceMeters>0.0</DistanceMeters>
          <HeartRateBpm>
            <Value>156</Value>
          </HeartRateBpm>
          <SensorState>Absent</SensorState>
        </Trackpoint>
        <Trackpoint>
          <Time>2025-02-03T08:01:07Z</Time>
          <DistanceMeters>0.0</DistanceMeters>
          <HeartRateBpm>
            <Value>149</Value>
          </HeartRateBpm>
          <SensorState>Absent</SensorState>
        </Trackpoint>
        <Trackpoint>
          <Time>2025-02-03T08:01:24Z</Time>
          <DistanceMeters>0.0</DistanceMeters>
          <HeartRateBpm>
            <Value>158</Value>
          </HeartRateBpm>
          <SensorState>Absent</SensorState>
        </Trackpoint>
        <Trackpoint>
          <Time>2025-02-03T08:01:29Z</Time>
          <DistanceMeters>0.0</DistanceMeters>
          <HeartRateBpm>
            <Value>164</Value>
          </HeartRateBpm>
          <SensorState>Absent</SensorState>
        </Trackpoint>
        <Trackpoint>
          <Time>2025-02-03T08:02:00Z</Time>
          <DistanceMeters>0.0</DistanceMeters>
          <HeartRateBpm>
            <Value>155</Value>
          </HeartRateBpm>
          <SensorState>Absent</SensorState>
        </Trackpoint>
        <Trackpoint>
          <Time>2025-02-03T08:02:14Z</Time>
          <DistanceMeters>0.0</DistanceMeters>
          <HeartRateBpm>
            <Value>158</Value>
          </HeartRateBpm>
          <SensorState>Absent</SensorState>
        </Trackpoint>
        <Trackpoint>
          <Time>2025-02-03T08:02:56Z</Time>
          <DistanceMeters>0.0</DistanceMeters>
          <HeartRateBpm>
            <Value>165</Value>
          </HeartRateBpm>
          <SensorState>Absent</SensorState>
        </Trackpoint>
        <Trackpoint>
          <Time>2025-02-03T08:03:00Z</Time>
          <DistanceMeters>0.0</DistanceMeters>
          <HeartRateBpm>
            <Value>160</Value>
          </HeartRateBpm>
          <Cadence><Value>62</Value></Cadence>
          <SensorState>Absent</SensorState>
        </Trackpoint>
        <Trackpoint>
          <Time>2025-02-03T08:03:45Z</Time>
          <DistanceMeters>0.0</DistanceMeters>
          <HeartRateBpm>
            <Value>157</Value>
          </HeartRateBpm>
          <Cadence><Value>62</Value></Cadence>
          <SensorState>Absent</SensorState>
        </Trackpoint>
        <Trackpoint>
          <Time>2025-02-03T08:04:00Z</Time>
          <DistanceMeters>0.0</DistanceMeters>
          <HeartRateBpm>
            <Value>168</Value>
          </HeartRateBpm>
          <Cadence><Value>41</Value></Cadence>
          <SensorState>Absent</SensorState>
        </Trackpoint>
        <Trackpoint>
          <Time>2025-02-03T08:04:02Z</Time>
          <DistanceMeters>0.0</DistanceMeters>
          <HeartRateBpm>
            <Value>164</Value>
          </HeartRateBpm>
          <Cadence><Value>41</Value></Cadence>
          <SensorState>Absent</SensorState>
        </Trackpoint>
        <Trackpoint>
          <Time>2025-02-03T08:04:06Z</Time>
          <DistanceMeters>0.0</DistanceMeters>
          <HeartRateBpm>
            <Value>173</Value>
          </HeartRateBpm>
          <Cadence><Value>41</Value></Cadence>
          <SensorState>Absent</SensorState>
        </Trackpoint>
        <Trackpoint>
          <Time>2025-02-03T08:04:10Z</Time>
          <DistanceMeters>0.0</DistanceMeters>
          <HeartRateBpm>
            <Value>179</Value>
          </HeartRateBpm>
          <Cadence><Value>41</Value></Cadence>
          <SensorState>Absent</SensorState>
        </Trackpoint>
        <Trackpoint>
          <Time>2025-02-03T08:04:20Z</Time>
          <DistanceMeters>0.0</DistanceMeters>
          <HeartRateBpm>
            <Value>173</Value>
          </HeartRateBpm>
          <Cadence><Value>41</Value></Cadence>
          <SensorState>Absent</SensorState>
        </Trackpoint>
        <Trackpoint>
          <Time>2025-02-03T08:04:51Z</Time>
          <DistanceMeters>0.0</DistanceMeters>
          <HeartRateBpm>
            <Value>166</Value>
          </HeartRateBpm>
          <Cadence><Value>41</Value></Cadence>
          <SensorState>Absent</SensorState>
        </Trackpoint>
        <Trackpoint>
          <Time>2025-02-03T08:04:59Z</Time>
          <DistanceMeters>0.0</DistanceMeters>
          <HeartRateBpm>
            <Value>160</Value>
          </HeartRateBpm>
          <Cadence><Value>41</Value></Cadence>
          <SensorState>Absent</SensorState>
        </Trackpoint>
        <Trackpoint>
          <Time>2025-02-03T08:05:00Z</Time>
          <DistanceMeters>0.0</DistanceMeters>
          <HeartRateBpm>
            <Value>164</Value>
          </HeartRateBpm>
          <Cadence><Value>64</Value></Cadence>
          <SensorState>Absent</SensorState>
        </Trackpoint>
        <Trackpoint>
          <Time>2025-02-03T08:05:04Z</Time>
          <DistanceMeters>0.0</DistanceMeters>
          <HeartRateBpm>
            <Value>166</Value>
          </HeartRateBpm>
          <Cadence><Value>64</Value></Cadence>
          <SensorState>Absent</SensorState>
        </Trackpoint>
        <Trackpoint>
          <Time>2025-02-03T08:05:16Z</Time>
          <DistanceMeters>0.0</DistanceMeters>
          <HeartRateBpm>
            <Value>159</Value>
          </HeartRateBpm>
          <Cadence><Value>64</Value></Cadence>
          <SensorState>Absent</SensorState>
        </Trackpoint>
        <Trackpoint>
          <Time>2025-02-03T08:05:34Z</Time>
          <DistanceMeters>0.0</DistanceMeters>
          <HeartRateBpm>
            <Value>165</Value>
          </HeartRateBpm>
          <Cadence><Value>64</Value></Cadence>
          <SensorState>Absent</SensorState>
        </Trackpoint>
        <Trackpoint>
          <Time>2025-02-03T08:06:00Z</Time>
          <DistanceMeters>0.0</DistanceMeters>
          <HeartRateBpm>
            <Value>163</Value>
          </HeartRateBpm>
          <SensorState>Absent</SensorState>
        </Trackpoint>
        <Trackpoint>
          <Time>2025-02-03T08:06:34Z</Time>
          <DistanceMeters>0.0</DistanceMeters>
          <HeartRateBpm>
            <Value>164</Value>
          </HeartRateBpm>
          <SensorState>Absent</SensorState>
        </Trackpoint>
        <Trackpoint>
          <Time>2025-02-03T08:06:49Z</Time>
          <DistanceMeters>0.0</DistanceMeters>
          <HeartRateBpm>
            <Value>154</Value>
          </HeartRateBpm>
          <SensorState>Absent</SensorState>
        </Trackpoint>
        <Trackpoint>
          <Time>2025-02-03T08:07:00Z</Time>
          <DistanceMeters>0.0</DistanceMeters>
          <HeartRateBpm>
            <Value>149</Value>
          </HeartRateBpm>
          <SensorState>Absent</SensorState>
        </Trackpoint>
        <Trackpoint>
          <Time>2025-02-03T08:07:00Z</Time>
          <DistanceMeters>0.0</DistanceMeters>
          <HeartRateBpm>
            <Value>147</Value>
          </HeartRateBpm>
          <SensorState>Absent</SensorState>
        </Trackpoint>
        <Trackpoint>
          <Time>2025-02-03T08:07:30Z</Time>
          <DistanceMeters>0.0</DistanceMeters>
          <HeartRateBpm>
            <Value>141</Value>
          </HeartRateBpm>
          <SensorState>Absent</SensorState>
        </Trackpoint>
        <Trackpoint>
          <Time>2025-02-03T08:07:34Z</Time>
          <DistanceMeters>0.0</DistanceMeters>
          <HeartRateBpm>
            <Value>135</Value>
          </HeartRateBpm>
          <SensorState>Absent</SensorState>
        </Trackpoint>
        <Trackpoint>
          <Time>2025-02-03T08:07:37Z</Time>
          <DistanceMeters>0.0</DistanceMeters>
          <HeartRateBpm>
            <Value>141</Value>
          </HeartRateBpm>
          <SensorState>Absent</SensorState>
        </Trackpoint>
        <Trackpoint>
          <Time>2025-02-03T08:07:48Z</Time>
          <DistanceMeters>0.0</DistanceMeters>
          <HeartRateBpm>
            <Value>147</Value>
          </HeartRateBpm>
          <SensorState>Absent</SensorState>
        </Trackpoint>
        <Trackpoint>
          <Time>2025-02-03T08:08:00Z</Time>
          <DistanceMeters>0.0</DistanceMeters>
          <HeartRateBpm>
            <Value>159</Value>
          </HeartRateBpm>
          <Cadence><Value>46</Value></Cadence>
          <SensorState>Absent</SensorState>
        </Trackpoint>
        <Trackpoint>
          <Time>2025-02-03T08:08:02Z</Time>
          <DistanceMeters>0.0</DistanceMeters>
          <HeartRateBpm>
            <Value>140</Value>
          </HeartRateBpm>
          <Cadence><Value>46</Value></Cadence>
          <SensorState>Absent</SensorState>
        </Trackpoint>
        <Trackpoint>
          <Time>2025-02-03T08:08:06Z</Time>
          <DistanceMeters>0.0</DistanceMeters>
          <HeartRateBpm>
            <Value>153</Value>
          </HeartRateBpm>
          <Cadence><Value>46</Value></Cadence>
          <SensorState>Absent</SensorState>
        </Trackpoint>
        <Trackpoint>
          <Time>2025-02-03T08:08:07Z</Time>
          <DistanceMeters>0.0</DistanceMeters>
          <HeartRateBpm>
            <Value>159</Value>
          </HeartRateBpm>
          <Cadence><Value>46</Value></Cadence>
          <SensorState>Absent</SensorState>
        </Trackpoint>
        <Trackpoint>
          <Time>2025-02-03T08:08:29Z</Time>
          <DistanceMeters>0.0</DistanceMeters>
          <HeartRateBpm>
            <Value>168</Value>
          </HeartRateBpm>
          <Cadence><Value>46</Value></Cadence>
          <SensorState>Absent</SensorState>
        </Trackpoint>
        <Trackpoint>
          <Time>2025-02-03T08:08:34Z</Time>
          <DistanceMeters>0.0</DistanceMeters>
          <HeartRateBpm>
            <Value>174</Value>
          </HeartRateBpm>
          <Cadence><Value>46</Value></Cadence>
          <SensorState>Absent</SensorState>
        </Trackpoint>
        <Trackpoint>
          <Time>2025-02-03T08:08:45Z</Time>
          <DistanceMeters>0.0</DistanceMeters>
          <HeartRateBpm>
            <Value>168</Value>
          </HeartRateBpm>
          <Cadence><Value>46</Value></Cadence>
          <SensorState>Absent</SensorState>
        </Trackpoint>
        <Trackpoint>
          <Time>2025-02-03T08:08:58Z</Time>
          <DistanceMeters>0.0</DistanceMeters>
          <HeartRateBpm>
            <Value>161</Value>
          </HeartRateBpm>
          <Cadence><Value>46</Value></Cadence>
          <SensorState>Absent</SensorState>
        </Trackpoint>
        <Trackpoint>
          <Time>2025-02-03T08:09:00Z</Time>
          <DistanceMeters>0.0</DistanceMeters>
          <HeartRateBpm>
            <Value>159</Value>
          </HeartRateBpm>
          <Cadence><Value>52</Value></Cadence>
          <SensorState>Absent</SensorState>
        </Trackpoint>
        <Trackpoint>
          <Time>2025-02-03T08:09:17Z</Time>
          <DistanceMeters>0.0</DistanceMeters>
          <HeartRateBpm>
            <Value>154</Value>
          </HeartRateBpm>
          <Cadence><Value>52</Value></Cadence>
          <SensorState>Absent</SensorState>
        </Trackpoint>
        <Trackpoint>
          <Time>2025-02-03T08:09:21Z</Time>
          <DistanceMeters>0.0</DistanceMeters>
          <HeartRateBpm>
            <Value>148</Value>
          </HeartRateBpm>
          <Cadence><Value>52</Value></Cadence>
          <SensorState>Absent</SensorState>
        </Trackpoint>
        <Trackpoint>
          <Time>2025-02-03T08:09:28Z</Time>
          <DistanceMeters>0.0</DistanceMeters>
          <HeartRateBpm>
            <Value>154</Value>
          </HeartRateBpm>
          <Cadence><Value>52</Value></Cadence>
          <SensorState>Absent</SensorState>
        </Trackpoint>
        <Trackpoint>
          <Time>2025-02-03T08:09:40Z</Time>
          <DistanceMeters>0.0</DistanceMeters>
          <HeartRateBpm>
            <Value>160</Value>
          </HeartRateBpm>
          <Cadence><Value>52</Value></Cadence>
          <SensorState>Absent</SensorState>
        </Trackpoint>
        <Trackpoint>
          <Time>2025-02-03T08:09:49Z</Time>
          <DistanceMeters>0.0</DistanceMeters>
          <HeartRateBpm>
            <Value>167</Value>
          </HeartRateBpm>
          <Cadence><Value>52</Value></Cadence>
          <SensorState>Absent</SensorState>
        </Trackpoint>
        <Trackpoint>
          <Time>2025-02-03T08:10:00Z</Time>
          <DistanceMeters>0.0</DistanceMeters>
          <HeartRateBpm>
            <Value>169</Value>
          </HeartRateBpm>
          <SensorState>Absent</SensorState>
        </Trackpoint>
        <Trackpoint>
          <Time>2025-02-03T08:10:10Z</Time>
          <DistanceMeters>0.0</DistanceMeters>
          <HeartRateBpm>
            <Value>175</Value>
          </HeartRateBpm>
          <SensorState>Absent</SensorState>
        </Trackpoint>
        <Trackpoint>
          <Time>2025-02-03T08:10:20Z</Time>
          <DistanceMeters>0.0</DistanceMeters>
          <HeartRateBpm>
            <Value>169</Value>
          </HeartRateBpm>
          <SensorState>Absent</SensorState>
        </Trackpoint>
        <Trackpoint>
          <Time>2025-02-03T08:10:49Z</Time>
          <DistanceMeters>0.0</DistanceMeters>
          <HeartRateBpm>
            <Value>176</Value>
          </HeartRateBpm>
          <SensorState>Absent</SensorState>
        </Trackpoint>
        <Trackpoint>
          <Time>2025-02-03T08:11:00Z</Time>
          <DistanceMeters>236.0</DistanceMeters>
          <HeartRateBpm>
            <Value>170</Value>
          </HeartRateBpm>
          <SensorState>Absent</SensorState>
        </Trackpoint>
        <Trackpoint>
          <Time>2025-02-03T08:11:09Z</Time>
          <DistanceMeters>236.0</DistanceMeters>
          <HeartRateBpm>
            <Value>169</Value>
          </HeartRateBpm>
          <SensorState>Absent</SensorState>
        </Trackpoint>
        <Trackpoint>
          <Time>2025-02-03T08:11:27Z</Time>
          <DistanceMeters>236.0</DistanceMeters>
          <HeartRateBpm>
            <Value>175</Value>
          </HeartRateBpm>
          <SensorState>Absent</SensorState>
        </Trackpoint>
        <Trackpoint>
          <Time>2025-02-03T08:11:31Z</Time>
          <DistanceMeters>236.0</DistanceMeters>
          <HeartRateBpm>
            <Value>169</Value>
          </HeartRateBpm>
          <SensorState>Absent</SensorState>
        </Trackpoint>
        <Trackpoint>
          <Time>2025-02-03T08:11:56Z</Time>
          <DistanceMeters>236.0</DistanceMeters>
          <HeartRateBpm>
            <Value>163</Value>
          </HeartRateBpm>
          <SensorState>Absent</SensorState>
        </Trackpoint>
        <Trackpoint>
          <Time>2025-02-03T08:11:58Z</Time>
          <DistanceMeters>236.0</DistanceMeters>
          <HeartRateBpm>
            <Value>157</Value>
          </HeartRateBpm>
          <SensorState>Absent</SensorState>
        </Trackpoint>
        <Trackpoint>
          <Time>2025-02-03T08:12:00Z</Time>
          <DistanceMeters>236.0</DistanceMeters>
          <HeartRateBpm>
            <Value>160</Value>
          </HeartRateBpm>
          <SensorState>Absent</SensorState>
        </Trackpoint>
        <Trackpoint>
          <Time>2025-02-03T08:12:07Z</Time>
          <DistanceMeters>236.0</DistanceMeters>
          <HeartRateBpm>
            <Value>150</Value>
          </HeartRateBpm>
          <SensorState>Absent</SensorState>
        </Trackpoint>
        <Trackpoint>
          <Time>2025-02-03T08:12:23Z</Time>
          <DistanceMeters>236.0</DistanceMeters>
          <HeartRateBpm>
            <Value>156</Value>
          </HeartRateBpm>
          <SensorState>Absent</SensorState>
        </Trackpoint>
        <Trackpoint>
          <Time>2025-02-03T08:12:42Z</Time>
          <DistanceMeters>236.0</DistanceMeters>
          <HeartRateBpm>
            <Value>162</Value>
          </HeartRateBpm>
          <SensorState>Absent</SensorState>
        </Trackpoint>
        <Trackpoint>
          <Time>2025-02-03T08:12:46Z</Time>
          <DistanceMeters>236.0</DistanceMeters>
          <HeartRateBpm>
            <Value>169</Value>
          </HeartRateBpm>
          <SensorState>Absent</SensorState>
        </Trackpoint>
        <Trackpoint>
          <Time>2025-02-03T08:12:54Z</Time>
          <DistanceMeters>236.0</DistanceMeters>
          <HeartRateBpm>
            <Value>163</Value>
          </HeartRateBpm>
          <SensorState>Absent</SensorState>
        </Trackpoint>
        <Trackpoint>
          <Time>2025-02-03T08:13:00Z</Time>
          <DistanceMeters>236.0</DistanceMeters>
          <HeartRateBpm>
            <Value>158</Value>
          </HeartRateBpm>
          <SensorState>Absent</SensorState>
        </Trackpoint>
        <Trackpoint>
          <Time>2025-02-03T08:13:31Z</Time>
          <DistanceMeters>236.0</DistanceMeters>
          <HeartRateBpm>
            <Value>157</Value>
          </HeartRateBpm>
          <SensorState>Absent</SensorState>
        </Trackpoint>
        <Trackpoint>
          <Time>2025-02-03T08:13:50Z</Time>
          <DistanceMeters>236.0</DistanceMeters>
          <HeartRateBpm>
            <Value>148</Value>
          </HeartRateBpm>
          <SensorState>Absent</SensorState>
        </Trackpoint>
        <Trackpoint>
          <Time>2025-02-03T08:14:00Z</Time>
          <DistanceMeters>236.0</DistanceMeters>
          <HeartRateBpm>
            <Value>151</Value>
          </HeartRateBpm>
          <Cadence><Value>70</Value></Cadence>
          <SensorState>Absent</SensorState>
        </Trackpoint>
        <Trackpoint>
          <Time>2025-02-03T08:14:53Z</Time>
          <DistanceMeters>236.0</DistanceMeters>
          <HeartRateBpm>
            <Value>145</Value>
          </HeartRateBpm>
          <Cadence><Value>70</Value></Cadence>
          <SensorState>Absent</SensorState>
        </Trackpoint>
        <Trackpoint>
          <Time>2025-02-03T08:15:00Z</Time>
          <DistanceMeters>236.0</DistanceMeters>
          <HeartRateBpm>
            <Value>155</Value>
          </HeartRateBpm>
          <SensorState>Absent</SensorState>
        </Trackpoint>
        <Trackpoint>
          <Time>2025-02-03T08:15:02Z</Time>
          <DistanceMeters>236.0</DistanceMeters>
          <HeartRateBpm>
            <Value>151</Value>
          </HeartRateBpm>
          <SensorState>Absent</SensorState>
        </Trackpoint>
        <Trackpoint>
          <Time>2025-02-03T08:15:12Z</Time>
          <DistanceMeters>236.0</DistanceMeters>
          <HeartRateBpm>
            <Value>158</Value>
          </HeartRateBpm>
          <SensorState>Absent</SensorState>
        </Trackpoint>
        <Trackpoint>
          <Time>2025-02-03T08:15:30Z</Time>
          <DistanceMeters>236.0</DistanceMeters>
          <HeartRateBpm>
            <Value>166</Value>
          </HeartRateBpm>
          <SensorState>Absent</SensorState>
        </Trackpoint>
        <Trackpoint>
          <Time>2025-02-03T08:15:43Z</Time>
          <DistanceMeters>236.0</DistanceMeters>
          <HeartRateBpm>
            <Value>160</Value>
          </HeartRateBpm>
          <SensorState>Absent</SensorState>
        </Trackpoint>
        <Trackpoint>
          <Time>2025-02-03T08:15:54Z</Time>
          <DistanceMeters>236.0</DistanceMeters>
          <HeartRateBpm>
            <Value>153</Value>
          </HeartRateBpm>
          <SensorState>Absent</SensorState>
        </Trackpoint>
        <Trackpoint>
          <Time>2025-02-03T08:16:00Z</Time>
          <DistanceMeters>236.0</DistanceMeters>
          <HeartRateBpm>
            <Value>142</Value>
          </HeartRateBpm>
          <Cadence><Value>45</Value></Cadence>
          <SensorState>Absent</SensorState>
        </Trackpoint>
        <Trackpoint>
          <Time>2025-02-03T08:16:06Z</Time>
          <DistanceMeters>236.0</DistanceMeters>
          <HeartRateBpm>
            <Value>145</Value>
          </HeartRateBpm>
          <Cadence><Value>45</Value></Cadence>
          <SensorState>Absent</SensorState>
        </Trackpoint>
        <Trackpoint>
          <Time>2025-02-03T08:16:09Z</Time>
          <DistanceMeters>236.0</DistanceMeters>
          <HeartRateBpm>
            <Value>138</Value>
          </HeartRateBpm>
          <Cadence><Value>45</Value></Cadence>
          <SensorState>Absent</SensorState>
        </Trackpoint>
        <Trackpoint>
          <Time>2025-02-03T08:16:52Z</Time>
          <DistanceMeters>236.0</DistanceMeters>
          <HeartRateBpm>
            <Value>132</Value>
          </HeartRateBpm>
          <Cadence><Value>45</Value></Cadence>
          <SensorState>Absent</SensorState>
        </Trackpoint>
        <Trackpoint>
          <Time>2025-02-03T08:16:57Z</Time>
          <DistanceMeters>236.0</DistanceMeters>
          <HeartRateBpm>
            <Value>126</Value>
          </HeartRateBpm>
          <Cadence><Value>45</Value></Cadence>
          <SensorState>Absent</SensorState>
        </Trackpoint>
        <Trackpoint>
          <Time>2025-02-03T08:17:00Z</Time>
          <DistanceMeters>236.0</DistanceMeters>
          <HeartRateBpm>
            <Value>123</Value>
          </HeartRateBpm>
          <Cadence><Value>60</Value></Cadence>
          <SensorState>Absent</SensorState>
        </Trackpoint>
        <Trackpoint>
          <Time>2025-02-03T08:17:02Z</Time>
          <DistanceMeters>236.0</DistanceMeters>
          <HeartRateBpm>
            <Value>120</Value>
          </HeartRateBpm>
          <Cadence><Value>60</Value></Cadence>
          <SensorState>Absent</SensorState>
        </Trackpoint>
        <Trackpoint>
          <Time>2025-02-03T08:17:23Z</Time>
          <DistanceMeters>236.0</DistanceMeters>
          <HeartRateBpm>
            <Value>114</Value>
          </HeartRateBpm>
          <Cadence><Value>60</Value></Cadence>
          <SensorState>Absent</SensorState>
        </Trackpoint>
        <Trackpoint>
          <Time>2025-02-03T08:17:40Z</Time>
          <DistanceMeters>236.0</DistanceMeters>
          <HeartRateBpm>
            <Value>120</Value>
          </HeartRateBpm>
          <Cadence><Value>60</Value></Cadence>
          <SensorState>Absent</SensorState>
        </Trackpoint>
        <Trackpoint>
          <Time>2025-02-03T08:17:56Z</Time>
          <DistanceMeters>236.0</DistanceMeters>
          <HeartRateBpm>
            <Value>114</Value>
          </HeartRateBpm>
          <Cadence><Value>60</Value></Cadence>
          <SensorState>Absent</SensorState>
        </Trackpoint>
        <Trackpoint>
          <Time>2025-02-03T08:18:00Z</Time>
          <DistanceMeters>236.0</DistanceMeters>
          <HeartRateBpm>
            <Value>99</Value>
          </HeartRateBpm>
          <SensorState>Absent</SensorState>
        </Trackpoint>
        <Trackpoint>
          <Time>2025-02-03T08:18:01Z</Time>
          <DistanceMeters>236.0</DistanceMeters>
          <HeartRateBpm>
            <Value>106</Value>
          </HeartRateBpm>
          <SensorState>Absent</SensorState>
        </Trackpoint>
        <Trackpoint>
          <Time>2025-02-03T08:18:10Z</Time>
          <DistanceMeters>236.0</DistanceMeters>
          <HeartRateBpm>
            <Value>100</Value>
          </HeartRateBpm>
          <SensorState>Absent</SensorState>
        </Trackpoint>
        <Trackpoint>
          <Time>2025-02-03T08:18:26Z</Time>
          <DistanceMeters>236.0</DistanceMeters>
          <HeartRateBpm>
            <Value>94</Value>
          </HeartRateBpm>
          <SensorState>Absent</SensorState>
        </Trackpoint>
        <Trackpoint>
          <Time>2025-02-03T08:18:29Z</Time>
          <DistanceMeters>236.0</DistanceMeters>
          <HeartRateBpm>
            <Value>87</Value>
          </HeartRateBpm>
          <SensorState>Absent</SensorState>
        </Trackpoint>
        <Trackpoint>
          <Time>2025-02-03T08:19:00Z</Time>
          <DistanceMeters>236.0</DistanceMeters>
          <HeartRateBpm>
            <Value>101</Value>
          </HeartRateBpm>
          <SensorState>Absent</SensorState>
        </Trackpoint>
        <Trackpoint>
          <Time>2025-02-03T08:19:21Z</Time>
          <DistanceMeters>236.0</DistanceMeters>
          <HeartRateBpm>
            <Value>93</Value>
          </HeartRateBpm>
          <SensorState>Absent</SensorState>
        </Trackpoint>
        <Trackpoint>
          <Time>2025-02-03T08:19:29Z</Time>
          <DistanceMeters>236.0</DistanceMeters>
          <HeartRateBpm>
            <Value>101</Value>
          </HeartRateBpm>
          <SensorState>Absent</SensorState>
        </Trackpoint>
        <Trackpoint>
          <Time>2025-02-03T08:19:30Z</Time>
          <DistanceMeters>236.0</DistanceMeters>
          <HeartRateBpm>
            <Value>107</Value>
          </HeartRateBpm>
          <SensorState>Absent</SensorState>
        </Trackpoint>
        <Trackpoint>
          <Time>2025-02-03T08:19:43Z</Time>
          <DistanceMeters>236.0</DistanceMeters>
          <HeartRateBpm>
            <Value>114</Value>
          </HeartRateBpm>
          <SensorState>Absent</SensorState>
        </Trackpoint>
        <Trackpoint>
          <Time>2025-02-03T08:19:47Z</Time>
          <DistanceMeters>236.0</DistanceMeters>
          <HeartRateBpm>
            <Value>121</Value>
          </HeartRateBpm>
          <SensorState>Absent</SensorState>
        </Trackpoint>
        <Trackpoint>
          <Time>2025-02-03T08:19:56Z</Time>
          <DistanceMeters>236.0</DistanceMeters>
          <HeartRateBpm>
            <Value>128</Value>
          </HeartRateBpm>
          <SensorState>Absent</SensorState>
        </Trackpoint>
        <Trackpoint>
          <Time>2025-02-03T08:20:00Z</Time>
          <DistanceMeters>236.0</DistanceMeters>
          <HeartRateBpm>
            <Value>135</Value>
          </HeartRateBpm>
          <SensorState>Absent</SensorState>
        </Trackpoint>
        <Trackpoint>
          <Time>2025-02-03T08:20:00Z</Time>
          <DistanceMeters>236.0</DistanceMeters>
          <HeartRateBpm>
            <Value>141</Value>
          </HeartRateBpm>
          <SensorState>Absent</SensorState>
        </Trackpoint>
        <Trackpoint>
          <Time>2025-02-03T08:20:21Z</Time>
          <DistanceMeters>236.0</DistanceMeters>
          <HeartRateBpm>
            <Value>148</Value>
          </HeartRateBpm>
          <SensorState>Absent</SensorState>
        </Trackpoint>
        <Trackpoint>
          <Time>2025-02-03T08:20:48Z</Time>
          <DistanceMeters>236.0</DistanceMeters>
          <HeartRateBpm>
            <Value>154</Value>
          </HeartRateBpm>
          <SensorState>Absent</SensorState>
        </Trackpoint>
        <Trackpoint>
          <Time>2025-02-03T08:20:58Z</Time>
          <DistanceMeters>236.0</DistanceMeters>
          <HeartRateBpm>
            <Value>160</Value>
          </HeartRateBpm>
          <SensorState>Absent</SensorState>
        </Trackpoint>
        <Trackpoint>
          <Time>2025-02-03T08:21:00Z</Time>
          <DistanceMeters>482.0</DistanceMeters>
          <HeartRateBpm>
            <Value>150</Value>
          </HeartRateBpm>
          <Cadence><Value>60</Value></Cadence>
          <SensorState>Absent</SensorState>
        </Trackpoint>
        <Trackpoint>
          <Time>2025-02-03T08:21:15Z</Time>
          <DistanceMeters>482.0</DistanceMeters>
          <HeartRateBpm>
            <Value>154</Value>
          </HeartRateBpm>
          <Cadence><Value>60</Value></Cadence>
          <SensorState>Absent</SensorState>
        </Trackpoint>
        <Trackpoint>
          <Time>2025-02-03T08:21:34Z</Time>
          <DistanceMeters>482.0</DistanceMeters>
          <HeartRateBpm>
            <Value>160</Value>
          </HeartRateBpm>
          <Cadence><Value>60</Value></Cadence>
          <SensorState>Absent</SensorState>
        </Trackpoint>
        <Trackpoint>
          <Time>2025-02-03T08:22:00Z</Time>
          <DistanceMeters>482.0</DistanceMeters>
          <HeartRateBpm>
            <Value>146</Value>
          </HeartRateBpm>
          <SensorState>Absent</SensorState>
        </Trackpoint>
        <Trackpoint>
          <Time>2025-02-03T08:22:02Z</Time>
          <DistanceMeters>482.0</DistanceMeters>
          <HeartRateBpm>
            <Value>154</Value>
          </HeartRateBpm>
          <SensorState>Absent</SensorState>
        </Trackpoint>
        <Trackpoint>
          <Time>2025-02-03T08:22:16Z</Time>
          <DistanceMeters>482.0</DistanceMeters>
          <HeartRateBpm>
            <Value>161</Value>
          </HeartRateBpm>
          <SensorState>Absent</SensorState>
        </Trackpoint>
        <Trackpoint>
          <Time>2025-02-03T08:22:29Z</Time>
          <DistanceMeters>482.0</DistanceMeters>
          <HeartRateBpm>
            <Value>151</Value>
          </HeartRateBpm>
          <SensorState>Absent</SensorState>
        </Trackpoint>
        <Trackpoint>
          <Time>2025-02-03T08:22:32Z</Time>
          <DistanceMeters>482.0</DistanceMeters>
          <HeartRateBpm>
            <Value>145</Value>
          </HeartRateBpm>
          <SensorState>Absent</SensorState>
        </Trackpoint>
        <Trackpoint>
          <Time>2025-02-03T08:22:37Z</Time>
          <DistanceMeters>482.0</DistanceMeters>
          <HeartRateBpm>
            <Value>134</Value>
          </HeartRateBpm>
          <SensorState>Absent</SensorState>
        </Trackpoint>
        <Trackpoint>
          <Time>2025-02-03T08:22:56Z</Time>
          <DistanceMeters>482.0</DistanceMeters>
          <HeartRateBpm>
            <Value>127</Value>
          </HeartRateBpm>
          <SensorState>Absent</SensorState>
        </Trackpoint>
        <Trackpoint>
          <Time>2025-02-03T08:23:00Z</Time>
          <DistanceMeters>482.0</DistanceMeters>
          <HeartRateBpm>
            <Value>134</Value>
          </HeartRateBpm>
          <SensorState>Absent</SensorState>
        </Trackpoint>
        <Trackpoint>
          <Time>2025-02-03T08:23:52Z</Time>
          <DistanceMeters>482.0</DistanceMeters>
          <HeartRateBpm>
            <Value>135</Value>
          </HeartRateBpm>
          <SensorState>Absent</SensorState>
        </Trackpoint>
        <Trackpoint>
          <Time>2025-02-03T08:23:58Z</Time>
          <DistanceMeters>482.0</DistanceMeters>
          <HeartRateBpm>
            <Value>143</Value>
          </HeartRateBpm>
          <SensorState>Absent</SensorState>
        </Trackpoint>
        <Trackpoint>
          <Time>2025-02-03T08:24:00Z</Time>
          <DistanceMeters>482.0</DistanceMeters>
          <HeartRateBpm>
            <Value>149</Value>
          </HeartRateBpm>
          <SensorState>Absent</SensorState>
        </Trackpoint>
        <Trackpoint>
          <Time>2025-02-03T08:24:18Z</Time>
          <DistanceMeters>482.0</DistanceMeters>
          <HeartRateBpm>
            <Value>149</Value>
          </HeartRateBpm>
          <SensorState>Absent</SensorState>
        </Trackpoint>
        <Trackpoint>
          <Time>2025-02-03T08:24:27Z</Time>
          <DistanceMeters>482.0</DistanceMeters>
          <HeartRateBpm>
            <Value>155</Value>
          </HeartRateBpm>
          <SensorState>Absent</SensorState>
        </Trackpoint>
        <Trackpoint>
          <Time>2025-02-03T08:24:43Z</Time>
          <DistanceMeters>482.0</DistanceMeters>
          <HeartRateBpm>
            <Value>162</Value>
          </HeartRateBpm>
          <SensorState>Absent</SensorState>
        </Trackpoint>
        <Trackpoint>
          <Time>2025-02-03T08:24:49Z</Time>
          <DistanceMeters>482.0</DistanceMeters>
          <HeartRateBpm>
            <Value>168</Value>
          </HeartRateBpm>
          <SensorState>Absent</SensorState>
        </Trackpoint>
        <Trackpoint>
          <Time>2025-02-03T08:25:00Z</Time>
          <DistanceMeters>482.0</DistanceMeters>
          <HeartRateBpm>
            <Value>161</Value>
          </HeartRateBpm>
          <SensorState>Absent</SensorState>
        </Trackpoint>
        <Trackpoint>
          <Time>2025-02-03T08:25:13Z</Time>
          <DistanceMeters>482.0</DistanceMeters>
          <HeartRateBpm>
            <Value>162</Value>
          </HeartRateBpm>
          <SensorState>Absent</SensorState>
        </Trackpoint>
        <Trackpoint>
          <Time>2025-02-03T08:25:39Z</Time>
          <DistanceMeters>482.0</DistanceMeters>
          <HeartRateBpm>
            <Value>168</Value>
          </HeartRateBpm>
          <SensorState>Absent</SensorState>
        </Trackpoint>
        <Trackpoint>
          <Time>2025-02-03T08:25:58Z</Time>
          <DistanceMeters>482.0</DistanceMeters>
          <HeartRateBpm>
            <Value>162</Value>
          </HeartRateBpm>
          <SensorState>Absent</SensorState>
        </Trackpoint>
        <Trackpoint>
          <Time>2025-02-03T08:26:00Z</Time>
          <DistanceMeters>482.0</DistanceMeters>
          <HeartRateBpm>
            <Value>160</Value>
          </HeartRateBpm>
          <SensorState>Absent</SensorState>
        </Trackpoint>
        <Trackpoint>
          <Time>2025-02-03T08:26:02Z</Time>
          <DistanceMeters>482.0</DistanceMeters>
          <HeartRateBpm>
            <Value>155</Value>
          </HeartRateBpm>
          <SensorState>Absent</SensorState>
        </Trackpoint>
        <Trackpoint>
          <Time>2025-02-03T08:26:07Z</Time>
          <DistanceMeters>482.0</DistanceMeters>
          <HeartRateBpm>
            <Value>162</Value>
          </HeartRateBpm>
          <SensorState>Absent</SensorState>
        </Trackpoint>
        <Trackpoint>
          <Time>2025-02-03T08:26:52Z</Time>
          <DistanceMeters>482.0</DistanceMeters>
          <HeartRateBpm>
            <Value>156</Value>
          </HeartRateBpm>
          <SensorState>Absent</SensorState>
        </Trackpoint>
        <Trackpoint>
          <Time>2025-02-03T08:26:55Z</Time>
          <DistanceMeters>482.0</DistanceMeters>
          <HeartRateBpm>
            <Value>149</Value>
          </HeartRateBpm>
          <SensorState>Absent</SensorState>
        </Trackpoint>
        <Trackpoint>
          <Time>2025-02-03T08:27:00Z</Time>
          <DistanceMeters>482.0</DistanceMeters>
          <HeartRateBpm>
            <Value>147</Value>
          </HeartRateBpm>
          <SensorState>Absent</SensorState>
        </Trackpoint>
        <Trackpoint>
          <Time>2025-02-03T08:27:00Z</Time>
          <DistanceMeters>482.0</DistanceMeters>
          <HeartRateBpm>
            <Value>143</Value>
          </HeartRateBpm>
          <SensorState>Absent</SensorState>
        </Trackpoint>
        <Trackpoint>
          <Time>2025-02-03T08:28:00Z</Time>
          <DistanceMeters>482.0</DistanceMeters>
          <HeartRateBpm>
            <Value>130</Value>
          </HeartRateBpm>
          <SensorState>Absent</SensorState>
        </Trackpoint>
        <Trackpoint>
          <Time>2025-02-03T08:28:01Z</Time>
          <DistanceMeters>482.0</DistanceMeters>
          <HeartRateBpm>
            <Value>140</Value>
          </HeartRateBpm>
          <SensorState>Absent</SensorState>
        </Trackpoint>
        <Trackpoint>
          <Time>2025-02-03T08:28:19Z</Time>
          <DistanceMeters>482.0</DistanceMeters>
          <HeartRateBpm>
            <Value>131</Value>
          </HeartRateBpm>
          <SensorState>Absent</SensorState>
        </Trackpoint>
        <Trackpoint>
          <Time>2025-02-03T08:28:31Z</Time>
          <DistanceMeters>482.0</DistanceMeters>
          <HeartRateBpm>
            <Value>123</Value>
          </HeartRateBpm>
          <SensorState>Absent</SensorState>
        </Trackpoint>
        <Trackpoint>
          <Time>2025-02-03T08:28:43Z</Time>
          <DistanceMeters>482.0</DistanceMeters>
          <HeartRateBpm>
            <Value>116</Value>
          </HeartRateBpm>
          <SensorState>Absent</SensorState>
        </Trackpoint>
        <Trackpoint>
          <Time>2025-02-03T08:28:52Z</Time>
          <DistanceMeters>482.0</DistanceMeters>
          <HeartRateBpm>
            <Value>109</Value>
          </HeartRateBpm>
          <SensorState>Absent</SensorState>
        </Trackpoint>
        <Trackpoint>
          <Time>2025-02-03T08:29:00Z</Time>
          <DistanceMeters>482.0</DistanceMeters>
          <HeartRateBpm>
            <Value>109</Value>
          </HeartRateBpm>
          <SensorState>Absent</SensorState>
        </Trackpoint>
        <Trackpoint>
          <Time>2025-02-03T08:29:22Z</Time>
          <DistanceMeters>482.0</DistanceMeters>
          <HeartRateBpm>
            <Value>103</Value>
          </HeartRateBpm>
          <SensorState>Absent</SensorState>
        </Trackpoint>
        <Trackpoint>
          <Time>2025-02-03T08:29:29Z</Time>
          <DistanceMeters>482.0</DistanceMeters>
          <HeartRateBpm>
            <Value>96</Value>
          </HeartRateBpm>
          <SensorState>Absent</SensorState>
        </Trackpoint>
        <Trackpoint>
          <Time>2025-02-03T08:29:52Z</Time>
          <DistanceMeters>482.0</DistanceMeters>
          <HeartRateBpm>
            <Value>102</Value>
          </HeartRateBpm>
          <SensorState>Absent</SensorState>
        </Trackpoint>
        <Trackpoint>
          <Time>2025-02-03T08:29:59Z</Time>
          <DistanceMeters>482.0</DistanceMeters>
          <HeartRateBpm>
            <Value>96</Value>
          </HeartRateBpm>
          <SensorState>Absent</SensorState>
        </Trackpoint>
        <Trackpoint>
          <Time>2025-02-03T08:30:00Z</Time>
          <DistanceMeters>482.0</DistanceMeters>
          <HeartRateBpm>
            <Value>99</Value>
          </HeartRateBpm>
          <SensorState>Absent</SensorState>
        </Trackpoint>
        <Trackpoint>
          <Time>2025-02-03T08:30:59Z</Time>
          <DistanceMeters>482.0</DistanceMeters>
          <HeartRateBpm>
            <Value>96</Value>
          </HeartRateBpm>
          <SensorState>Absent</SensorState>
        </Trackpoint>
        <Trackpoint>
          <Time>2025-02-03T08:31:00Z</Time>
          <DistanceMeters>557.0</DistanceMeters>
          <HeartRateBpm>
            <Value>92</Value>
          </HeartRateBpm>
          <SensorState>Absent</SensorState>
        </Trackpoint>
        <Trackpoint>
          <Time>2025-02-03T08:31:07Z</Time>
          <DistanceMeters>557.0</DistanceMeters>
          <HeartRateBpm>
            <Value>90</Value>
          </HeartRateBpm>
          <SensorState>Absent</SensorState>
        </Trackpoint>
        <Trackpoint>
          <Time>2025-02-03T08:31:47Z</Time>
          <DistanceMeters>557.0</DistanceMeters>
          <HeartRateBpm>
            <Value>96</Value>
          </HeartRateBpm>
          <SensorState>Absent</SensorState>
        </Trackpoint>
        <Trackpoint>
          <Time>2025-02-03T08:32:00Z</Time>
          <DistanceMeters>557.0</DistanceMeters>
          <HeartRateBpm>
            <Value>89</Value>
          </HeartRateBpm>
          <SensorState>Absent</SensorState>
        </Trackpoint>
        <Trackpoint>
          <Time>2025-02-03T08:32:11Z</Time>
          <DistanceMeters>557.0</DistanceMeters>
          <HeartRateBpm>
            <Value>90</Value>
          </HeartRateBpm>
          <SensorState>Absent</SensorState>
        </Trackpoint>
        <Trackpoint>
          <Time>2025-02-03T08:32:48Z</Time>
          <DistanceMeters>557.0</DistanceMeters>
          <HeartRateBpm>
            <Value>84</Value>
          </HeartRateBpm>
          <SensorState>Absent</SensorState>
        </Trackpoint>
        <Trackpoint>
          <Time>2025-02-03T08:33:00Z</Time>
          <DistanceMeters>557.0</DistanceMeters>
          <HeartRateBpm>
            <Value>85</Value>
          </HeartRateBpm>
          <SensorState>Absent</SensorState>
        </Trackpoint>
        <Trackpoint>
          <Time>2025-02-03T08:33:50Z</Time>
          <DistanceMeters>557.0</DistanceMeters>
          <HeartRateBpm>
            <Value>87</Value>
          </HeartRateBpm>
          <SensorState>Absent</SensorState>
        </Trackpoint>
        <Trackpoint>
          <Time>2025-02-03T08:34:00Z</Time>
          <DistanceMeters>557.0</DistanceMeters>
          <HeartRateBpm>
            <Value>83</Value>
          </HeartRateBpm>
          <SensorState>Absent</SensorState>
        </Trackpoint>
        <Trackpoint>
          <Time>2025-02-03T08:34:07Z</Time>
          <DistanceMeters>557.0</DistanceMeters>
          <HeartRateBpm>
            <Value>81</Value>
          </HeartRateBpm>
          <SensorState>Absent</SensorState>
        </Trackpoint>
        <Trackpoint>
          <Time>2025-02-03T08:34:42Z</Time>
          <DistanceMeters>557.0</DistanceMeters>
          <HeartRateBpm>
            <Value>88</Value>
          </HeartRateBpm>
          <SensorState>Absent</SensorState>
        </Trackpoint>
        <Trackpoint>
          <Time>2025-02-03T08:34:54Z</Time>
          <DistanceMeters>557.0</DistanceMeters>
          <HeartRateBpm>
            <Value>82</Value>
          </HeartRateBpm>
          <SensorState>Absent</SensorState>
        </Trackpoint>
        <Trackpoint>
          <Time>2025-02-03T08:35:00Z</Time>
          <DistanceMeters>557.0</DistanceMeters>
          <HeartRateBpm>
            <Value>88</Value>
          </HeartRateBpm>
          <SensorState>Absent</SensorState>
        </Trackpoint>
        <Trackpoint>
          <Time>2025-02-03T08:35:11Z</Time>
          <DistanceMeters>557.0</DistanceMeters>
          <HeartRateBpm>
            <Value>88</Value>
          </HeartRateBpm>
          <SensorState>Absent</SensorState>
        </Trackpoint>
        <Trackpoint>
          <Time>2025-02-03T08:35:45Z</Time>
          <DistanceMeters>557.0</DistanceMeters>
          <HeartRateBpm>
            <Value>95</Value>
          </HeartRateBpm>
          <SensorState>Absent</SensorState>
        </Trackpoint>
        <Trackpoint>
          <Time>2025-02-03T08:35:53Z</Time>
          <DistanceMeters>557.0</DistanceMeters>
          <HeartRateBpm>
            <Value>102</Value>
          </HeartRateBpm>
          <SensorState>Absent</SensorState>
        </Trackpoint>
        <Trackpoint>
          <Time>2025-02-03T08:36:00Z</Time>
          <DistanceMeters>557.0</DistanceMeters>
          <HeartRateBpm>
            <Value>102</Value>
          </HeartRateBpm>
          <Cadence><Value>47</Value></Cadence>
          <SensorState>Absent</SensorState>
        </Trackpoint>
        <Trackpoint>
          <Time>2025-02-03T08:36:11Z</Time>
          <DistanceMeters>557.0</DistanceMeters>
          <HeartRateBpm>
            <Value>109</Value>
          </HeartRateBpm>
          <Cadence><Value>47</Value></Cadence>
          <SensorState>Absent</SensorState>
        </Trackpoint>
        <Trackpoint>
          <Time>2025-02-03T08:36:28Z</Time>
          <DistanceMeters>557.0</DistanceMeters>
          <HeartRateBpm>
            <Value>101</Value>
          </HeartRateBpm>
          <Cadence><Value>47</Value></Cadence>
          <SensorState>Absent</SensorState>
        </Trackpoint>
        <Trackpoint>
          <Time>2025-02-03T08:36:39Z</Time>
          <DistanceMeters>557.0</DistanceMeters>
          <HeartRateBpm>
            <Value>108</Value>
          </HeartRateBpm>
          <Cadence><Value>47</Value></Cadence>
          <SensorState>Absent</SensorState>
        </Trackpoint>
        <Trackpoint>
          <Time>2025-02-03T08:37:00Z</Time>
          <DistanceMeters>557.0</DistanceMeters>
          <HeartRateBpm>
            <Value>113</Value>
          </HeartRateBpm>
          <SensorState>Absent</SensorState>
        </Trackpoint>
        <Trackpoint>
          <Time>2025-02-03T08:37:06Z</Time>
          <DistanceMeters>557.0</DistanceMeters>
          <HeartRateBpm>
            <Value>114</Value>
          </HeartRateBpm>
          <SensorState>Absent</SensorState>
        </Trackpoint>
        <Trackpoint>
          <Time>2025-02-03T08:37:41Z</Time>
          <DistanceMeters>557.0</DistanceMeters>
          <HeartRateBpm>
            <Value>122</Value>
          </HeartRateBpm>
          <SensorState>Absent</SensorState>
        </Trackpoint>
        <Trackpoint>
          <Time>2025-02-03T08:37:44Z</Time>
          <DistanceMeters>557.0</DistanceMeters>
          <HeartRateBpm>
            <Value>129</Value>
          </HeartRateBpm>
          <SensorState>Absent</SensorState>
        </Trackpoint>
        <Trackpoint>
          <Time>2025-02-03T08:38:00Z</Time>
          <DistanceMeters>557.0</DistanceMeters>
          <HeartRateBpm>
            <Value>128</Value>
          </HeartRateBpm>
          <SensorState>Absent</SensorState>
        </Trackpoint>
        <Trackpoint>
          <Time>2025-02-03T08:38:04Z</Time>
          <DistanceMeters>557.0</DistanceMeters>
          <HeartRateBpm>
            <Value>137</Value>
          </HeartRateBpm>
          <SensorState>Absent</SensorState>
        </Trackpoint>
        <Trackpoint>
          <Time>2025-02-03T08:38:17Z</Time>
          <DistanceMeters>557.0</DistanceMeters>
          <HeartRateBpm>
            <Value>128</Value>
          </HeartRateBpm>
          <SensorState>Absent</SensorState>
        </Trackpoint>
        <Trackpoint>
          <Time>2025-02-03T08:38:29Z</Time>
          <DistanceMeters>557.0</DistanceMeters>
          <HeartRateBpm>
            <Value>134</Value>
          </HeartRateBpm>
          <SensorState>Absent</SensorState>
        </Trackpoint>
        <Trackpoint>
          <Time>2025-02-03T08:39:00Z</Time>
          <DistanceMeters>557.0</DistanceMeters>
          <HeartRateBpm>
            <Value>138</Value>
          </HeartRateBpm>
          <SensorState>Absent</SensorState>
        </Trackpoint>
        <Trackpoint>
          <Time>2025-02-03T08:39:05Z</Time>
          <DistanceMeters>557.0</DistanceMeters>
          <HeartRateBpm>
            <Value>142</Value>
          </HeartRateBpm>
          <SensorState>Absent</SensorState>
        </Trackpoint>
        <Trackpoint>
          <Time>2025-02-03T08:40:00Z</Time>
          <DistanceMeters>557.0</DistanceMeters>
          <HeartRateBpm>
            <Value>151</Value>
          </HeartRateBpm>
          <SensorState>Absent</SensorState>
        </Trackpoint>
        <Trackpoint>
          <Time>2025-02-03T08:40:06Z</Time>
          <DistanceMeters>557.0</DistanceMeters>
          <HeartRateBpm>
            <Value>146</Value>
          </HeartRateBpm>
          <SensorState>Absent</SensorState>
        </Trackpoint>
        <Trackpoint>
          <Time>2025-02-03T08:40:23Z</Time>
          <DistanceMeters>557.0</DistanceMeters>
          <HeartRateBpm>
            <Value>140</Value>
          </HeartRateBpm>
          <SensorState>Absent</SensorState>
        </Trackpoint>
        <Trackpoint>
          <Time>2025-02-03T08:40:28Z</Time>
          <DistanceMeters>557.0</DistanceMeters>
          <HeartRateBpm>
            <Value>150</Value>
          </HeartRateBpm>
          <SensorState>Absent</SensorState>
        </Trackpoint>
        <Trackpoint>
          <Time>2025-02-03T08:40:31Z</Time>
          <DistanceMeters>557.0</DistanceMeters>
          <HeartRateBpm>
            <Value>158</Value>
          </HeartRateBpm>
          <SensorState>Absent</SensorState>
        </Trackpoint>
        <Trackpoint>
          <Time>2025-02-03T08:40:41Z</Time>
          <DistanceMeters>557.0</DistanceMeters>
          <HeartRateBpm>
            <Value>164</Value>
          </HeartRateBpm>
          <SensorState>Absent</SensorState>
        </Trackpoint>
        <Trackpoint>
          <Time>2025-02-03T08:40:47Z</Time>
          <DistanceMeters>557.0</DistanceMeters>
          <HeartRateBpm>
            <Value>170</Value>
          </HeartRateBpm>
          <SensorState>Absent</SensorState>
        </Trackpoint>
        <Trackpoint>
          <Time>2025-02-03T08:40:49Z</Time>
          <DistanceMeters>557.0</DistanceMeters>
          <HeartRateBpm>
            <Value>177</Value>
          </HeartRateBpm>
          <SensorState>Absent</SensorState>
        </Trackpoint>
        <Trackpoint>
          <Time>2025-02-03T08:41:00Z</Time>
          <DistanceMeters>673.0</DistanceMeters>
          <HeartRateBpm>
            <Value>158</Value>
          </HeartRateBpm>
          <SensorState>Absent</SensorState>
        </Trackpoint>
        <Trackpoint>
          <Time>2025-02-03T08:41:03Z</Time>
          <DistanceMeters>673.0</DistanceMeters>
          <HeartRateBpm>
            <Value>171</Value>
          </HeartRateBpm>
          <SensorState>Absent</SensorState>
        </Trackpoint>
        <Trackpoint>
          <Time>2025-02-03T08:41:14Z</Time>
          <DistanceMeters>673.0</DistanceMeters>
          <HeartRateBpm>
            <Value>165</Value>
          </HeartRateBpm>
          <SensorState>Absent</SensorState>
        </Trackpoint>
        <Trackpoint>
          <Time>2025-02-03T08:41:16Z</Time>
          <DistanceMeters>673.0</DistanceMeters>
          <HeartRateBpm>
            <Value>158</Value>
          </HeartRateBpm>
          <SensorState>Absent</SensorState>
        </Trackpoint>
        <Trackpoint>
          <Time>2025-02-03T08:41:43Z</Time>
          <DistanceMeters>673.0</DistanceMeters>
          <HeartRateBpm>
            <Value>151</Value>
          </HeartRateBpm>
          <SensorState>Absent</SensorState>
        </Trackpoint>
        <Trackpoint>
          <Time>2025-02-03T08:41:51Z</Time>
          <DistanceMeters>673.0</DistanceMeters>
          <HeartRateBpm>
            <Value>158</Value>
          </HeartRateBpm>
          <SensorState>Absent</SensorState>
        </Trackpoint>
        <Trackpoint>
          <Time>2025-02-03T08:41:57Z</Time>
          <DistanceMeters>673.0</DistanceMeters>
          <HeartRateBpm>
            <Value>166</Value>
          </HeartRateBpm>
          <SensorState>Absent</SensorState>
        </Trackpoint>
        <Trackpoint>
          <Time>2025-02-03T08:42:00Z</Time>
          <DistanceMeters>673.0</DistanceMeters>
          <HeartRateBpm>
            <Value>167</Value>
          </HeartRateBpm>
          <SensorState>Absent</SensorState>
        </Trackpoint>
        <Trackpoint>
          <Time>2025-02-03T08:42:03Z</Time>
          <DistanceMeters>673.0</DistanceMeters>
          <HeartRateBpm>
            <Value>172</Value>
          </HeartRateBpm>
          <SensorState>Absent</SensorState>
        </Trackpoint>
        <Trackpoint>
          <Time>2025-02-03T08:42:32Z</Time>
          <DistanceMeters>673.0</DistanceMeters>
          <HeartRateBpm>
            <Value>166</Value>
          </HeartRateBpm>
          <SensorState>Absent</SensorState>
        </Trackpoint>
        <Trackpoint>
          <Time>2025-02-03T08:42:42Z</Time>
          <DistanceMeters>673.0</DistanceMeters>
          <HeartRateBpm>
            <Value>174</Value>
          </HeartRateBpm>
          <SensorState>Absent</SensorState>
        </Trackpoint>
        <Trackpoint>
          <Time>2025-02-03T08:43:00Z</Time>
          <DistanceMeters>673.0</DistanceMeters>
          <HeartRateBpm>
            <Value>166</Value>
          </HeartRateBpm>
          <SensorState>Absent</SensorState>
        </Trackpoint>
        <Trackpoint>
          <Time>2025-02-03T08:43:05Z</Time>
          <DistanceMeters>673.0</DistanceMeters>
          <HeartRateBpm>
            <Value>167</Value>
          </HeartRateBpm>
          <SensorState>Absent</SensorState>
        </Trackpoint>
        <Trackpoint>
          <Time>2025-02-03T08:43:34Z</Time>
          <DistanceMeters>673.0</DistanceMeters>
          <HeartRateBpm>
            <Value>173</Value>
          </HeartRateBpm>
          <SensorState>Absent</SensorState>
        </Trackpoint>
        <Trackpoint>
          <Time>2025-02-03T08:43:41Z</Time>
          <DistanceMeters>673.0</DistanceMeters>
          <HeartRateBpm>
            <Value>165</Value>
          </HeartRateBpm>
          <SensorState>Absent</SensorState>
        </Trackpoint>
        <Trackpoint>
          <Time>2025-02-03T08:43:55Z</Time>
          <DistanceMeters>673.0</DistanceMeters>
          <HeartRateBpm>
            <Value>155</Value>
          </HeartRateBpm>
          <SensorState>Absent</SensorState>
        </Trackpoint>
        <Trackpoint>
          <Time>2025-02-03T08:44:00Z</Time>
          <DistanceMeters>673.0</DistanceMeters>
          <HeartRateBpm>
            <Value>171</Value>
          </HeartRateBpm>
          <SensorState>Absent</SensorState>
        </Trackpoint>
        <Trackpoint>
          <Time>2025-02-03T08:44:06Z</Time>
          <DistanceMeters>673.0</DistanceMeters>
          <HeartRateBpm>
            <Value>161</Value>
          </HeartRateBpm>
          <SensorState>Absent</SensorState>
        </Trackpoint>
        <Trackpoint>
          <Time>2025-02-03T08:44:09Z</Time>
          <DistanceMeters>673.0</DistanceMeters>
          <HeartRateBpm>
            <Value>170</Value>
          </HeartRateBpm>
          <SensorState>Absent</SensorState>
        </Trackpoint>
        <Trackpoint>
          <Time>2025-02-03T08:44:14Z</Time>
          <DistanceMeters>673.0</DistanceMeters>
          <HeartRateBpm>
            <Value>176</Value>
          </HeartRateBpm>
          <SensorState>Absent</SensorState>
        </Trackpoint>
        <Trackpoint>
          <Time>2025-02-03T08:45:00Z</Time>
          <DistanceMeters>673.0</DistanceMeters>
          <HeartRateBpm>
            <Value>170</Value>
          </HeartRateBpm>
          <Cadence><Value>51</Value></Cadence>
          <SensorState>Absent</SensorState>
        </Trackpoint>
        <Trackpoint>
          <Time>2025-02-03T08:45:18Z</Time>
          <DistanceMeters>673.0</DistanceMeters>
          <HeartRateBpm>
            <Value>179</Value>
          </HeartRateBpm>
          <Cadence><Value>51</Value></Cadence>
          <SensorState>Absent</SensorState>
        </Trackpoint>
        <Trackpoint>
          <Time>2025-02-03T08:45:27Z</Time>
          <DistanceMeters>673.0</DistanceMeters>
          <HeartRateBpm>
            <Value>171</Value>
          </HeartRateBpm>
          <Cadence><Value>51</Value></Cadence>
          <SensorState>Absent</SensorState>
        </Trackpoint>
        <Trackpoint>
          <Time>2025-02-03T08:45:33Z</Time>
          <DistanceMeters>673.0</DistanceMeters>
          <HeartRateBpm>
            <Value>165</Value>
          </HeartRateBpm>
          <Cadence><Value>51</Value></Cadence>
          <SensorState>Absent</SensorState>
        </Trackpoint>
        <Trackpoint>
          <Time>2025-02-03T08:46:00Z</Time>
          <DistanceMeters>673.0</DistanceMeters>
          <HeartRateBpm>
            <Value>160</Value>
          </HeartRateBpm>
          <SensorState>Absent</SensorState>
        </Trackpoint>
        <Trackpoint>
          <Time>2025-02-03T08:46:21Z</Time>
          <DistanceMeters>673.0</DistanceMeters>
          <HeartRateBpm>
            <Value>159</Value>
          </HeartRateBpm>
          <SensorState>Absent</SensorState>
        </Trackpoint>
        <Trackpoint>
          <Time>2025-02-03T08:46:35Z</Time>
          <DistanceMeters>673.0</DistanceMeters>
          <HeartRateBpm>
            <Value>152</Value>
          </HeartRateBpm>
          <SensorState>Absent</SensorState>
        </Trackpoint>
        <Trackpoint>
          <Time>2025-02-03T08:46:54Z</Time>
          <DistanceMeters>673.0</DistanceMeters>
          <HeartRateBpm>
            <Value>146</Value>
          </HeartRateBpm>
          <SensorState>Absent</SensorState>
        </Trackpoint>
        <Trackpoint>
          <Time>2025-02-03T08:47:00Z</Time>
          <DistanceMeters>673.0</DistanceMeters>
          <HeartRateBpm>
            <Value>141</Value>
          </HeartRateBpm>
          <SensorState>Absent</SensorState>
        </Trackpoint>
        <Trackpoint>
          <Time>2025-02-03T08:47:33Z</Time>
          <DistanceMeters>673.0</DistanceMeters>
          <HeartRateBpm>
            <Value>139</Value>
          </HeartRateBpm>
          <SensorState>Absent</SensorState>
        </Trackpoint>
        <Trackpoint>
          <Time>2025-02-03T08:47:42Z</Time>
          <DistanceMeters>673.0</DistanceMeters>
          <HeartRateBpm>
            <Value>131</Value>
          </HeartRateBpm>
          <SensorState>Absent</SensorState>
        </Trackpoint>
        <Trackpoint>
          <Time>2025-02-03T08:47:47Z</Time>
          <DistanceMeters>673.0</DistanceMeters>
          <HeartRateBpm>
            <Value>124</Value>
          </HeartRateBpm>
          <SensorState>Absent</SensorState>
        </Trackpoint>
        <Trackpoint>
          <Time>2025-02-03T08:47:53Z</Time>
          <DistanceMeters>673.0</DistanceMeters>
          <HeartRateBpm>
            <Value>118</Value>
          </HeartRateBpm>
          <SensorState>Absent</SensorState>
        </Trackpoint>
        <Trackpoint>
          <Time>2025-02-03T08:48:00Z</Time>
          <DistanceMeters>673.0</DistanceMeters>
          <HeartRateBpm>
            <Value>129</Value>
          </HeartRateBpm>
          <SensorState>Absent</SensorState>
        </Trackpoint>
        <Trackpoint>
          <Time>2025-02-03T08:48:18Z</Time>
          <DistanceMeters>673.0</DistanceMeters>
          <HeartRateBpm>
            <Value>125</Value>
          </HeartRateBpm>
          <SensorState>Absent</SensorState>
        </Trackpoint>
        <Trackpoint>
          <Time>2025-02-03T08:48:31Z</Time>
          <DistanceMeters>673.0</DistanceMeters>
          <HeartRateBpm>
            <Value>131</Value>
          </HeartRateBpm>
          <SensorState>Absent</SensorState>
        </Trackpoint>
        <Trackpoint>
          <Time>2025-02-03T08:49:00Z</Time>
          <DistanceMeters>673.0</DistanceMeters>
          <HeartRateBpm>
            <Value>126</Value>
          </HeartRateBpm>
          <Cadence><Value>45</Value></Cadence>
          <SensorState>Absent</SensorState>
        </Trackpoint>
        <Trackpoint>
          <Time>2025-02-03T08:49:03Z</Time>
          <DistanceMeters>673.0</DistanceMeters>
          <HeartRateBpm>
            <Value>139</Value>
          </HeartRateBpm>
          <Cadence><Value>45</Value></Cadence>
          <SensorState>Absent</SensorState>
        </Trackpoint>
        <Trackpoint>
          <Time>2025-02-03T08:49:25Z</Time>
          <DistanceMeters>673.0</DistanceMeters>
          <HeartRateBpm>
            <Value>130</Value>
          </HeartRateBpm>
          <Cadence><Value>45</Value></Cadence>
          <SensorState>Absent</SensorState>
        </Trackpoint>
        <Trackpoint>
          <Time>2025-02-03T08:49:32Z</Time>
          <DistanceMeters>673.0</DistanceMeters>
          <HeartRateBpm>
            <Value>124</Value>
          </HeartRateBpm>
          <Cadence><Value>45</Value></Cadence>
          <SensorState>Absent</SensorState>
        </Trackpoint>
        <Trackpoint>
          <Time>2025-02-03T08:49:46Z</Time>
          <DistanceMeters>673.0</DistanceMeters>
          <HeartRateBpm>
            <Value>116</Value>
          </HeartRateBpm>
          <Cadence><Value>45</Value></Cadence>
          <SensorState>Absent</SensorState>
        </Trackpoint>
        <Trackpoint>
          <Time>2025-02-03T08:49:50Z</Time>
          <DistanceMeters>673.0</DistanceMeters>
          <HeartRateBpm>
            <Value>108</Value>
          </HeartRateBpm>
          <Cadence><Value>45</Value></Cadence>
          <SensorState>Absent</SensorState>
        </Trackpoint>
        <Trackpoint>
          <Time>2025-02-03T08:50:00Z</Time>
          <DistanceMeters>673.0</DistanceMeters>
          <HeartRateBpm>
            <Value>122</Value>
          </HeartRateBpm>
          <SensorState>Absent</SensorState>
        </Trackpoint>
        <Trackpoint>
          <Time>2025-02-03T08:50:08Z</Time>
          <DistanceMeters>673.0</DistanceMeters>
          <HeartRateBpm>
            <Value>114</Value>
          </HeartRateBpm>
          <SensorState>Absent</SensorState>
        </Trackpoint>
        <Trackpoint>
          <Time>2025-02-03T08:50:19Z</Time>
          <DistanceMeters>673.0</DistanceMeters>
          <HeartRateBpm>
            <Value>108</Value>
          </HeartRateBpm>
          <SensorState>Absent</SensorState>
        </Trackpoint>
        <Trackpoint>
          <Time>2025-02-03T08:50:27Z</Time>
          <DistanceMeters>673.0</DistanceMeters>
          <HeartRateBpm>
            <Value>115</Value>
          </HeartRateBpm>
          <SensorState>Absent</SensorState>
        </Trackpoint>
        <Trackpoint>
          <Time>2025-02-03T08:50:34Z</Time>
          <DistanceMeters>673.0</DistanceMeters>
          <HeartRateBpm>
            <Value>125</Value>
          </HeartRateBpm>
          <SensorState>Absent</SensorState>
        </Trackpoint>
        <Trackpoint>
          <Time>2025-02-03T08:50:36Z</Time>
          <DistanceMeters>673.0</DistanceMeters>
          <HeartRateBpm>
            <Value>133</Value>
          </HeartRateBpm>
          <SensorState>Absent</SensorState>
        </Trackpoint>
        <Trackpoint>
          <Time>2025-02-03T08:50:56Z</Time>
          <DistanceMeters>673.0</DistanceMeters>
          <HeartRateBpm>
            <Value>139</Value>
          </HeartRateBpm>
          <SensorState>Absent</SensorState>
        </Trackpoint>
        <Trackpoint>
          <Time>2025-02-03T08:51:00Z</Time>
          <DistanceMeters>896.0</DistanceMeters>
          <HeartRateBpm>
            <Value>136</Value>
          </HeartRateBpm>
          <Cadence><Value>57</Value></Cadence>
          <SensorState>Absent</SensorState>
        </Trackpoint>
        <Trackpoint>
          <Time>2025-02-03T08:51:55Z</Time>
          <DistanceMeters>896.0</DistanceMeters>
          <HeartRateBpm>
            <Value>147</Value>
          </HeartRateBpm>
          <Cadence><Value>57</Value></Cadence>
          <SensorState>Absent</SensorState>
        </Trackpoint>
        <Trackpoint>
          <Time>2025-02-03T08:52:00Z</Time>
          <DistanceMeters>896.0</DistanceMeters>
          <HeartRateBpm>
            <Value>149</Value>
          </HeartRateBpm>
          <SensorState>Absent</SensorState>
        </Trackpoint>
        <Trackpoint>
          <Time>2025-02-03T08:52:03Z</Time>
          <DistanceMeters>896.0</DistanceMeters>
          <HeartRateBpm>
            <Value>155</Value>
          </HeartRateBpm>
          <SensorState>Absent</SensorState>
        </Trackpoint>
        <Trackpoint>
          <Time>2025-02-03T08:52:20Z</Time>
          <DistanceMeters>896.0</DistanceMeters>
          <HeartRateBpm>
            <Value>161</Value>
          </HeartRateBpm>
          <SensorState>Absent</SensorState>
        </Trackpoint>
        <Trackpoint>
          <Time>2025-02-03T08:52:29Z</Time>
          <DistanceMeters>896.0</DistanceMeters>
          <HeartRateBpm>
            <Value>155</Value>
          </HeartRateBpm>
          <SensorState>Absent</SensorState>
        </Trackpoint>
        <Trackpoint>
          <Time>2025-02-03T08:52:38Z</Time>
          <DistanceMeters>896.0</DistanceMeters>
          <HeartRateBpm>
            <Value>149</Value>
          </HeartRateBpm>
          <SensorState>Absent</SensorState>
        </Trackpoint>
        <Trackpoint>
          <Time>2025-02-03T08:52:57Z</Time>
          <DistanceMeters>896.0</DistanceMeters>
          <HeartRateBpm>
            <Value>142</Value>
          </HeartRateBpm>
          <SensorState>Absent</SensorState>
        </Trackpoint>
        <Trackpoint>
          <Time>2025-02-03T08:53:00Z</Time>
          <DistanceMeters>896.0</DistanceMeters>
          <HeartRateBpm>
            <Value>144</Value>
          </HeartRateBpm>
          <SensorState>Absent</SensorState>
        </Trackpoint>
        <Trackpoint>
          <Time>2025-02-03T08:53:00Z</Time>
          <DistanceMeters>896.0</DistanceMeters>
          <HeartRateBpm>
            <Value>148</Value>
          </HeartRateBpm>
          <SensorState>Absent</SensorState>
        </Trackpoint>
        <Trackpoint>
          <Time>2025-02-03T08:53:15Z</Time>
          <DistanceMeters>896.0</DistanceMeters>
          <HeartRateBpm>
            <Value>142</Value>
          </HeartRateBpm>
          <SensorState>Absent</SensorState>
        </Trackpoint>
        <Trackpoint>
          <Time>2025-02-03T08:53:25Z</Time>
          <DistanceMeters>896.0</DistanceMeters>
          <HeartRateBpm>
            <Value>148</Value>
          </HeartRateBpm>
          <SensorState>Absent</SensorState>
        </Trackpoint>
        <Trackpoint>
          <Time>2025-02-03T08:53:27Z</Time>
          <DistanceMeters>896.0</DistanceMeters>
          <HeartRateBpm>
            <Value>155</Value>
          </HeartRateBpm>
          <SensorState>Absent</SensorState>
        </Trackpoint>
        <Trackpoint>
          <Time>2025-02-03T08:53:41Z</Time>
          <DistanceMeters>896.0</DistanceMeters>
          <HeartRateBpm>
            <Value>146</Value>
          </HeartRateBpm>
          <SensorState>Absent</SensorState>
        </Trackpoint>
        <Trackpoint>
          <Time>2025-02-03T08:53:49Z</Time>
          <DistanceMeters>896.0</DistanceMeters>
          <HeartRateBpm>
            <Value>139</Value>
          </HeartRateBpm>
          <SensorState>Absent</SensorState>
        </Trackpoint>
        <Trackpoint>
          <Time>2025-02-03T08:53:52Z</Time>
          <DistanceMeters>896.0</DistanceMeters>
          <HeartRateBpm>
            <Value>130</Value>
          </HeartRateBpm>
          <SensorState>Absent</SensorState>
        </Trackpoint>
        <Trackpoint>
          <Time>2025-02-03T08:53:55Z</Time>
          <DistanceMeters>896.0</DistanceMeters>
          <HeartRateBpm>
            <Value>122</Value>
          </HeartRateBpm>
          <SensorState>Absent</SensorState>
        </Trackpoint>
        <Trackpoint>
          <Time>2025-02-03T08:54:00Z</Time>
          <DistanceMeters>896.0</DistanceMeters>
          <HeartRateBpm>
            <Value>129</Value>
          </HeartRateBpm>
          <SensorState>Absent</SensorState>
        </Trackpoint>
        <Trackpoint>
          <Time>2025-02-03T08:54:03Z</Time>
          <DistanceMeters>896.0</DistanceMeters>
          <HeartRateBpm>
            <Value>115</Value>
          </HeartRateBpm>
          <SensorState>Absent</SensorState>
        </Trackpoint>
        <Trackpoint>
          <Time>2025-02-03T08:54:21Z</Time>
          <DistanceMeters>896.0</DistanceMeters>
          <HeartRateBpm>
            <Value>122</Value>
          </HeartRateBpm>
          <SensorState>Absent</SensorState>
        </Trackpoint>
        <Trackpoint>
          <Time>2025-02-03T08:54:39Z</Time>
          <DistanceMeters>896.0</DistanceMeters>
          <HeartRateBpm>
            <Value>130</Value>
          </HeartRateBpm>
          <SensorState>Absent</SensorState>
        </Trackpoint>
        <Trackpoint>
          <Time>2025-02-03T08:54:41Z</Time>
          <DistanceMeters>896.0</DistanceMeters>
          <HeartRateBpm>
            <Value>138</Value>
          </HeartRateBpm>
          <SensorState>Absent</SensorState>
        </Trackpoint>
        <Trackpoint>
          <Time>2025-02-03T08:54:45Z</Time>
          <DistanceMeters>896.0</DistanceMeters>
          <HeartRateBpm>
            <Value>132</Value>
          </HeartRateBpm>
          <SensorState>Absent</SensorState>
        </Trackpoint>
        <Trackpoint>
          <Time>2025-02-03T08:55:00Z</Time>
          <DistanceMeters>896.0</DistanceMeters>
          <HeartRateBpm>
            <Value>120</Value>
          </HeartRateBpm>
          <SensorState>Absent</SensorState>
        </Trackpoint>
        <Trackpoint>
          <Time>2025-02-03T08:55:01Z</Time>
          <DistanceMeters>896.0</DistanceMeters>
          <HeartRateBpm>
            <Value>125</Value>
          </HeartRateBpm>
          <SensorState>Absent</SensorState>
        </Trackpoint>
        <Trackpoint>
          <Time>2025-02-03T08:55:17Z</Time>
          <DistanceMeters>896.0</DistanceMeters>
          <HeartRateBpm>
            <Value>118</Value>
          </HeartRateBpm>
          <SensorState>Absent</SensorState>
        </Trackpoint>
        <Trackpoint>
          <Time>2025-02-03T08:55:30Z</Time>
          <DistanceMeters>896.0</DistanceMeters>
          <HeartRateBpm>
            <Value>111</Value>
          </HeartRateBpm>
          <SensorState>Absent</SensorState>
        </Trackpoint>
        <Trackpoint>
          <Time>2025-02-03T08:55:55Z</Time>
          <DistanceMeters>896.0</DistanceMeters>
          <HeartRateBpm>
            <Value>117</Value>
          </HeartRateBpm>
          <SensorState>Absent</SensorState>
        </Trackpoint>
        <Trackpoint>
          <Time>2025-02-03T08:56:00Z</Time>
          <DistanceMeters>896.0</DistanceMeters>
          <HeartRateBpm>
            <Value>114</Value>
          </HeartRateBpm>
          <SensorState>Absent</SensorState>
        </Trackpoint>
        <Trackpoint>
          <Time>2025-02-03T08:56:18Z</Time>
          <DistanceMeters>896.0</DistanceMeters>
          <HeartRateBpm>
            <Value>111</Value>
          </HeartRateBpm>
          <SensorState>Absent</SensorState>
        </Trackpoint>
        <Trackpoint>
          <Time>2025-02-03T08:57:00Z</Time>
          <DistanceMeters>896.0</DistanceMeters>
          <HeartRateBpm>
            <Value>112</Value>
          </HeartRateBpm>
          <SensorState>Absent</SensorState>
        </Trackpoint>
        <Trackpoint>
          <Time>2025-02-03T08:57:21Z</Time>
          <DistanceMeters>896.0</DistanceMeters>
          <HeartRateBpm>
            <Value>115</Value>
          </HeartRateBpm>
          <SensorState>Absent</SensorState>
        </Trackpoint>
        <Trackpoint>
          <Time>2025-02-03T08:58:00Z</Time>
          <DistanceMeters>896.0</DistanceMeters>
          <HeartRateBpm>
            <Value>110</Value>
          </HeartRateBpm>
          <SensorState>Absent</SensorState>
        </Trackpoint>
        <Trackpoint>
          <Time>2025-02-03T08:58:22Z</Time>
          <DistanceMeters>896.0</DistanceMeters>
          <HeartRateBpm>
            <Value>110</Value>
          </HeartRateBpm>
          <SensorState>Absent</SensorState>
        </Trackpoint>
        <Trackpoint>
          <Time>2025-02-03T08:58:47Z</Time>
          <DistanceMeters>896.0</DistanceMeters>
          <HeartRateBpm>
            <Value>104</Value>
          </HeartRateBpm>
          <SensorState>Absent</SensorState>
        </Trackpoint>
        <Trackpoint>
          <Time>2025-02-03T08:59:00Z</Time>
          <DistanceMeters>896.0</DistanceMeters>
          <HeartRateBpm>
            <Value>117</Value>
          </HeartRateBpm>
          <SensorState>Absent</SensorState>
        </Trackpoint>
        <Trackpoint>
          <Time>2025-02-03T08:59:05Z</Time>
          <DistanceMeters>896.0</DistanceMeters>
          <HeartRateBpm>
            <Value>111</Value>
          </HeartRateBpm>
          <SensorState>Absent</SensorState>
        </Trackpoint>
        <Trackpoint>
          <Time>2025-02-03T08:59:08Z</Time>
          <DistanceMeters>896.0</DistanceMeters>
          <HeartRateBpm>
            <Value>118</Value>
          </HeartRateBpm>
          <SensorState>Absent</SensorState>
        </Trackpoint>
        <Trackpoint>
          <Time>2025-02-03T08:59:36Z</Time>
          <DistanceMeters>896.0</DistanceMeters>
          <HeartRateBpm>
            <Value>124</Value>
          </HeartRateBpm>
          <SensorState>Absent</SensorState>
        </Trackpoint>
        <Trackpoint>
          <Time>2025-02-03T09:00:00Z</Time>
          <DistanceMeters>896.0</DistanceMeters>
          <HeartRateBpm>
            <Value>142</Value>
          </HeartRateBpm>
          <SensorState>Absent</SensorState>
        </Trackpoint>
        <Trackpoint>
          <Time>2025-02-03T09:00:09Z</Time>
          <DistanceMeters>896.0</DistanceMeters>
          <HeartRateBpm>
            <Value>131</Value>
          </HeartRateBpm>
          <SensorState>Absent</SensorState>
        </Trackpoint>
        <Trackpoint>
          <Time>2025-02-03T09:00:15Z</Time>
          <DistanceMeters>896.0</DistanceMeters>
          <HeartRateBpm>
            <Value>137</Value>
          </HeartRateBpm>
          <SensorState>Absent</SensorState>
        </Trackpoint>
        <Trackpoint>
          <Time>2025-02-03T09:00:19Z</Time>
          <DistanceMeters>896.0</DistanceMeters>
          <HeartRateBpm>
            <Value>143</Value>
          </HeartRateBpm>
          <SensorState>Absent</SensorState>
        </Trackpoint>
        <Trackpoint>
          <Time>2025-02-03T09:00:26Z</Time>
          <DistanceMeters>896.0</DistanceMeters>
          <HeartRateBpm>
            <Value>154</Value>
          </HeartRateBpm>
          <SensorState>Absent</SensorState>
        </Trackpoint>
        <Trackpoint>
          <Time>2025-02-03T09:00:29Z</Time>
          <DistanceMeters>896.0</DistanceMeters>
          <HeartRateBpm>
            <Value>160</Value>
          </HeartRateBpm>
          <SensorState>Absent</SensorState>
        </Trackpoint>
        <Trackpoint>
          <Time>2025-02-03T09:00:34Z</Time>
          <DistanceMeters>896.0</DistanceMeters>
          <HeartRateBpm>
            <Value>168</Value>
          </HeartRateBpm>
          <SensorState>Absent</SensorState>
        </Trackpoint>
        <Trackpoint>
          <Time>2025-02-03T09:00:50Z</Time>
          <DistanceMeters>896.0</DistanceMeters>
          <HeartRateBpm>
            <Value>162</Value>
          </HeartRateBpm>
          <SensorState>Absent</SensorState>
        </Trackpoint>
        <Trackpoint>
          <Time>2025-02-03T09:00:55Z</Time>
          <DistanceMeters>896.0</DistanceMeters>
          <HeartRateBpm>
            <Value>168</Value>
          </HeartRateBpm>
          <SensorState>Absent</SensorState>
        </Trackpoint>
        <Trackpoint>
          <Time>2025-02-03T09:01:00Z</Time>
          <DistanceMeters>981.0</DistanceMeters>
          <HeartRateBpm>
            <Value>161</Value>
          </HeartRateBpm>
          <SensorState>Absent</SensorState>
        </Trackpoint>
        <Trackpoint>
          <Time>2025-02-03T09:01:05Z</Time>
          <DistanceMeters>981.0</DistanceMeters>
          <HeartRateBpm>
            <Value>174</Value>
          </HeartRateBpm>
          <SensorState>Absent</SensorState>
        </Trackpoint>
        <Trackpoint>
          <Time>2025-02-03T09:01:10Z</Time>
          <DistanceMeters>981.0</DistanceMeters>
          <HeartRateBpm>
            <Value>168</Value>
          </HeartRateBpm>
          <SensorState>Absent</SensorState>
        </Trackpoint>
        <Trackpoint>
          <Time>2025-02-03T09:02:00Z</Time>
          <DistanceMeters>981.0</DistanceMeters>
          <HeartRateBpm>
            <Value>163</Value>
          </HeartRateBpm>
          <SensorState>Absent</SensorState>
        </Trackpoint>
        <Trackpoint>
          <Time>2025-02-03T09:02:11Z</Time>
          <DistanceMeters>981.0</DistanceMeters>
          <HeartRateBpm>
            <Value>163</Value>
          </HeartRateBpm>
          <SensorState>Absent</SensorState>
        </Trackpoint>
        <Trackpoint>
          <Time>2025-02-03T09:02:37Z</Time>
          <DistanceMeters>981.0</DistanceMeters>
          <HeartRateBpm>
            <Value>170</Value>
          </HeartRateBpm>
          <SensorState>Absent</SensorState>
        </Trackpoint>
        <Trackpoint>
          <Time>2025-02-03T09:02:45Z</Time>
          <DistanceMeters>981.0</DistanceMeters>
          <HeartRateBpm>
            <Value>162</Value>
          </HeartRateBpm>
          <SensorState>Absent</SensorState>
        </Trackpoint>
        <Trackpoint>
          <Time>2025-02-03T09:02:49Z</Time>
          <DistanceMeters>981.0</DistanceMeters>
          <HeartRateBpm>
            <Value>155</Value>
          </HeartRateBpm>
          <SensorState>Absent</SensorState>
        </Trackpoint>
        <Trackpoint>
          <Time>2025-02-03T09:02:54Z</Time>
          <DistanceMeters>981.0</DistanceMeters>
          <HeartRateBpm>
            <Value>161</Value>
          </HeartRateBpm>
          <SensorState>Absent</SensorState>
        </Trackpoint>
        <Trackpoint>
          <Time>2025-02-03T09:02:57Z</Time>
          <DistanceMeters>981.0</DistanceMeters>
          <HeartRateBpm>
            <Value>167</Value>
          </HeartRateBpm>
          <SensorState>Absent</SensorState>
        </Trackpoint>
        <Trackpoint>
          <Time>2025-02-03T09:03:00Z</Time>
          <DistanceMeters>981.0</DistanceMeters>
          <HeartRateBpm>
            <Value>169</Value>
          </HeartRateBpm>
          <SensorState>Absent</SensorState>
        </Trackpoint>
        <Trackpoint>
          <Time>2025-02-03T09:03:12Z</Time>
          <DistanceMeters>981.0</DistanceMeters>
          <HeartRateBpm>
            <Value>173</Value>
          </HeartRateBpm>
          <SensorState>Absent</SensorState>
        </Trackpoint>
        <Trackpoint>
          <Time>2025-02-03T09:03:23Z</Time>
          <DistanceMeters>981.0</DistanceMeters>
          <HeartRateBpm>
            <Value>166</Value>
          </HeartRateBpm>
          <SensorState>Absent</SensorState>
        </Trackpoint>
        <Trackpoint>
          <Time>2025-02-03T09:03:37Z</Time>
          <DistanceMeters>981.0</DistanceMeters>
          <HeartRateBpm>
            <Value>172</Value>
          </HeartRateBpm>
          <SensorState>Absent</SensorState>
        </Trackpoint>
        <Trackpoint>
          <Time>2025-02-03T09:03:53Z</Time>
          <DistanceMeters>981.0</DistanceMeters>
          <HeartRateBpm>
            <Value>178</Value>
          </HeartRateBpm>
          <SensorState>Absent</SensorState>
        </Trackpoint>
        <Trackpoint>
          <Time>2025-02-03T09:04:00Z</Time>
          <DistanceMeters>981.0</DistanceMeters>
          <HeartRateBpm>
            <Value>170</Value>
          </HeartRateBpm>
          <SensorState>Absent</SensorState>
        </Trackpoint>
        <Trackpoint>
          <Time>2025-02-03T09:04:21Z</Time>
          <DistanceMeters>981.0</DistanceMeters>
          <HeartRateBpm>
            <Value>171</Value>
          </HeartRateBpm>
          <SensorState>Absent</SensorState>
        </Trackpoint>
        <Trackpoint>
          <Time>2025-02-03T09:04:45Z</Time>
          <DistanceMeters>981.0</DistanceMeters>
          <HeartRateBpm>
            <Value>165</Value>
          </HeartRateBpm>
          <SensorState>Absent</SensorState>
        </Trackpoint>
        <Trackpoint>
          <Time>2025-02-03T09:05:00Z</Time>
          <DistanceMeters>981.0</DistanceMeters>
          <HeartRateBpm>
            <Value>171</Value>
          </HeartRateBpm>
          <SensorState>Absent</SensorState>
        </Trackpoint>
        <Trackpoint>
          <Time>2025-02-03T09:05:01Z</Time>
          <DistanceMeters>981.0</DistanceMeters>
          <HeartRateBpm>
            <Value>158</Value>
          </HeartRateBpm>
          <SensorState>Absent</SensorState>
        </Trackpoint>
        <Trackpoint>
          <Time>2025-02-03T09:05:19Z</Time>
          <DistanceMeters>981.0</DistanceMeters>
          <HeartRateBpm>
            <Value>164</Value>
          </HeartRateBpm>
          <SensorState>Absent</SensorState>
        </Trackpoint>
        <Trackpoint>
          <Time>2025-02-03T09:05:27Z</Time>
          <DistanceMeters>981.0</DistanceMeters>
          <HeartRateBpm>
            <Value>170</Value>
          </HeartRateBpm>
          <SensorState>Absent</SensorState>
        </Trackpoint>
        <Trackpoint>
          <Time>2025-02-03T09:05:29Z</Time>
          <DistanceMeters>981.0</DistanceMeters>
          <HeartRateBpm>
            <Value>178</Value>
          </HeartRateBpm>
          <SensorState>Absent</SensorState>
        </Trackpoint>
        <Trackpoint>
          <Time>2025-02-03T09:05:37Z</Time>
          <DistanceMeters>981.0</DistanceMeters>
          <HeartRateBpm>
            <Value>184</Value>
          </HeartRateBpm>
          <SensorState>Absent</SensorState>
        </Trackpoint>
        <Trackpoint>
          <Time>2025-02-03T09:05:58Z</Time>
          <DistanceMeters>981.0</DistanceMeters>
          <HeartRateBpm>
            <Value>178</Value>
          </HeartRateBpm>
          <SensorState>Absent</SensorState>
        </Trackpoint>
        <Trackpoint>
          <Time>2025-02-03T09:06:00Z</Time>
          <DistanceMeters>981.0</DistanceMeters>
          <HeartRateBpm>
            <Value>173</Value>
          </HeartRateBpm>
          <SensorState>Absent</SensorState>
        </Trackpoint>
        <Trackpoint>
          <Time>2025-02-03T09:06:29Z</Time>
          <DistanceMeters>1076.0</DistanceMeters>
           <HeartRateBpm>
            <Value>173</Value>
           </HeartRateBpm>
          <SensorState>Absent</SensorState>
        </Trackpoint>
	  </Track>
      </Lap>
      </Activity>
  </Activities>

</TrainingCenterDatabase>