<?xml version="1.0" encoding="UTF-8" standalone="no" ?>
<TrainingCenterDatabase xmlns="http://www.garmin.com/xmlschemas/TrainingCenterDatabase/v2" xmlns:xsi="http://www.w3.org/2001/XMLSchema-instance" xsi:schemaLocation="http://www.garmin.com/xmlschemas/TrainingCenterDatabase/v2 http://www.garmin.com/xmlschemas/TrainingCenterDatabasev2.xsd">
  <Activities>
    <Activity Sport="Biking">
      <Id>2025-05-18T22:58:58Z</Id>
      <Notes>骑车</Notes>
      <Lap StartTime="2025-05-18T22:58:58Z">
        <TotalTimeSeconds>2772</TotalTimeSeconds>
        <DistanceMeters>15616</DistanceMeters>
        <Calories>255</Calories>
        <AverageHeartRateBpm>
          <Value>100</Value>
        </AverageHeartRateBpm>
        <MaximumHeartRateBpm>
          <Value>135</Value>
        </MaximumHeartRateBpm>
        <Intensity>Active</Intensity>
        <TriggerMethod>Manual</TriggerMethod>
	  <Track>
        <Trackpoint>
          <Time>2025-05-18T22:59:00Z</Time>
          <DistanceMeters>11.3</DistanceMeters>
          <HeartRateBpm>
            <Value>94</Value>
          </HeartRateBpm>
          <SensorState>Absent</SensorState>
        </Trackpoint>
        <Trackpoint>
          <Time>2025-05-18T22:59:13Z</Time>
          <DistanceMeters>88.0</DistanceMeters>
          <HeartRateBpm>
            <Value>92</Value>
          </HeartRateBpm>
          <SensorState>Absent</SensorState>
        </Trackpoint>
        <Trackpoint>
          <Time>2025-05-18T22:59:48Z</Time>
          <DistanceMeters>285.7</DistanceMeters>
          <HeartRateBpm>
            <Value>98</Value>
          </HeartRateBpm>
          <SensorState>Absent</SensorState>
        </Trackpoint>
        <Trackpoint>
          <Time>2025-05-18T23:00:00Z</Time>
          <DistanceMeters>349.3</DistanceMeters>
          <HeartRateBpm>
            <Value>110</Value>
          </HeartRateBpm>
          <SensorState>Absent</SensorState>
        </Trackpoint>
        <Trackpoint>
          <Time>2025-05-18T23:00:05Z</Time>
          <DistanceMeters>377.5</DistanceMeters>
          <HeartRateBpm>
            <Value>105</Value>
          </HeartRateBpm>
          <SensorState>Absent</SensorState>
        </Trackpoint>
        <Trackpoint>
          <Time>2025-05-18T23:00:10Z</Time>
          <DistanceMeters>410.2</DistanceMeters>
          <HeartRateBpm>
            <Value>111</Value>
          </HeartRateBpm>
          <SensorState>Absent</SensorState>
        </Trackpoint>
        <Trackpoint>
          <Time>2025-05-18T23:00:59Z</Time>
          <DistanceMeters>681.9</DistanceMeters>
          <HeartRateBpm>
            <Value>105</Value>
          </HeartRateBpm>
          <SensorState>Absent</SensorState>
        </Trackpoint>
        <Trackpoint>
          <Time>2025-05-18T23:01:00Z</Time>
          <DistanceMeters>687.3</DistanceMeters>
          <HeartRateBpm>
            <Value>86</Value>
          </HeartRateBpm>
          <SensorState>Absent</SensorState>
        </Trackpoint>
        <Trackpoint>
          <Time>2025-05-18T23:01:06Z</Time>
          <DistanceMeters>725.0</DistanceMeters>
          <HeartRateBpm>
            <Value>99</Value>
          </HeartRateBpm>
          <SensorState>Absent</SensorState>
        </Trackpoint>
        <Trackpoint>
          <Time>2025-05-18T23:01:19Z</Time>
          <DistanceMeters>794.7</DistanceMeters>
          <HeartRateBpm>
            <Value>93</Value>
          </HeartRateBpm>
          <SensorState>Absent</SensorState>
        </Trackpoint>
        <Trackpoint>
          <Time>2025-05-18T23:01:28Z</Time>
          <DistanceMeters>849.8</DistanceMeters>
          <HeartRateBpm>
            <Value>85</Value>
          </HeartRateBpm>
          <SensorState>Absent</SensorState>
        </Trackpoint>
        <Trackpoint>
          <Time>2025-05-18T23:01:36Z</Time>
          <DistanceMeters>893.9</DistanceMeters>
          <HeartRateBpm>
            <Value>79</Value>
          </HeartRateBpm>
          <SensorState>Absent</SensorState>
        </Trackpoint>
        <Trackpoint>
          <Time>2025-05-18T23:02:00Z</Time>
          <DistanceMeters>1025.3</DistanceMeters>
          <HeartRateBpm>
            <Value>94</Value>
          </HeartRateBpm>
          <SensorState>Absent</SensorState>
        </Trackpoint>
        <Trackpoint>
          <Time>2025-05-18T23:02:11Z</Time>
          <DistanceMeters>1091.6</DistanceMeters>
          <HeartRateBpm>
            <Value>86</Value>
          </HeartRateBpm>
          <SensorState>Absent</SensorState>
        </Trackpoint>
        <Trackpoint>
          <Time>2025-05-18T23:02:20Z</Time>
          <DistanceMeters>1138.7</DistanceMeters>
          <HeartRateBpm>
            <Value>93</Value>
          </HeartRateBpm>
          <SensorState>Absent</SensorState>
        </Trackpoint>
        <Trackpoint>
          <Time>2025-05-18T23:02:24Z</Time>
          <DistanceMeters>1164.6</DistanceMeters>
          <HeartRateBpm>
            <Value>99</Value>
          </HeartRateBpm>
          <SensorState>Absent</SensorState>
        </Trackpoint>
        <Trackpoint>
          <Time>2025-05-18T23:03:00Z</Time>
          <DistanceMeters>1363.3</DistanceMeters>
          <HeartRateBpm>
            <Value>95</Value>
          </HeartRateBpm>
          <SensorState>Absent</SensorState>
        </Trackpoint>
        <Trackpoint>
          <Time>2025-05-18T23:03:25Z</Time>
          <DistanceMeters>1508.6</DistanceMeters>
          <HeartRateBpm>
            <Value>95</Value>
          </HeartRateBpm>
          <SensorState>Absent</SensorState>
        </Trackpoint>
        <Trackpoint>
          <Time>2025-05-18T23:03:49Z</Time>
          <DistanceMeters>1644.0</DistanceMeters>
          <HeartRateBpm>
            <Value>89</Value>
          </HeartRateBpm>
          <SensorState>Absent</SensorState>
        </Trackpoint>
        <Trackpoint>
          <Time>2025-05-18T23:04:00Z</Time>
          <DistanceMeters>1701.3</DistanceMeters>
          <HeartRateBpm>
            <Value>81</Value>
          </HeartRateBpm>
          <SensorState>Absent</SensorState>
        </Trackpoint>
        <Trackpoint>
          <Time>2025-05-18T23:04:12Z</Time>
          <DistanceMeters>1773.3</DistanceMeters>
          <HeartRateBpm>
            <Value>83</Value>
          </HeartRateBpm>
          <SensorState>Absent</SensorState>
        </Trackpoint>
        <Trackpoint>
          <Time>2025-05-18T23:04:52Z</Time>
          <DistanceMeters>1999.4</DistanceMeters>
          <HeartRateBpm>
            <Value>77</Value>
          </HeartRateBpm>
          <SensorState>Absent</SensorState>
        </Trackpoint>
        <Trackpoint>
          <Time>2025-05-18T23:05:00Z</Time>
          <DistanceMeters>2039.3</DistanceMeters>
          <HeartRateBpm>
            <Value>75</Value>
          </HeartRateBpm>
          <Cadence><Value>70</Value></Cadence>
          <SensorState>Absent</SensorState>
        </Trackpoint>
        <Trackpoint>
          <Time>2025-05-18T23:05:53Z</Time>
          <DistanceMeters>2341.6</DistanceMeters>
          <HeartRateBpm>
            <Value>75</Value>
          </HeartRateBpm>
          <Cadence><Value>70</Value></Cadence>
          <SensorState>Absent</SensorState>
        </Trackpoint>
        <Trackpoint>
          <Time>2025-05-18T23:06:00Z</Time>
          <DistanceMeters>2377.3</DistanceMeters>
          <HeartRateBpm>
            <Value>97</Value>
          </HeartRateBpm>
          <SensorState>Absent</SensorState>
        </Trackpoint>
        <Trackpoint>
          <Time>2025-05-18T23:06:03Z</Time>
          <DistanceMeters>2397.9</DistanceMeters>
          <HeartRateBpm>
            <Value>82</Value>
          </HeartRateBpm>
          <SensorState>Absent</SensorState>
        </Trackpoint>
        <Trackpoint>
          <Time>2025-05-18T23:06:10Z</Time>
          <DistanceMeters>2439.2</DistanceMeters>
          <HeartRateBpm>
            <Value>88</Value>
          </HeartRateBpm>
          <SensorState>Absent</SensorState>
        </Trackpoint>
        <Trackpoint>
          <Time>2025-05-18T23:06:26Z</Time>
          <DistanceMeters>2528.5</DistanceMeters>
          <HeartRateBpm>
            <Value>96</Value>
          </HeartRateBpm>
          <SensorState>Absent</SensorState>
        </Trackpoint>
        <Trackpoint>
          <Time>2025-05-18T23:06:31Z</Time>
          <DistanceMeters>2555.6</DistanceMeters>
          <HeartRateBpm>
            <Value>103</Value>
          </HeartRateBpm>
          <SensorState>Absent</SensorState>
        </Trackpoint>
        <Trackpoint>
          <Time>2025-05-18T23:06:36Z</Time>
          <DistanceMeters>2585.6</DistanceMeters>
          <HeartRateBpm>
            <Value>109</Value>
          </HeartRateBpm>
          <SensorState>Absent</SensorState>
        </Trackpoint>
        <Trackpoint>
          <Time>2025-05-18T23:07:00Z</Time>
          <DistanceMeters>2715.3</DistanceMeters>
          <HeartRateBpm>
            <Value>101</Value>
          </HeartRateBpm>
          <SensorState>Absent</SensorState>
        </Trackpoint>
        <Trackpoint>
          <Time>2025-05-18T23:07:09Z</Time>
          <DistanceMeters>2770.8</DistanceMeters>
          <HeartRateBpm>
            <Value>102</Value>
          </HeartRateBpm>
          <SensorState>Absent</SensorState>
        </Trackpoint>
        <Trackpoint>
          <Time>2025-05-18T23:08:00Z</Time>
          <DistanceMeters>3053.3</DistanceMeters>
          <HeartRateBpm>
            <Value>104</Value>
          </HeartRateBpm>
          <SensorState>Absent</SensorState>
        </Trackpoint>
        <Trackpoint>
          <Time>2025-05-18T23:08:10Z</Time>
          <DistanceMeters>3114.6</DistanceMeters>
          <HeartRateBpm>
            <Value>104</Value>
          </HeartRateBpm>
          <SensorState>Absent</SensorState>
        </Trackpoint>
        <Trackpoint>
          <Time>2025-05-18T23:08:59Z</Time>
          <DistanceMeters>3386.1</DistanceMeters>
          <HeartRateBpm>
            <Value>111</Value>
          </HeartRateBpm>
          <SensorState>Absent</SensorState>
        </Trackpoint>
        <Trackpoint>
          <Time>2025-05-18T23:09:00Z</Time>
          <DistanceMeters>3391.4</DistanceMeters>
          <HeartRateBpm>
            <Value>90</Value>
          </HeartRateBpm>
          <SensorState>Absent</SensorState>
        </Trackpoint>
        <Trackpoint>
          <Time>2025-05-18T23:09:11Z</Time>
          <DistanceMeters>3457.1</DistanceMeters>
          <HeartRateBpm>
            <Value>105</Value>
          </HeartRateBpm>
          <SensorState>Absent</SensorState>
        </Trackpoint>
        <Trackpoint>
          <Time>2025-05-18T23:09:17Z</Time>
          <DistanceMeters>3491.6</DistanceMeters>
          <HeartRateBpm>
            <Value>99</Value>
          </HeartRateBpm>
          <SensorState>Absent</SensorState>
        </Trackpoint>
        <Trackpoint>
          <Time>2025-05-18T23:09:20Z</Time>
          <DistanceMeters>3508.8</DistanceMeters>
          <HeartRateBpm>
            <Value>93</Value>
          </HeartRateBpm>
          <SensorState>Absent</SensorState>
        </Trackpoint>
        <Trackpoint>
          <Time>2025-05-18T23:09:28Z</Time>
          <DistanceMeters>3554.4</DistanceMeters>
          <HeartRateBpm>
            <Value>86</Value>
          </HeartRateBpm>
          <SensorState>Absent</SensorState>
        </Trackpoint>
        <Trackpoint>
          <Time>2025-05-18T23:09:41Z</Time>
          <DistanceMeters>3626.4</DistanceMeters>
          <HeartRateBpm>
            <Value>80</Value>
          </HeartRateBpm>
          <SensorState>Absent</SensorState>
        </Trackpoint>
        <Trackpoint>
          <Time>2025-05-18T23:10:00Z</Time>
          <DistanceMeters>3729.4</DistanceMeters>
          <HeartRateBpm>
            <Value>75</Value>
          </HeartRateBpm>
          <SensorState>Absent</SensorState>
        </Trackpoint>
        <Trackpoint>
          <Time>2025-05-18T23:10:42Z</Time>
          <DistanceMeters>3970.9</DistanceMeters>
          <HeartRateBpm>
            <Value>76</Value>
          </HeartRateBpm>
          <SensorState>Absent</SensorState>
        </Trackpoint>
        <Trackpoint>
          <Time>2025-05-18T23:10:57Z</Time>
          <DistanceMeters>4054.6</DistanceMeters>
          <HeartRateBpm>
            <Value>70</Value>
          </HeartRateBpm>
          <SensorState>Absent</SensorState>
        </Trackpoint>
        <Trackpoint>
          <Time>2025-05-18T23:11:00Z</Time>
          <DistanceMeters>4067.4</DistanceMeters>
          <HeartRateBpm>
            <Value>72</Value>
          </HeartRateBpm>
          <SensorState>Absent</SensorState>
        </Trackpoint>
        <Trackpoint>
          <Time>2025-05-18T23:11:44Z</Time>
          <DistanceMeters>4320.5</DistanceMeters>
          <HeartRateBpm>
            <Value>76</Value>
          </HeartRateBpm>
          <SensorState>Absent</SensorState>
        </Trackpoint>
        <Trackpoint>
          <Time>2025-05-18T23:11:59Z</Time>
          <DistanceMeters>4403.7</DistanceMeters>
          <HeartRateBpm>
            <Value>82</Value>
          </HeartRateBpm>
          <SensorState>Absent</SensorState>
        </Trackpoint>
        <Trackpoint>
          <Time>2025-05-18T23:12:00Z</Time>
          <DistanceMeters>4405.4</DistanceMeters>
          <HeartRateBpm>
            <Value>84</Value>
          </HeartRateBpm>
          <SensorState>Absent</SensorState>
        </Trackpoint>
        <Trackpoint>
          <Time>2025-05-18T23:12:53Z</Time>
          <DistanceMeters>4707.9</DistanceMeters>
          <HeartRateBpm>
            <Value>88</Value>
          </HeartRateBpm>
          <SensorState>Absent</SensorState>
        </Trackpoint>
        <Trackpoint>
          <Time>2025-05-18T23:13:00Z</Time>
          <DistanceMeters>4743.4</DistanceMeters>
          <HeartRateBpm>
            <Value>112</Value>
          </HeartRateBpm>
          <Cadence><Value>108</Value></Cadence>
          <SensorState>Absent</SensorState>
        </Trackpoint>
        <Trackpoint>
          <Time>2025-05-18T23:13:06Z</Time>
          <DistanceMeters>4782.4</DistanceMeters>
          <HeartRateBpm>
            <Value>97</Value>
          </HeartRateBpm>
          <Cadence><Value>108</Value></Cadence>
          <SensorState>Absent</SensorState>
        </Trackpoint>
        <Trackpoint>
          <Time>2025-05-18T23:13:10Z</Time>
          <DistanceMeters>4804.5</DistanceMeters>
          <HeartRateBpm>
            <Value>106</Value>
          </HeartRateBpm>
          <Cadence><Value>108</Value></Cadence>
          <SensorState>Absent</SensorState>
        </Trackpoint>
        <Trackpoint>
          <Time>2025-05-18T23:13:30Z</Time>
          <DistanceMeters>4917.3</DistanceMeters>
          <HeartRateBpm>
            <Value>112</Value>
          </HeartRateBpm>
          <Cadence><Value>108</Value></Cadence>
          <SensorState>Absent</SensorState>
        </Trackpoint>
        <Trackpoint>
          <Time>2025-05-18T23:13:36Z</Time>
          <DistanceMeters>4951.0</DistanceMeters>
          <HeartRateBpm>
            <Value>118</Value>
          </HeartRateBpm>
          <Cadence><Value>108</Value></Cadence>
          <SensorState>Absent</SensorState>
        </Trackpoint>
        <Trackpoint>
          <Time>2025-05-18T23:13:45Z</Time>
          <DistanceMeters>5000.4</DistanceMeters>
          <HeartRateBpm>
            <Value>124</Value>
          </HeartRateBpm>
          <Cadence><Value>108</Value></Cadence>
          <SensorState>Absent</SensorState>
        </Trackpoint>
        <Trackpoint>
          <Time>2025-05-18T23:13:59Z</Time>
          <DistanceMeters>5079.5</DistanceMeters>
          <HeartRateBpm>
            <Value>130</Value>
          </HeartRateBpm>
          <Cadence><Value>108</Value></Cadence>
          <SensorState>Absent</SensorState>
        </Trackpoint>
        <Trackpoint>
          <Time>2025-05-18T23:14:00Z</Time>
          <DistanceMeters>5081.4</DistanceMeters>
          <HeartRateBpm>
            <Value>126</Value>
          </HeartRateBpm>
          <SensorState>Absent</SensorState>
        </Trackpoint>
        <Trackpoint>
          <Time>2025-05-18T23:14:37Z</Time>
          <DistanceMeters>5294.0</DistanceMeters>
          <HeartRateBpm>
            <Value>124</Value>
          </HeartRateBpm>
          <SensorState>Absent</SensorState>
        </Trackpoint>
        <Trackpoint>
          <Time>2025-05-18T23:15:00Z</Time>
          <DistanceMeters>5419.4</DistanceMeters>
          <HeartRateBpm>
            <Value>127</Value>
          </HeartRateBpm>
          <SensorState>Absent</SensorState>
        </Trackpoint>
        <Trackpoint>
          <Time>2025-05-18T23:15:35Z</Time>
          <DistanceMeters>5620.2</DistanceMeters>
          <HeartRateBpm>
            <Value>130</Value>
          </HeartRateBpm>
          <SensorState>Absent</SensorState>
        </Trackpoint>
        <Trackpoint>
          <Time>2025-05-18T23:16:00Z</Time>
          <DistanceMeters>5757.4</DistanceMeters>
          <HeartRateBpm>
            <Value>114</Value>
          </HeartRateBpm>
          <SensorState>Absent</SensorState>
        </Trackpoint>
        <Trackpoint>
          <Time>2025-05-18T23:16:04Z</Time>
          <DistanceMeters>5784.8</DistanceMeters>
          <HeartRateBpm>
            <Value>124</Value>
          </HeartRateBpm>
          <SensorState>Absent</SensorState>
        </Trackpoint>
        <Trackpoint>
          <Time>2025-05-18T23:16:17Z</Time>
          <DistanceMeters>5857.3</DistanceMeters>
          <HeartRateBpm>
            <Value>117</Value>
          </HeartRateBpm>
          <SensorState>Absent</SensorState>
        </Trackpoint>
        <Trackpoint>
          <Time>2025-05-18T23:16:36Z</Time>
          <DistanceMeters>5965.5</DistanceMeters>
          <HeartRateBpm>
            <Value>111</Value>
          </HeartRateBpm>
          <SensorState>Absent</SensorState>
        </Trackpoint>
        <Trackpoint>
          <Time>2025-05-18T23:17:00Z</Time>
          <DistanceMeters>6095.4</DistanceMeters>
          <HeartRateBpm>
            <Value>109</Value>
          </HeartRateBpm>
          <SensorState>Absent</SensorState>
        </Trackpoint>
        <Trackpoint>
          <Time>2025-05-18T23:17:38Z</Time>
          <DistanceMeters>6314.4</DistanceMeters>
          <HeartRateBpm>
            <Value>107</Value>
          </HeartRateBpm>
          <SensorState>Absent</SensorState>
        </Trackpoint>
        <Trackpoint>
          <Time>2025-05-18T23:18:00Z</Time>
          <DistanceMeters>6433.4</DistanceMeters>
          <HeartRateBpm>
            <Value>115</Value>
          </HeartRateBpm>
          <SensorState>Absent</SensorState>
        </Trackpoint>
        <Trackpoint>
          <Time>2025-05-18T23:18:02Z</Time>
          <DistanceMeters>6450.2</DistanceMeters>
          <HeartRateBpm>
            <Value>113</Value>
          </HeartRateBpm>
          <SensorState>Absent</SensorState>
        </Trackpoint>
        <Trackpoint>
          <Time>2025-05-18T23:18:27Z</Time>
          <DistanceMeters>6585.6</DistanceMeters>
          <HeartRateBpm>
            <Value>119</Value>
          </HeartRateBpm>
          <SensorState>Absent</SensorState>
        </Trackpoint>
        <Trackpoint>
          <Time>2025-05-18T23:18:45Z</Time>
          <DistanceMeters>6691.1</DistanceMeters>
          <HeartRateBpm>
            <Value>113</Value>
          </HeartRateBpm>
          <SensorState>Absent</SensorState>
        </Trackpoint>
        <Trackpoint>
          <Time>2025-05-18T23:19:00Z</Time>
          <DistanceMeters>6771.4</DistanceMeters>
          <HeartRateBpm>
            <Value>108</Value>
          </HeartRateBpm>
          <Cadence><Value>54</Value></Cadence>
          <SensorState>Absent</SensorState>
        </Trackpoint>
        <Trackpoint>
          <Time>2025-05-18T23:19:27Z</Time>
          <DistanceMeters>6924.0</DistanceMeters>
          <HeartRateBpm>
            <Value>107</Value>
          </HeartRateBpm>
          <Cadence><Value>54</Value></Cadence>
          <SensorState>Absent</SensorState>
        </Trackpoint>
        <Trackpoint>
          <Time>2025-05-18T23:19:56Z</Time>
          <DistanceMeters>7091.9</DistanceMeters>
          <HeartRateBpm>
            <Value>114</Value>
          </HeartRateBpm>
          <Cadence><Value>54</Value></Cadence>
          <SensorState>Absent</SensorState>
        </Trackpoint>
        <Trackpoint>
          <Time>2025-05-18T23:20:00Z</Time>
          <DistanceMeters>7109.4</DistanceMeters>
          <HeartRateBpm>
            <Value>121</Value>
          </HeartRateBpm>
          <SensorState>Absent</SensorState>
        </Trackpoint>
        <Trackpoint>
          <Time>2025-05-18T23:20:05Z</Time>
          <DistanceMeters>7141.8</DistanceMeters>
          <HeartRateBpm>
            <Value>120</Value>
          </HeartRateBpm>
          <SensorState>Absent</SensorState>
        </Trackpoint>
        <Trackpoint>
          <Time>2025-05-18T23:21:00Z</Time>
          <DistanceMeters>7447.5</DistanceMeters>
          <HeartRateBpm>
            <Value>120</Value>
          </HeartRateBpm>
          <SensorState>Absent</SensorState>
        </Trackpoint>
        <Trackpoint>
          <Time>2025-05-18T23:21:06Z</Time>
          <DistanceMeters>7486.6</DistanceMeters>
          <HeartRateBpm>
            <Value>121</Value>
          </HeartRateBpm>
          <SensorState>Absent</SensorState>
        </Trackpoint>
        <Trackpoint>
          <Time>2025-05-18T23:22:00Z</Time>
          <DistanceMeters>7785.5</DistanceMeters>
          <HeartRateBpm>
            <Value>127</Value>
          </HeartRateBpm>
          <SensorState>Absent</SensorState>
        </Trackpoint>
        <Trackpoint>
          <Time>2025-05-18T23:22:07Z</Time>
          <DistanceMeters>7828.8</DistanceMeters>
          <HeartRateBpm>
            <Value>127</Value>
          </HeartRateBpm>
          <SensorState>Absent</SensorState>
        </Trackpoint>
        <Trackpoint>
          <Time>2025-05-18T23:23:00Z</Time>
          <DistanceMeters>8123.5</DistanceMeters>
          <HeartRateBpm>
            <Value>127</Value>
          </HeartRateBpm>
          <Cadence><Value>45</Value></Cadence>
          <SensorState>Absent</SensorState>
        </Trackpoint>
        <Trackpoint>
          <Time>2025-05-18T23:23:08Z</Time>
          <DistanceMeters>8173.6</DistanceMeters>
          <HeartRateBpm>
            <Value>128</Value>
          </HeartRateBpm>
          <Cadence><Value>45</Value></Cadence>
          <SensorState>Absent</SensorState>
        </Trackpoint>
        <Trackpoint>
          <Time>2025-05-18T23:23:34Z</Time>
          <DistanceMeters>8319.8</DistanceMeters>
          <HeartRateBpm>
            <Value>134</Value>
          </HeartRateBpm>
          <Cadence><Value>45</Value></Cadence>
          <SensorState>Absent</SensorState>
        </Trackpoint>
        <Trackpoint>
          <Time>2025-05-18T23:23:45Z</Time>
          <DistanceMeters>8380.7</DistanceMeters>
          <HeartRateBpm>
            <Value>128</Value>
          </HeartRateBpm>
          <Cadence><Value>45</Value></Cadence>
          <SensorState>Absent</SensorState>
        </Trackpoint>
        <Trackpoint>
          <Time>2025-05-18T23:23:51Z</Time>
          <DistanceMeters>8410.8</DistanceMeters>
          <HeartRateBpm>
            <Value>122</Value>
          </HeartRateBpm>
          <Cadence><Value>45</Value></Cadence>
          <SensorState>Absent</SensorState>
        </Trackpoint>
        <Trackpoint>
          <Time>2025-05-18T23:24:00Z</Time>
          <DistanceMeters>8461.5</DistanceMeters>
          <HeartRateBpm>
            <Value>110</Value>
          </HeartRateBpm>
          <SensorState>Absent</SensorState>
        </Trackpoint>
        <Trackpoint>
          <Time>2025-05-18T23:24:05Z</Time>
          <DistanceMeters>8493.5</DistanceMeters>
          <HeartRateBpm>
            <Value>116</Value>
          </HeartRateBpm>
          <SensorState>Absent</SensorState>
        </Trackpoint>
        <Trackpoint>
          <Time>2025-05-18T23:24:36Z</Time>
          <DistanceMeters>8669.2</DistanceMeters>
          <HeartRateBpm>
            <Value>110</Value>
          </HeartRateBpm>
          <SensorState>Absent</SensorState>
        </Trackpoint>
        <Trackpoint>
          <Time>2025-05-18T23:24:41Z</Time>
          <DistanceMeters>8692.5</DistanceMeters>
          <HeartRateBpm>
            <Value>103</Value>
          </HeartRateBpm>
          <SensorState>Absent</SensorState>
        </Trackpoint>
        <Trackpoint>
          <Time>2025-05-18T23:24:54Z</Time>
          <DistanceMeters>8770.8</DistanceMeters>
          <HeartRateBpm>
            <Value>109</Value>
          </HeartRateBpm>
          <SensorState>Absent</SensorState>
        </Trackpoint>
        <Trackpoint>
          <Time>2025-05-18T23:25:00Z</Time>
          <DistanceMeters>8799.5</DistanceMeters>
          <HeartRateBpm>
            <Value>85</Value>
          </HeartRateBpm>
          <SensorState>Absent</SensorState>
        </Trackpoint>
        <Trackpoint>
          <Time>2025-05-18T23:25:01Z</Time>
          <DistanceMeters>8808.8</DistanceMeters>
          <HeartRateBpm>
            <Value>103</Value>
          </HeartRateBpm>
          <SensorState>Absent</SensorState>
        </Trackpoint>
        <Trackpoint>
          <Time>2025-05-18T23:25:10Z</Time>
          <DistanceMeters>8860.8</DistanceMeters>
          <HeartRateBpm>
            <Value>96</Value>
          </HeartRateBpm>
          <SensorState>Absent</SensorState>
        </Trackpoint>
        <Trackpoint>
          <Time>2025-05-18T23:25:18Z</Time>
          <DistanceMeters>8905.7</DistanceMeters>
          <HeartRateBpm>
            <Value>90</Value>
          </HeartRateBpm>
          <SensorState>Absent</SensorState>
        </Trackpoint>
        <Trackpoint>
          <Time>2025-05-18T23:25:19Z</Time>
          <DistanceMeters>8910.5</DistanceMeters>
          <HeartRateBpm>
            <Value>84</Value>
          </HeartRateBpm>
          <SensorState>Absent</SensorState>
        </Trackpoint>
        <Trackpoint>
          <Time>2025-05-18T23:25:36Z</Time>
          <DistanceMeters>9007.1</DistanceMeters>
          <HeartRateBpm>
            <Value>78</Value>
          </HeartRateBpm>
          <SensorState>Absent</SensorState>
        </Trackpoint>
        <Trackpoint>
          <Time>2025-05-18T23:26:00Z</Time>
          <DistanceMeters>9137.5</DistanceMeters>
          <HeartRateBpm>
            <Value>82</Value>
          </HeartRateBpm>
          <SensorState>Absent</SensorState>
        </Trackpoint>
        <Trackpoint>
          <Time>2025-05-18T23:26:19Z</Time>
          <DistanceMeters>9248.4</DistanceMeters>
          <HeartRateBpm>
            <Value>84</Value>
          </HeartRateBpm>
          <SensorState>Absent</SensorState>
        </Trackpoint>
        <Trackpoint>
          <Time>2025-05-18T23:27:00Z</Time>
          <DistanceMeters>9475.5</DistanceMeters>
          <HeartRateBpm>
            <Value>87</Value>
          </HeartRateBpm>
          <SensorState>Absent</SensorState>
        </Trackpoint>
        <Trackpoint>
          <Time>2025-05-18T23:27:10Z</Time>
          <DistanceMeters>9537.2</DistanceMeters>
          <HeartRateBpm>
            <Value>90</Value>
          </HeartRateBpm>
          <SensorState>Absent</SensorState>
        </Trackpoint>
        <Trackpoint>
          <Time>2025-05-18T23:27:16Z</Time>
          <DistanceMeters>9570.4</DistanceMeters>
          <HeartRateBpm>
            <Value>84</Value>
          </HeartRateBpm>
          <SensorState>Absent</SensorState>
        </Trackpoint>
        <Trackpoint>
          <Time>2025-05-18T23:27:50Z</Time>
          <DistanceMeters>9762.3</DistanceMeters>
          <HeartRateBpm>
            <Value>90</Value>
          </HeartRateBpm>
          <SensorState>Absent</SensorState>
        </Trackpoint>
        <Trackpoint>
          <Time>2025-05-18T23:27:56Z</Time>
          <DistanceMeters>9795.8</DistanceMeters>
          <HeartRateBpm>
            <Value>96</Value>
          </HeartRateBpm>
          <SensorState>Absent</SensorState>
        </Trackpoint>
        <Trackpoint>
          <Time>2025-05-18T23:28:00Z</Time>
          <DistanceMeters>9813.5</DistanceMeters>
          <HeartRateBpm>
            <Value>100</Value>
          </HeartRateBpm>
          <SensorState>Absent</SensorState>
        </Trackpoint>
        <Trackpoint>
          <Time>2025-05-18T23:28:03Z</Time>
          <DistanceMeters>9834.0</DistanceMeters>
          <HeartRateBpm>
            <Value>102</Value>
          </HeartRateBpm>
          <SensorState>Absent</SensorState>
        </Trackpoint>
        <Trackpoint>
          <Time>2025-05-18T23:28:54Z</Time>
          <DistanceMeters>10123.0</DistanceMeters>
          <HeartRateBpm>
            <Value>96</Value>
          </HeartRateBpm>
          <SensorState>Absent</SensorState>
        </Trackpoint>
        <Trackpoint>
          <Time>2025-05-18T23:29:00Z</Time>
          <DistanceMeters>10151.5</DistanceMeters>
          <HeartRateBpm>
            <Value>105</Value>
          </HeartRateBpm>
          <SensorState>Absent</SensorState>
        </Trackpoint>
        <Trackpoint>
          <Time>2025-05-18T23:29:10Z</Time>
          <DistanceMeters>10212.5</DistanceMeters>
          <HeartRateBpm>
            <Value>102</Value>
          </HeartRateBpm>
          <SensorState>Absent</SensorState>
        </Trackpoint>
        <Trackpoint>
          <Time>2025-05-18T23:29:12Z</Time>
          <DistanceMeters>10224.4</DistanceMeters>
          <HeartRateBpm>
            <Value>109</Value>
          </HeartRateBpm>
          <SensorState>Absent</SensorState>
        </Trackpoint>
        <Trackpoint>
          <Time>2025-05-18T23:30:00Z</Time>
          <DistanceMeters>10489.5</DistanceMeters>
          <HeartRateBpm>
            <Value>102</Value>
          </HeartRateBpm>
          <SensorState>Absent</SensorState>
        </Trackpoint>
        <Trackpoint>
          <Time>2025-05-18T23:30:14Z</Time>
          <DistanceMeters>10573.2</DistanceMeters>
          <HeartRateBpm>
            <Value>108</Value>
          </HeartRateBpm>
          <SensorState>Absent</SensorState>
        </Trackpoint>
        <Trackpoint>
          <Time>2025-05-18T23:30:34Z</Time>
          <DistanceMeters>10685.8</DistanceMeters>
          <HeartRateBpm>
            <Value>101</Value>
          </HeartRateBpm>
          <SensorState>Absent</SensorState>
        </Trackpoint>
        <Trackpoint>
          <Time>2025-05-18T23:30:40Z</Time>
          <DistanceMeters>10719.8</DistanceMeters>
          <HeartRateBpm>
            <Value>95</Value>
          </HeartRateBpm>
          <SensorState>Absent</SensorState>
        </Trackpoint>
        <Trackpoint>
          <Time>2025-05-18T23:31:00Z</Time>
          <DistanceMeters>10827.5</DistanceMeters>
          <HeartRateBpm>
            <Value>89</Value>
          </HeartRateBpm>
          <SensorState>Absent</SensorState>
        </Trackpoint>
        <Trackpoint>
          <Time>2025-05-18T23:31:09Z</Time>
          <DistanceMeters>10882.0</DistanceMeters>
          <HeartRateBpm>
            <Value>89</Value>
          </HeartRateBpm>
          <SensorState>Absent</SensorState>
        </Trackpoint>
        <Trackpoint>
          <Time>2025-05-18T23:32:00Z</Time>
          <DistanceMeters>11165.6</DistanceMeters>
          <HeartRateBpm>
            <Value>88</Value>
          </HeartRateBpm>
          <SensorState>Absent</SensorState>
        </Trackpoint>
        <Trackpoint>
          <Time>2025-05-18T23:32:10Z</Time>
          <DistanceMeters>11227.0</DistanceMeters>
          <HeartRateBpm>
            <Value>94</Value>
          </HeartRateBpm>
          <SensorState>Absent</SensorState>
        </Trackpoint>
        <Trackpoint>
          <Time>2025-05-18T23:32:36Z</Time>
          <DistanceMeters>11373.3</DistanceMeters>
          <HeartRateBpm>
            <Value>87</Value>
          </HeartRateBpm>
          <SensorState>Absent</SensorState>
        </Trackpoint>
        <Trackpoint>
          <Time>2025-05-18T23:32:49Z</Time>
          <DistanceMeters>11445.6</DistanceMeters>
          <HeartRateBpm>
            <Value>81</Value>
          </HeartRateBpm>
          <SensorState>Absent</SensorState>
        </Trackpoint>
        <Trackpoint>
          <Time>2025-05-18T23:33:00Z</Time>
          <DistanceMeters>11503.6</DistanceMeters>
          <HeartRateBpm>
            <Value>81</Value>
          </HeartRateBpm>
          <SensorState>Absent</SensorState>
        </Trackpoint>
        <Trackpoint>
          <Time>2025-05-18T23:33:50Z</Time>
          <DistanceMeters>11790.1</DistanceMeters>
          <HeartRateBpm>
            <Value>80</Value>
          </HeartRateBpm>
          <SensorState>Absent</SensorState>
        </Trackpoint>
        <Trackpoint>
          <Time>2025-05-18T23:34:00Z</Time>
          <DistanceMeters>11841.6</DistanceMeters>
          <HeartRateBpm>
            <Value>86</Value>
          </HeartRateBpm>
          <SensorState>Absent</SensorState>
        </Trackpoint>
        <Trackpoint>
          <Time>2025-05-18T23:34:17Z</Time>
          <DistanceMeters>11941.2</DistanceMeters>
          <HeartRateBpm>
            <Value>86</Value>
          </HeartRateBpm>
          <SensorState>Absent</SensorState>
        </Trackpoint>
        <Trackpoint>
          <Time>2025-05-18T23:34:42Z</Time>
          <DistanceMeters>12082.9</DistanceMeters>
          <HeartRateBpm>
            <Value>92</Value>
          </HeartRateBpm>
          <SensorState>Absent</SensorState>
        </Trackpoint>
        <Trackpoint>
          <Time>2025-05-18T23:35:00Z</Time>
          <DistanceMeters>12179.6</DistanceMeters>
          <HeartRateBpm>
            <Value>91</Value>
          </HeartRateBpm>
          <SensorState>Absent</SensorState>
        </Trackpoint>
        <Trackpoint>
          <Time>2025-05-18T23:35:43Z</Time>
          <DistanceMeters>12425.6</DistanceMeters>
          <HeartRateBpm>
            <Value>95</Value>
          </HeartRateBpm>
          <SensorState>Absent</SensorState>
        </Trackpoint>
        <Trackpoint>
          <Time>2025-05-18T23:35:49Z</Time>
          <DistanceMeters>12456.3</DistanceMeters>
          <HeartRateBpm>
            <Value>89</Value>
          </HeartRateBpm>
          <SensorState>Absent</SensorState>
        </Trackpoint>
        <Trackpoint>
          <Time>2025-05-18T23:36:00Z</Time>
          <DistanceMeters>12517.6</DistanceMeters>
          <HeartRateBpm>
            <Value>87</Value>
          </HeartRateBpm>
          <SensorState>Absent</SensorState>
        </Trackpoint>
        <Trackpoint>
          <Time>2025-05-18T23:36:01Z</Time>
          <DistanceMeters>12527.3</DistanceMeters>
          <HeartRateBpm>
            <Value>97</Value>
          </HeartRateBpm>
          <SensorState>Absent</SensorState>
        </Trackpoint>
        <Trackpoint>
          <Time>2025-05-18T23:36:25Z</Time>
          <DistanceMeters>12662.1</DistanceMeters>
          <HeartRateBpm>
            <Value>91</Value>
          </HeartRateBpm>
          <SensorState>Absent</SensorState>
        </Trackpoint>
        <Trackpoint>
          <Time>2025-05-18T23:36:27Z</Time>
          <DistanceMeters>12670.0</DistanceMeters>
          <HeartRateBpm>
            <Value>85</Value>
          </HeartRateBpm>
          <SensorState>Absent</SensorState>
        </Trackpoint>
        <Trackpoint>
          <Time>2025-05-18T23:36:48Z</Time>
          <DistanceMeters>12793.0</DistanceMeters>
          <HeartRateBpm>
            <Value>79</Value>
          </HeartRateBpm>
          <SensorState>Absent</SensorState>
        </Trackpoint>
        <Trackpoint>
          <Time>2025-05-18T23:37:00Z</Time>
          <DistanceMeters>12855.6</DistanceMeters>
          <HeartRateBpm>
            <Value>82</Value>
          </HeartRateBpm>
          <SensorState>Absent</SensorState>
        </Trackpoint>
        <Trackpoint>
          <Time>2025-05-18T23:37:09Z</Time>
          <DistanceMeters>12910.1</DistanceMeters>
          <HeartRateBpm>
            <Value>85</Value>
          </HeartRateBpm>
          <SensorState>Absent</SensorState>
        </Trackpoint>
        <Trackpoint>
          <Time>2025-05-18T23:37:53Z</Time>
          <DistanceMeters>13157.7</DistanceMeters>
          <HeartRateBpm>
            <Value>79</Value>
          </HeartRateBpm>
          <SensorState>Absent</SensorState>
        </Trackpoint>
        <Trackpoint>
          <Time>2025-05-18T23:38:00Z</Time>
          <DistanceMeters>13193.6</DistanceMeters>
          <HeartRateBpm>
            <Value>78</Value>
          </HeartRateBpm>
          <Cadence><Value>54</Value></Cadence>
          <SensorState>Absent</SensorState>
        </Trackpoint>
        <Trackpoint>
          <Time>2025-05-18T23:38:15Z</Time>
          <DistanceMeters>13281.7</DistanceMeters>
          <HeartRateBpm>
            <Value>85</Value>
          </HeartRateBpm>
          <Cadence><Value>54</Value></Cadence>
          <SensorState>Absent</SensorState>
        </Trackpoint>
        <Trackpoint>
          <Time>2025-05-18T23:38:28Z</Time>
          <DistanceMeters>13356.3</DistanceMeters>
          <HeartRateBpm>
            <Value>79</Value>
          </HeartRateBpm>
          <Cadence><Value>54</Value></Cadence>
          <SensorState>Absent</SensorState>
        </Trackpoint>
        <Trackpoint>
          <Time>2025-05-18T23:38:50Z</Time>
          <DistanceMeters>13480.2</DistanceMeters>
          <HeartRateBpm>
            <Value>73</Value>
          </HeartRateBpm>
          <Cadence><Value>54</Value></Cadence>
          <SensorState>Absent</SensorState>
        </Trackpoint>
        <Trackpoint>
          <Time>2025-05-18T23:39:00Z</Time>
          <DistanceMeters>13531.6</DistanceMeters>
          <HeartRateBpm>
            <Value>82</Value>
          </HeartRateBpm>
          <SensorState>Absent</SensorState>
        </Trackpoint>
        <Trackpoint>
          <Time>2025-05-18T23:39:20Z</Time>
          <DistanceMeters>13649.1</DistanceMeters>
          <HeartRateBpm>
            <Value>79</Value>
          </HeartRateBpm>
          <SensorState>Absent</SensorState>
        </Trackpoint>
        <Trackpoint>
          <Time>2025-05-18T23:39:38Z</Time>
          <DistanceMeters>13751.0</DistanceMeters>
          <HeartRateBpm>
            <Value>85</Value>
          </HeartRateBpm>
          <SensorState>Absent</SensorState>
        </Trackpoint>
        <Trackpoint>
          <Time>2025-05-18T23:39:48Z</Time>
          <DistanceMeters>13806.7</DistanceMeters>
          <HeartRateBpm>
            <Value>91</Value>
          </HeartRateBpm>
          <SensorState>Absent</SensorState>
        </Trackpoint>
        <Trackpoint>
          <Time>2025-05-18T23:39:57Z</Time>
          <DistanceMeters>13852.9</DistanceMeters>
          <HeartRateBpm>
            <Value>99</Value>
          </HeartRateBpm>
          <SensorState>Absent</SensorState>
        </Trackpoint>
        <Trackpoint>
          <Time>2025-05-18T23:40:00Z</Time>
          <DistanceMeters>13869.6</DistanceMeters>
          <HeartRateBpm>
            <Value>110</Value>
          </HeartRateBpm>
          <SensorState>Absent</SensorState>
        </Trackpoint>
        <Trackpoint>
          <Time>2025-05-18T23:40:12Z</Time>
          <DistanceMeters>13942.1</DistanceMeters>
          <HeartRateBpm>
            <Value>105</Value>
          </HeartRateBpm>
          <SensorState>Absent</SensorState>
        </Trackpoint>
        <Trackpoint>
          <Time>2025-05-18T23:40:25Z</Time>
          <DistanceMeters>14014.6</DistanceMeters>
          <HeartRateBpm>
            <Value>111</Value>
          </HeartRateBpm>
          <SensorState>Absent</SensorState>
        </Trackpoint>
        <Trackpoint>
          <Time>2025-05-18T23:40:46Z</Time>
          <DistanceMeters>14133.8</DistanceMeters>
          <HeartRateBpm>
            <Value>117</Value>
          </HeartRateBpm>
          <SensorState>Absent</SensorState>
        </Trackpoint>
        <Trackpoint>
          <Time>2025-05-18T23:41:00Z</Time>
          <DistanceMeters>14207.6</DistanceMeters>
          <HeartRateBpm>
            <Value>124</Value>
          </HeartRateBpm>
          <SensorState>Absent</SensorState>
        </Trackpoint>
        <Trackpoint>
          <Time>2025-05-18T23:41:05Z</Time>
          <DistanceMeters>14239.5</DistanceMeters>
          <HeartRateBpm>
            <Value>123</Value>
          </HeartRateBpm>
          <SensorState>Absent</SensorState>
        </Trackpoint>
        <Trackpoint>
          <Time>2025-05-18T23:41:24Z</Time>
          <DistanceMeters>14348.0</DistanceMeters>
          <HeartRateBpm>
            <Value>129</Value>
          </HeartRateBpm>
          <SensorState>Absent</SensorState>
        </Trackpoint>
        <Trackpoint>
          <Time>2025-05-18T23:41:42Z</Time>
          <DistanceMeters>14449.4</DistanceMeters>
          <HeartRateBpm>
            <Value>123</Value>
          </HeartRateBpm>
          <SensorState>Absent</SensorState>
        </Trackpoint>
        <Trackpoint>
          <Time>2025-05-18T23:42:00Z</Time>
          <DistanceMeters>14545.6</DistanceMeters>
          <HeartRateBpm>
            <Value>127</Value>
          </HeartRateBpm>
          <SensorState>Absent</SensorState>
        </Trackpoint>
        <Trackpoint>
          <Time>2025-05-18T23:42:14Z</Time>
          <DistanceMeters>14629.6</DistanceMeters>
          <HeartRateBpm>
            <Value>129</Value>
          </HeartRateBpm>
          <SensorState>Absent</SensorState>
        </Trackpoint>
        <Trackpoint>
          <Time>2025-05-18T23:43:00Z</Time>
          <DistanceMeters>14883.6</DistanceMeters>
          <HeartRateBpm>
            <Value>129</Value>
          </HeartRateBpm>
          <SensorState>Absent</SensorState>
        </Trackpoint>
        <Trackpoint>
          <Time>2025-05-18T23:43:04Z</Time>
          <DistanceMeters>14911.0</DistanceMeters>
          <HeartRateBpm>
            <Value>135</Value>
          </HeartRateBpm>
          <SensorState>Absent</SensorState>
        </Trackpoint>
        <Trackpoint>
          <Time>2025-05-18T23:43:17Z</Time>
          <DistanceMeters>14983.0</DistanceMeters>
          <HeartRateBpm>
            <Value>129</Value>
          </HeartRateBpm>
          <SensorState>Absent</SensorState>
        </Trackpoint>
        <Trackpoint>
          <Time>2025-05-18T23:44:00Z</Time>
          <DistanceMeters>15221.7</DistanceMeters>
          <HeartRateBpm>
            <Value>109</Value>
          </HeartRateBpm>
          <SensorState>Absent</SensorState>
        </Trackpoint>
        <Trackpoint>
          <Time>2025-05-18T23:44:04Z</Time>
          <DistanceMeters>15249.0</DistanceMeters>
          <HeartRateBpm>
            <Value>123</Value>
          </HeartRateBpm>
          <SensorState>Absent</SensorState>
        </Trackpoint>
        <Trackpoint>
          <Time>2025-05-18T23:44:06Z</Time>
          <DistanceMeters>15260.9</DistanceMeters>
          <HeartRateBpm>
            <Value>117</Value>
          </HeartRateBpm>
          <SensorState>Absent</SensorState>
        </Trackpoint>
        <Trackpoint>
          <Time>2025-05-18T23:44:10Z</Time>
          <DistanceMeters>15282.9</DistanceMeters>
          <HeartRateBpm>
            <Value>110</Value>
          </HeartRateBpm>
          <SensorState>Absent</SensorState>
        </Trackpoint>
        <Trackpoint>
          <Time>2025-05-18T23:44:40Z</Time>
          <DistanceMeters>15451.8</DistanceMeters>
          <HeartRateBpm>
            <Value>104</Value>
          </HeartRateBpm>
          <SensorState>Absent</SensorState>
        </Trackpoint>
        <Trackpoint>
          <Time>2025-05-18T23:44:41Z</Time>
          <DistanceMeters>15616.0</DistanceMeters>
           <HeartRateBpm>
            <Value>104</Value>
           </HeartRateBpm>
          <SensorState>Absent</SensorState>
        </Trackpoint>
	  </Track>
      </Lap>
      </Activity>
  </Activities>

</TrainingCenterDatabase>