<?xml version="1.0" encoding="UTF-8" standalone="no" ?>
<TrainingCenterDatabase xmlns="http://www.garmin.com/xmlschemas/TrainingCenterDatabase/v2" xmlns:xsi="http://www.w3.org/2001/XMLSchema-instance" xsi:schemaLocation="http://www.garmin.com/xmlschemas/TrainingCenterDatabase/v2 http://www.garmin.com/xmlschemas/TrainingCenterDatabasev2.xsd">
  <Activities>
    <Activity Sport="Other">
      <Id>2025-12-11T04:48:44Z</Id>
      <Notes>健走</Notes>
      <Lap StartTime="2025-12-11T04:48:44Z">
        <TotalTimeSeconds>896</TotalTimeSeconds>
        <DistanceMeters>170</DistanceMeters>
        <Calories>105</Calories>
        <AverageHeartRateBpm>
          <Value>98</Value>
        </AverageHeartRateBpm>
        <MaximumHeartRateBpm>
          <Value>123</Value>
        </MaximumHeartRateBpm>
        <Intensity>Active</Intensity>
        <TriggerMethod>Manual</TriggerMethod>	  <Track>
        <Trackpoint>
          <Time>2025-12-11T04:48:44Z</Time>
              <Position>
                  <LatitudeDegrees>24.45689611</LatitudeDegrees>
                  <LongitudeDegrees>118.07834227</LongitudeDegrees>
              </Position>
          <AltitudeMeters>16</AltitudeMeters>
          <DistanceMeters>0.0</DistanceMeters>
          <HeartRateBpm>
            <Value>80</Value>
          </HeartRateBpm>
          <SensorState>Absent</SensorState>
        </Trackpoint>
        <Trackpoint>
          <Time>2025-12-11T04:48:48Z</Time>
              <Position>
                  <LatitudeDegrees>24.45688894</LatitudeDegrees>
                  <LongitudeDegrees>118.07832342</LongitudeDegrees>
              </Position>
          <AltitudeMeters>18</AltitudeMeters>
          <DistanceMeters>2.0</DistanceMeters>
          <HeartRateBpm>
            <Value>80</Value>
          </HeartRateBpm>
          <SensorState>Absent</SensorState>
        </Trackpoint>
        <Trackpoint>
          <Time>2025-12-11T04:48:52Z</Time>
              <Position>
                  <LatitudeDegrees>24.45687099</LatitudeDegrees>
                  <LongitudeDegrees>118.07831342</LongitudeDegrees>
              </Position>
          <AltitudeMeters>19</AltitudeMeters>
          <DistanceMeters>4.0</DistanceMeters>
          <HeartRateBpm>
            <Value>80</Value>
          </HeartRateBpm>
          <SensorState>Absent</SensorState>
        </Trackpoint>
        <Trackpoint>
          <Time>2025-12-11T04:48:52Z</Time>
              <Position>
                  <LatitudeDegrees>24.45685772</LatitudeDegrees>
                  <LongitudeDegrees>118.07830521</LongitudeDegrees>
              </Position>
          <AltitudeMeters>19</AltitudeMeters>
          <DistanceMeters>6.0</DistanceMeters>
          <HeartRateBpm>
            <Value>81</Value>
          </HeartRateBpm>
          <SensorState>Absent</SensorState>
        </Trackpoint>
        <Trackpoint>
          <Time>2025-12-11T04:48:53Z</Time>
              <Position>
                  <LatitudeDegrees>24.45685051</LatitudeDegrees>
                  <LongitudeDegrees>118.07829596</LongitudeDegrees>
              </Position>
          <AltitudeMeters>19</AltitudeMeters>
          <DistanceMeters>7.0</DistanceMeters>
          <HeartRateBpm>
            <Value>82</Value>
          </HeartRateBpm>
          <SensorState>Absent</SensorState>
        </Trackpoint>
        <Trackpoint>
          <Time>2025-12-11T04:48:53Z</Time>
              <Position>
                  <LatitudeDegrees>24.45684369</LatitudeDegrees>
                  <LongitudeDegrees>118.07828609</LongitudeDegrees>
              </Position>
          <AltitudeMeters>18</AltitudeMeters>
          <DistanceMeters>8.0</DistanceMeters>
          <HeartRateBpm>
            <Value>82</Value>
          </HeartRateBpm>
          <SensorState>Absent</SensorState>
        </Trackpoint>
        <Trackpoint>
          <Time>2025-12-11T04:48:53Z</Time>
              <Position>
                  <LatitudeDegrees>24.45683897</LatitudeDegrees>
                  <LongitudeDegrees>118.07827607</LongitudeDegrees>
              </Position>
          <AltitudeMeters>18</AltitudeMeters>
          <DistanceMeters>9.0</DistanceMeters>
          <HeartRateBpm>
            <Value>82</Value>
          </HeartRateBpm>
          <SensorState>Absent</SensorState>
        </Trackpoint>
        <Trackpoint>
          <Time>2025-12-11T04:48:54Z</Time>
              <Position>
                  <LatitudeDegrees>24.45683751</LatitudeDegrees>
                  <LongitudeDegrees>118.07826546</LongitudeDegrees>
              </Position>
          <AltitudeMeters>18</AltitudeMeters>
          <DistanceMeters>10.0</DistanceMeters>
          <HeartRateBpm>
            <Value>81</Value>
          </HeartRateBpm>
          <SensorState>Absent</SensorState>
        </Trackpoint>
        <Trackpoint>
          <Time>2025-12-11T04:48:55Z</Time>
              <Position>
                  <LatitudeDegrees>24.45683819</LatitudeDegrees>
                  <LongitudeDegrees>118.07825554</LongitudeDegrees>
              </Position>
          <AltitudeMeters>19</AltitudeMeters>
          <DistanceMeters>11.0</DistanceMeters>
          <HeartRateBpm>
            <Value>81</Value>
          </HeartRateBpm>
          <SensorState>Absent</SensorState>
        </Trackpoint>
        <Trackpoint>
          <Time>2025-12-11T04:48:56Z</Time>
              <Position>
                  <LatitudeDegrees>24.45683924</LatitudeDegrees>
                  <LongitudeDegrees>118.07824706</LongitudeDegrees>
              </Position>
          <AltitudeMeters>19</AltitudeMeters>
          <DistanceMeters>12.0</DistanceMeters>
          <HeartRateBpm>
            <Value>80</Value>
          </HeartRateBpm>
          <SensorState>Absent</SensorState>
        </Trackpoint>
        <Trackpoint>
          <Time>2025-12-11T04:48:57Z</Time>
              <Position>
                  <LatitudeDegrees>24.45684184</LatitudeDegrees>
                  <LongitudeDegrees>118.07823819</LongitudeDegrees>
              </Position>
          <AltitudeMeters>18</AltitudeMeters>
          <DistanceMeters>13.0</DistanceMeters>
          <HeartRateBpm>
            <Value>80</Value>
          </HeartRateBpm>
          <SensorState>Absent</SensorState>
        </Trackpoint>
        <Trackpoint>
          <Time>2025-12-11T04:48:58Z</Time>
              <Position>
                  <LatitudeDegrees>24.45684477</LatitudeDegrees>
                  <LongitudeDegrees>118.07822935</LongitudeDegrees>
              </Position>
          <AltitudeMeters>18</AltitudeMeters>
          <DistanceMeters>14.0</DistanceMeters>
          <HeartRateBpm>
            <Value>80</Value>
          </HeartRateBpm>
          <SensorState>Absent</SensorState>
        </Trackpoint>
        <Trackpoint>
          <Time>2025-12-11T04:48:59Z</Time>
              <Position>
                  <LatitudeDegrees>24.4568462</LatitudeDegrees>
                  <LongitudeDegrees>118.07822</LongitudeDegrees>
              </Position>
          <AltitudeMeters>18</AltitudeMeters>
          <DistanceMeters>15.0</DistanceMeters>
          <HeartRateBpm>
            <Value>80</Value>
          </HeartRateBpm>
          <SensorState>Absent</SensorState>
        </Trackpoint>
        <Trackpoint>
          <Time>2025-12-11T04:49:00Z</Time>
              <Position>
                  <LatitudeDegrees>24.45684634</LatitudeDegrees>
                  <LongitudeDegrees>118.07820945</LongitudeDegrees>
              </Position>
          <AltitudeMeters>18</AltitudeMeters>
          <DistanceMeters>16.0</DistanceMeters>
          <HeartRateBpm>
            <Value>80</Value>
          </HeartRateBpm>
          <SensorState>Absent</SensorState>
        </Trackpoint>
        <Trackpoint>
          <Time>2025-12-11T04:49:01Z</Time>
              <Position>
                  <LatitudeDegrees>24.45684484</LatitudeDegrees>
                  <LongitudeDegrees>118.07819788</LongitudeDegrees>
              </Position>
          <AltitudeMeters>18</AltitudeMeters>
          <DistanceMeters>17.0</DistanceMeters>
          <HeartRateBpm>
            <Value>81</Value>
          </HeartRateBpm>
          <SensorState>Absent</SensorState>
        </Trackpoint>
        <Trackpoint>
          <Time>2025-12-11T04:49:02Z</Time>
              <Position>
                  <LatitudeDegrees>24.4568423</LatitudeDegrees>
                  <LongitudeDegrees>118.07818755</LongitudeDegrees>
              </Position>
          <AltitudeMeters>18</AltitudeMeters>
          <DistanceMeters>18.0</DistanceMeters>
          <HeartRateBpm>
            <Value>81</Value>
          </HeartRateBpm>
          <SensorState>Absent</SensorState>
        </Trackpoint>
        <Trackpoint>
          <Time>2025-12-11T04:49:03Z</Time>
              <Position>
                  <LatitudeDegrees>24.45683808</LatitudeDegrees>
                  <LongitudeDegrees>118.07817916</LongitudeDegrees>
              </Position>
          <AltitudeMeters>19</AltitudeMeters>
          <DistanceMeters>19.0</DistanceMeters>
          <HeartRateBpm>
            <Value>81</Value>
          </HeartRateBpm>
          <SensorState>Absent</SensorState>
        </Trackpoint>
        <Trackpoint>
          <Time>2025-12-11T04:49:04Z</Time>
              <Position>
                  <LatitudeDegrees>24.45683413</LatitudeDegrees>
                  <LongitudeDegrees>118.0781714</LongitudeDegrees>
              </Position>
          <AltitudeMeters>19</AltitudeMeters>
          <DistanceMeters>20.0</DistanceMeters>
          <HeartRateBpm>
            <Value>81</Value>
          </HeartRateBpm>
          <SensorState>Absent</SensorState>
        </Trackpoint>
        <Trackpoint>
          <Time>2025-12-11T04:49:05Z</Time>
              <Position>
                  <LatitudeDegrees>24.45683088</LatitudeDegrees>
                  <LongitudeDegrees>118.07816299</LongitudeDegrees>
              </Position>
          <AltitudeMeters>19</AltitudeMeters>
          <DistanceMeters>21.0</DistanceMeters>
          <HeartRateBpm>
            <Value>82</Value>
          </HeartRateBpm>
          <SensorState>Absent</SensorState>
        </Trackpoint>
        <Trackpoint>
          <Time>2025-12-11T04:49:06Z</Time>
              <Position>
                  <LatitudeDegrees>24.45682482</LatitudeDegrees>
                  <LongitudeDegrees>118.07815348</LongitudeDegrees>
              </Position>
          <AltitudeMeters>19</AltitudeMeters>
          <DistanceMeters>22.0</DistanceMeters>
          <HeartRateBpm>
            <Value>85</Value>
          </HeartRateBpm>
          <SensorState>Absent</SensorState>
        </Trackpoint>
        <Trackpoint>
          <Time>2025-12-11T04:49:11Z</Time>
              <Position>
                  <LatitudeDegrees>24.45681814</LatitudeDegrees>
                  <LongitudeDegrees>118.07814449</LongitudeDegrees>
              </Position>
          <AltitudeMeters>20</AltitudeMeters>
          <DistanceMeters>23.0</DistanceMeters>
          <HeartRateBpm>
            <Value>87</Value>
          </HeartRateBpm>
          <SensorState>Absent</SensorState>
        </Trackpoint>
        <Trackpoint>
          <Time>2025-12-11T04:49:15Z</Time>
              <Position>
                  <LatitudeDegrees>24.45681273</LatitudeDegrees>
                  <LongitudeDegrees>118.07813634</LongitudeDegrees>
              </Position>
          <AltitudeMeters>20</AltitudeMeters>
          <DistanceMeters>24.0</DistanceMeters>
          <HeartRateBpm>
            <Value>87</Value>
          </HeartRateBpm>
          <SensorState>Absent</SensorState>
        </Trackpoint>
        <Trackpoint>
          <Time>2025-12-11T04:49:15Z</Time>
              <Position>
                  <LatitudeDegrees>24.45680858</LatitudeDegrees>
                  <LongitudeDegrees>118.07812768</LongitudeDegrees>
              </Position>
          <AltitudeMeters>20</AltitudeMeters>
          <DistanceMeters>25.0</DistanceMeters>
          <HeartRateBpm>
            <Value>87</Value>
          </HeartRateBpm>
          <SensorState>Absent</SensorState>
        </Trackpoint>
        <Trackpoint>
          <Time>2025-12-11T04:49:15Z</Time>
              <Position>
                  <LatitudeDegrees>24.45680265</LatitudeDegrees>
                  <LongitudeDegrees>118.07811869</LongitudeDegrees>
              </Position>
          <AltitudeMeters>20</AltitudeMeters>
          <DistanceMeters>26.0</DistanceMeters>
          <HeartRateBpm>
            <Value>87</Value>
          </HeartRateBpm>
          <SensorState>Absent</SensorState>
        </Trackpoint>
        <Trackpoint>
          <Time>2025-12-11T04:49:15Z</Time>
              <Position>
                  <LatitudeDegrees>24.45679653</LatitudeDegrees>
                  <LongitudeDegrees>118.07810942</LongitudeDegrees>
              </Position>
          <AltitudeMeters>21</AltitudeMeters>
          <DistanceMeters>27.0</DistanceMeters>
          <HeartRateBpm>
            <Value>87</Value>
          </HeartRateBpm>
          <SensorState>Absent</SensorState>
        </Trackpoint>
        <Trackpoint>
          <Time>2025-12-11T04:49:15Z</Time>
              <Position>
                  <LatitudeDegrees>24.45679162</LatitudeDegrees>
                  <LongitudeDegrees>118.07810096</LongitudeDegrees>
              </Position>
          <AltitudeMeters>21</AltitudeMeters>
          <DistanceMeters>28.0</DistanceMeters>
          <HeartRateBpm>
            <Value>87</Value>
          </HeartRateBpm>
          <SensorState>Absent</SensorState>
        </Trackpoint>
        <Trackpoint>
          <Time>2025-12-11T04:49:16Z</Time>
              <Position>
                  <LatitudeDegrees>24.45678865</LatitudeDegrees>
                  <LongitudeDegrees>118.07809152</LongitudeDegrees>
              </Position>
          <AltitudeMeters>21</AltitudeMeters>
          <DistanceMeters>29.0</DistanceMeters>
          <HeartRateBpm>
            <Value>87</Value>
          </HeartRateBpm>
          <SensorState>Absent</SensorState>
        </Trackpoint>
        <Trackpoint>
          <Time>2025-12-11T04:49:16Z</Time>
              <Position>
                  <LatitudeDegrees>24.45678545</LatitudeDegrees>
                  <LongitudeDegrees>118.07808209</LongitudeDegrees>
              </Position>
          <AltitudeMeters>21</AltitudeMeters>
          <DistanceMeters>30.0</DistanceMeters>
          <HeartRateBpm>
            <Value>87</Value>
          </HeartRateBpm>
          <SensorState>Absent</SensorState>
        </Trackpoint>
        <Trackpoint>
          <Time>2025-12-11T04:49:20Z</Time>
              <Position>
                  <LatitudeDegrees>24.45678329</LatitudeDegrees>
                  <LongitudeDegrees>118.07807127</LongitudeDegrees>
              </Position>
          <AltitudeMeters>21</AltitudeMeters>
          <DistanceMeters>31.0</DistanceMeters>
          <HeartRateBpm>
            <Value>90</Value>
          </HeartRateBpm>
          <SensorState>Absent</SensorState>
        </Trackpoint>
        <Trackpoint>
          <Time>2025-12-11T04:49:32Z</Time>
              <Position>
                  <LatitudeDegrees>24.45678216</LatitudeDegrees>
                  <LongitudeDegrees>118.0780602</LongitudeDegrees>
              </Position>
          <AltitudeMeters>21</AltitudeMeters>
          <DistanceMeters>32.0</DistanceMeters>
          <HeartRateBpm>
            <Value>90</Value>
          </HeartRateBpm>
          <SensorState>Absent</SensorState>
        </Trackpoint>
        <Trackpoint>
          <Time>2025-12-11T04:49:40Z</Time>
              <Position>
                  <LatitudeDegrees>24.45678138</LatitudeDegrees>
                  <LongitudeDegrees>118.07804938</LongitudeDegrees>
              </Position>
          <AltitudeMeters>21</AltitudeMeters>
          <DistanceMeters>33.0</DistanceMeters>
          <HeartRateBpm>
            <Value>90</Value>
          </HeartRateBpm>
          <SensorState>Absent</SensorState>
        </Trackpoint>
        <Trackpoint>
          <Time>2025-12-11T04:49:48Z</Time>
              <Position>
                  <LatitudeDegrees>24.4567793</LatitudeDegrees>
                  <LongitudeDegrees>118.07803765</LongitudeDegrees>
              </Position>
          <AltitudeMeters>20</AltitudeMeters>
          <DistanceMeters>34.0</DistanceMeters>
          <HeartRateBpm>
            <Value>87</Value>
          </HeartRateBpm>
          <SensorState>Absent</SensorState>
        </Trackpoint>
        <Trackpoint>
          <Time>2025-12-11T04:49:56Z</Time>
              <Position>
                  <LatitudeDegrees>24.45677651</LatitudeDegrees>
                  <LongitudeDegrees>118.07802579</LongitudeDegrees>
              </Position>
          <AltitudeMeters>20</AltitudeMeters>
          <DistanceMeters>35.0</DistanceMeters>
          <HeartRateBpm>
            <Value>98</Value>
          </HeartRateBpm>
          <Cadence><Value>100</Value></Cadence>
          <SensorState>Absent</SensorState>
        </Trackpoint>
        <Trackpoint>
          <Time>2025-12-11T04:50:04Z</Time>
              <Position>
                  <LatitudeDegrees>24.45677312</LatitudeDegrees>
                  <LongitudeDegrees>118.07801501</LongitudeDegrees>
              </Position>
          <AltitudeMeters>19</AltitudeMeters>
          <DistanceMeters>36.0</DistanceMeters>
          <HeartRateBpm>
            <Value>100</Value>
          </HeartRateBpm>
          <Cadence><Value>100</Value></Cadence>
          <SensorState>Absent</SensorState>
        </Trackpoint>
        <Trackpoint>
          <Time>2025-12-11T04:50:09Z</Time>
              <Position>
                  <LatitudeDegrees>24.45676894</LatitudeDegrees>
                  <LongitudeDegrees>118.07800383</LongitudeDegrees>
              </Position>
          <AltitudeMeters>19</AltitudeMeters>
          <DistanceMeters>37.0</DistanceMeters>
          <HeartRateBpm>
            <Value>100</Value>
          </HeartRateBpm>
          <Cadence><Value>100</Value></Cadence>
          <SensorState>Absent</SensorState>
        </Trackpoint>
        <Trackpoint>
          <Time>2025-12-11T04:50:17Z</Time>
              <Position>
                  <LatitudeDegrees>24.4567675</LatitudeDegrees>
                  <LongitudeDegrees>118.07799287</LongitudeDegrees>
              </Position>
          <AltitudeMeters>19</AltitudeMeters>
          <DistanceMeters>38.0</DistanceMeters>
          <HeartRateBpm>
            <Value>101</Value>
          </HeartRateBpm>
          <Cadence><Value>100</Value></Cadence>
          <SensorState>Absent</SensorState>
        </Trackpoint>
        <Trackpoint>
          <Time>2025-12-11T04:50:25Z</Time>
              <Position>
                  <LatitudeDegrees>24.45676597</LatitudeDegrees>
                  <LongitudeDegrees>118.07798121</LongitudeDegrees>
              </Position>
          <AltitudeMeters>19</AltitudeMeters>
          <DistanceMeters>39.0</DistanceMeters>
          <HeartRateBpm>
            <Value>101</Value>
          </HeartRateBpm>
          <Cadence><Value>100</Value></Cadence>
          <SensorState>Absent</SensorState>
        </Trackpoint>
        <Trackpoint>
          <Time>2025-12-11T04:50:29Z</Time>
              <Position>
                  <LatitudeDegrees>24.45676397</LatitudeDegrees>
                  <LongitudeDegrees>118.07796945</LongitudeDegrees>
              </Position>
          <AltitudeMeters>19</AltitudeMeters>
          <DistanceMeters>40.0</DistanceMeters>
          <HeartRateBpm>
            <Value>101</Value>
          </HeartRateBpm>
          <Cadence><Value>100</Value></Cadence>
          <SensorState>Absent</SensorState>
        </Trackpoint>
        <Trackpoint>
          <Time>2025-12-11T04:50:37Z</Time>
              <Position>
                  <LatitudeDegrees>24.45676298</LatitudeDegrees>
                  <LongitudeDegrees>118.07795788</LongitudeDegrees>
              </Position>
          <AltitudeMeters>19</AltitudeMeters>
          <DistanceMeters>41.0</DistanceMeters>
          <HeartRateBpm>
            <Value>105</Value>
          </HeartRateBpm>
          <Cadence><Value>100</Value></Cadence>
          <SensorState>Absent</SensorState>
        </Trackpoint>
        <Trackpoint>
          <Time>2025-12-11T04:50:41Z</Time>
              <Position>
                  <LatitudeDegrees>24.45676159</LatitudeDegrees>
                  <LongitudeDegrees>118.07794739</LongitudeDegrees>
              </Position>
          <AltitudeMeters>19</AltitudeMeters>
          <DistanceMeters>42.0</DistanceMeters>
          <HeartRateBpm>
            <Value>106</Value>
          </HeartRateBpm>
          <Cadence><Value>100</Value></Cadence>
          <SensorState>Absent</SensorState>
        </Trackpoint>
        <Trackpoint>
          <Time>2025-12-11T04:50:49Z</Time>
              <Position>
                  <LatitudeDegrees>24.45676104</LatitudeDegrees>
                  <LongitudeDegrees>118.07793694</LongitudeDegrees>
              </Position>
          <AltitudeMeters>19</AltitudeMeters>
          <DistanceMeters>43.0</DistanceMeters>
          <HeartRateBpm>
            <Value>106</Value>
          </HeartRateBpm>
          <Cadence><Value>100</Value></Cadence>
          <SensorState>Absent</SensorState>
        </Trackpoint>
        <Trackpoint>
          <Time>2025-12-11T04:50:58Z</Time>
              <Position>
                  <LatitudeDegrees>24.45676075</LatitudeDegrees>
                  <LongitudeDegrees>118.0779259</LongitudeDegrees>
              </Position>
          <AltitudeMeters>19</AltitudeMeters>
          <DistanceMeters>44.0</DistanceMeters>
          <HeartRateBpm>
            <Value>106</Value>
          </HeartRateBpm>
          <Cadence><Value>203</Value></Cadence>
          <SensorState>Absent</SensorState>
        </Trackpoint>
        <Trackpoint>
          <Time>2025-12-11T04:51:06Z</Time>
              <Position>
                  <LatitudeDegrees>24.45675974</LatitudeDegrees>
                  <LongitudeDegrees>118.07791473</LongitudeDegrees>
              </Position>
          <AltitudeMeters>19</AltitudeMeters>
          <DistanceMeters>45.0</DistanceMeters>
          <HeartRateBpm>
            <Value>105</Value>
          </HeartRateBpm>
          <Cadence><Value>203</Value></Cadence>
          <SensorState>Absent</SensorState>
        </Trackpoint>
        <Trackpoint>
          <Time>2025-12-11T04:51:14Z</Time>
              <Position>
                  <LatitudeDegrees>24.45675918</LatitudeDegrees>
                  <LongitudeDegrees>118.07790396</LongitudeDegrees>
              </Position>
          <AltitudeMeters>19</AltitudeMeters>
          <DistanceMeters>46.0</DistanceMeters>
          <HeartRateBpm>
            <Value>104</Value>
          </HeartRateBpm>
          <Cadence><Value>203</Value></Cadence>
          <SensorState>Absent</SensorState>
        </Trackpoint>
        <Trackpoint>
          <Time>2025-12-11T04:51:22Z</Time>
              <Position>
                  <LatitudeDegrees>24.45676104</LatitudeDegrees>
                  <LongitudeDegrees>118.07789304</LongitudeDegrees>
              </Position>
          <AltitudeMeters>19</AltitudeMeters>
          <DistanceMeters>47.0</DistanceMeters>
          <HeartRateBpm>
            <Value>108</Value>
          </HeartRateBpm>
          <Cadence><Value>203</Value></Cadence>
          <SensorState>Absent</SensorState>
        </Trackpoint>
        <Trackpoint>
          <Time>2025-12-11T04:51:30Z</Time>
              <Position>
                  <LatitudeDegrees>24.45676565</LatitudeDegrees>
                  <LongitudeDegrees>118.07788283</LongitudeDegrees>
              </Position>
          <AltitudeMeters>19</AltitudeMeters>
          <DistanceMeters>48.0</DistanceMeters>
          <HeartRateBpm>
            <Value>109</Value>
          </HeartRateBpm>
          <Cadence><Value>203</Value></Cadence>
          <SensorState>Absent</SensorState>
        </Trackpoint>
        <Trackpoint>
          <Time>2025-12-11T04:51:39Z</Time>
              <Position>
                  <LatitudeDegrees>24.45677044</LatitudeDegrees>
                  <LongitudeDegrees>118.077873</LongitudeDegrees>
              </Position>
          <AltitudeMeters>18</AltitudeMeters>
          <DistanceMeters>49.0</DistanceMeters>
          <HeartRateBpm>
            <Value>107</Value>
          </HeartRateBpm>
          <Cadence><Value>203</Value></Cadence>
          <SensorState>Absent</SensorState>
        </Trackpoint>
        <Trackpoint>
          <Time>2025-12-11T04:51:47Z</Time>
              <Position>
                  <LatitudeDegrees>24.4567777</LatitudeDegrees>
                  <LongitudeDegrees>118.07786427</LongitudeDegrees>
              </Position>
          <AltitudeMeters>18</AltitudeMeters>
          <DistanceMeters>50.0</DistanceMeters>
          <HeartRateBpm>
            <Value>106</Value>
          </HeartRateBpm>
          <Cadence><Value>203</Value></Cadence>
          <SensorState>Absent</SensorState>
        </Trackpoint>
        <Trackpoint>
          <Time>2025-12-11T04:51:55Z</Time>
              <Position>
                  <LatitudeDegrees>24.45678408</LatitudeDegrees>
                  <LongitudeDegrees>118.07785531</LongitudeDegrees>
              </Position>
          <AltitudeMeters>17</AltitudeMeters>
          <DistanceMeters>51.0</DistanceMeters>
          <HeartRateBpm>
            <Value>107</Value>
          </HeartRateBpm>
          <SensorState>Absent</SensorState>
        </Trackpoint>
        <Trackpoint>
          <Time>2025-12-11T04:52:03Z</Time>
              <Position>
                  <LatitudeDegrees>24.45678615</LatitudeDegrees>
                  <LongitudeDegrees>118.0778453</LongitudeDegrees>
              </Position>
          <AltitudeMeters>17</AltitudeMeters>
          <DistanceMeters>52.0</DistanceMeters>
          <HeartRateBpm>
            <Value>108</Value>
          </HeartRateBpm>
          <SensorState>Absent</SensorState>
        </Trackpoint>
        <Trackpoint>
          <Time>2025-12-11T04:52:15Z</Time>
              <Position>
                  <LatitudeDegrees>24.45678542</LatitudeDegrees>
                  <LongitudeDegrees>118.07783525</LongitudeDegrees>
              </Position>
          <AltitudeMeters>17</AltitudeMeters>
          <DistanceMeters>53.0</DistanceMeters>
          <HeartRateBpm>
            <Value>99</Value>
          </HeartRateBpm>
          <SensorState>Absent</SensorState>
        </Trackpoint>
        <Trackpoint>
          <Time>2025-12-11T04:52:23Z</Time>
              <Position>
                  <LatitudeDegrees>24.45678454</LatitudeDegrees>
                  <LongitudeDegrees>118.0778254</LongitudeDegrees>
              </Position>
          <AltitudeMeters>17</AltitudeMeters>
          <DistanceMeters>54.0</DistanceMeters>
          <HeartRateBpm>
            <Value>92</Value>
          </HeartRateBpm>
          <SensorState>Absent</SensorState>
        </Trackpoint>
        <Trackpoint>
          <Time>2025-12-11T04:52:31Z</Time>
              <Position>
                  <LatitudeDegrees>24.45678497</LatitudeDegrees>
                  <LongitudeDegrees>118.0778176</LongitudeDegrees>
              </Position>
          <AltitudeMeters>16</AltitudeMeters>
          <DistanceMeters>55.0</DistanceMeters>
          <HeartRateBpm>
            <Value>92</Value>
          </HeartRateBpm>
          <SensorState>Absent</SensorState>
        </Trackpoint>
        <Trackpoint>
          <Time>2025-12-11T04:52:40Z</Time>
              <Position>
                  <LatitudeDegrees>24.45677498</LatitudeDegrees>
                  <LongitudeDegrees>118.07780617</LongitudeDegrees>
              </Position>
          <AltitudeMeters>16</AltitudeMeters>
          <DistanceMeters>57.0</DistanceMeters>
          <HeartRateBpm>
            <Value>88</Value>
          </HeartRateBpm>
          <SensorState>Absent</SensorState>
        </Trackpoint>
        <Trackpoint>
          <Time>2025-12-11T04:52:48Z</Time>
              <Position>
                  <LatitudeDegrees>24.45675186</LatitudeDegrees>
                  <LongitudeDegrees>118.07779295</LongitudeDegrees>
              </Position>
          <AltitudeMeters>19</AltitudeMeters>
          <DistanceMeters>60.0</DistanceMeters>
          <HeartRateBpm>
            <Value>87</Value>
          </HeartRateBpm>
          <SensorState>Absent</SensorState>
        </Trackpoint>
        <Trackpoint>
          <Time>2025-12-11T04:53:00Z</Time>
              <Position>
                  <LatitudeDegrees>24.45675282</LatitudeDegrees>
                  <LongitudeDegrees>118.07777795</LongitudeDegrees>
              </Position>
          <AltitudeMeters>19</AltitudeMeters>
          <DistanceMeters>62.0</DistanceMeters>
          <HeartRateBpm>
            <Value>93</Value>
          </HeartRateBpm>
          <SensorState>Absent</SensorState>
        </Trackpoint>
        <Trackpoint>
          <Time>2025-12-11T04:53:08Z</Time>
              <Position>
                  <LatitudeDegrees>24.45675143</LatitudeDegrees>
                  <LongitudeDegrees>118.0777696</LongitudeDegrees>
              </Position>
          <AltitudeMeters>18</AltitudeMeters>
          <DistanceMeters>63.0</DistanceMeters>
          <HeartRateBpm>
            <Value>91</Value>
          </HeartRateBpm>
          <SensorState>Absent</SensorState>
        </Trackpoint>
        <Trackpoint>
          <Time>2025-12-11T04:53:16Z</Time>
              <Position>
                  <LatitudeDegrees>24.45675636</LatitudeDegrees>
                  <LongitudeDegrees>118.07774994</LongitudeDegrees>
              </Position>
          <AltitudeMeters>18</AltitudeMeters>
          <DistanceMeters>65.0</DistanceMeters>
          <HeartRateBpm>
            <Value>92</Value>
          </HeartRateBpm>
          <SensorState>Absent</SensorState>
        </Trackpoint>
        <Trackpoint>
          <Time>2025-12-11T04:53:24Z</Time>
              <Position>
                  <LatitudeDegrees>24.45676396</LatitudeDegrees>
                  <LongitudeDegrees>118.07773846</LongitudeDegrees>
              </Position>
          <AltitudeMeters>17</AltitudeMeters>
          <DistanceMeters>66.0</DistanceMeters>
          <HeartRateBpm>
            <Value>91</Value>
          </HeartRateBpm>
          <SensorState>Absent</SensorState>
        </Trackpoint>
        <Trackpoint>
          <Time>2025-12-11T04:53:33Z</Time>
              <Position>
                  <LatitudeDegrees>24.4567635</LatitudeDegrees>
                  <LongitudeDegrees>118.07773002</LongitudeDegrees>
              </Position>
          <AltitudeMeters>17</AltitudeMeters>
          <DistanceMeters>67.0</DistanceMeters>
          <HeartRateBpm>
            <Value>96</Value>
          </HeartRateBpm>
          <SensorState>Absent</SensorState>
        </Trackpoint>
        <Trackpoint>
          <Time>2025-12-11T04:53:45Z</Time>
              <Position>
                  <LatitudeDegrees>24.4567611</LatitudeDegrees>
                  <LongitudeDegrees>118.07771799</LongitudeDegrees>
              </Position>
          <AltitudeMeters>17</AltitudeMeters>
          <DistanceMeters>68.0</DistanceMeters>
          <HeartRateBpm>
            <Value>91</Value>
          </HeartRateBpm>
          <SensorState>Absent</SensorState>
        </Trackpoint>
        <Trackpoint>
          <Time>2025-12-11T04:53:49Z</Time>
              <Position>
                  <LatitudeDegrees>24.45676011</LatitudeDegrees>
                  <LongitudeDegrees>118.07770406</LongitudeDegrees>
              </Position>
          <AltitudeMeters>17</AltitudeMeters>
          <DistanceMeters>69.0</DistanceMeters>
          <HeartRateBpm>
            <Value>87</Value>
          </HeartRateBpm>
          <SensorState>Absent</SensorState>
        </Trackpoint>
        <Trackpoint>
          <Time>2025-12-11T04:53:57Z</Time>
              <Position>
                  <LatitudeDegrees>24.45676099</LatitudeDegrees>
                  <LongitudeDegrees>118.07769406</LongitudeDegrees>
              </Position>
          <AltitudeMeters>17</AltitudeMeters>
          <DistanceMeters>70.0</DistanceMeters>
          <HeartRateBpm>
            <Value>91</Value>
          </HeartRateBpm>
          <SensorState>Absent</SensorState>
        </Trackpoint>
        <Trackpoint>
          <Time>2025-12-11T04:54:05Z</Time>
              <Position>
                  <LatitudeDegrees>24.45676263</LatitudeDegrees>
                  <LongitudeDegrees>118.07768597</LongitudeDegrees>
              </Position>
          <AltitudeMeters>16</AltitudeMeters>
          <DistanceMeters>71.0</DistanceMeters>
          <HeartRateBpm>
            <Value>87</Value>
          </HeartRateBpm>
          <SensorState>Absent</SensorState>
        </Trackpoint>
        <Trackpoint>
          <Time>2025-12-11T04:54:14Z</Time>
              <Position>
                  <LatitudeDegrees>24.45676338</LatitudeDegrees>
                  <LongitudeDegrees>118.07767826</LongitudeDegrees>
              </Position>
          <AltitudeMeters>15</AltitudeMeters>
          <DistanceMeters>72.0</DistanceMeters>
          <HeartRateBpm>
            <Value>77</Value>
          </HeartRateBpm>
          <SensorState>Absent</SensorState>
        </Trackpoint>
        <Trackpoint>
          <Time>2025-12-11T04:54:22Z</Time>
              <Position>
                  <LatitudeDegrees>24.45676353</LatitudeDegrees>
                  <LongitudeDegrees>118.07767018</LongitudeDegrees>
              </Position>
          <AltitudeMeters>15</AltitudeMeters>
          <DistanceMeters>73.0</DistanceMeters>
          <HeartRateBpm>
            <Value>78</Value>
          </HeartRateBpm>
          <SensorState>Absent</SensorState>
        </Trackpoint>
        <Trackpoint>
          <Time>2025-12-11T04:54:30Z</Time>
              <Position>
                  <LatitudeDegrees>24.45676395</LatitudeDegrees>
                  <LongitudeDegrees>118.07766209</LongitudeDegrees>
              </Position>
          <AltitudeMeters>15</AltitudeMeters>
          <DistanceMeters>74.0</DistanceMeters>
          <HeartRateBpm>
            <Value>82</Value>
          </HeartRateBpm>
          <SensorState>Absent</SensorState>
        </Trackpoint>
        <Trackpoint>
          <Time>2025-12-11T04:54:38Z</Time>
              <Position>
                  <LatitudeDegrees>24.45676491</LatitudeDegrees>
                  <LongitudeDegrees>118.07765277</LongitudeDegrees>
              </Position>
          <AltitudeMeters>15</AltitudeMeters>
          <DistanceMeters>75.0</DistanceMeters>
          <HeartRateBpm>
            <Value>85</Value>
          </HeartRateBpm>
          <SensorState>Absent</SensorState>
        </Trackpoint>
        <Trackpoint>
          <Time>2025-12-11T04:54:46Z</Time>
              <Position>
                  <LatitudeDegrees>24.45676996</LatitudeDegrees>
                  <LongitudeDegrees>118.07764356</LongitudeDegrees>
              </Position>
          <AltitudeMeters>15</AltitudeMeters>
          <DistanceMeters>76.0</DistanceMeters>
          <HeartRateBpm>
            <Value>88</Value>
          </HeartRateBpm>
          <SensorState>Absent</SensorState>
        </Trackpoint>
        <Trackpoint>
          <Time>2025-12-11T04:54:50Z</Time>
              <Position>
                  <LatitudeDegrees>24.45677297</LatitudeDegrees>
                  <LongitudeDegrees>118.07763561</LongitudeDegrees>
              </Position>
          <AltitudeMeters>15</AltitudeMeters>
          <DistanceMeters>77.0</DistanceMeters>
          <HeartRateBpm>
            <Value>89</Value>
          </HeartRateBpm>
          <SensorState>Absent</SensorState>
        </Trackpoint>
        <Trackpoint>
          <Time>2025-12-11T04:54:59Z</Time>
              <Position>
                  <LatitudeDegrees>24.45677421</LatitudeDegrees>
                  <LongitudeDegrees>118.07762717</LongitudeDegrees>
              </Position>
          <AltitudeMeters>15</AltitudeMeters>
          <DistanceMeters>78.0</DistanceMeters>
          <HeartRateBpm>
            <Value>91</Value>
          </HeartRateBpm>
          <SensorState>Absent</SensorState>
        </Trackpoint>
        <Trackpoint>
          <Time>2025-12-11T04:55:07Z</Time>
              <Position>
                  <LatitudeDegrees>24.45677685</LatitudeDegrees>
                  <LongitudeDegrees>118.07761961</LongitudeDegrees>
              </Position>
          <AltitudeMeters>15</AltitudeMeters>
          <DistanceMeters>79.0</DistanceMeters>
          <HeartRateBpm>
            <Value>93</Value>
          </HeartRateBpm>
          <SensorState>Absent</SensorState>
        </Trackpoint>
        <Trackpoint>
          <Time>2025-12-11T04:55:15Z</Time>
              <Position>
                  <LatitudeDegrees>24.45678086</LatitudeDegrees>
                  <LongitudeDegrees>118.07761189</LongitudeDegrees>
              </Position>
          <AltitudeMeters>15</AltitudeMeters>
          <DistanceMeters>80.0</DistanceMeters>
          <HeartRateBpm>
            <Value>99</Value>
          </HeartRateBpm>
          <SensorState>Absent</SensorState>
        </Trackpoint>
        <Trackpoint>
          <Time>2025-12-11T04:55:27Z</Time>
              <Position>
                  <LatitudeDegrees>24.45678532</LatitudeDegrees>
                  <LongitudeDegrees>118.07760423</LongitudeDegrees>
              </Position>
          <AltitudeMeters>15</AltitudeMeters>
          <DistanceMeters>81.0</DistanceMeters>
          <HeartRateBpm>
            <Value>103</Value>
          </HeartRateBpm>
          <SensorState>Absent</SensorState>
        </Trackpoint>
        <Trackpoint>
          <Time>2025-12-11T04:55:35Z</Time>
              <Position>
                  <LatitudeDegrees>24.45678868</LatitudeDegrees>
                  <LongitudeDegrees>118.07759716</LongitudeDegrees>
              </Position>
          <AltitudeMeters>15</AltitudeMeters>
          <DistanceMeters>82.0</DistanceMeters>
          <HeartRateBpm>
            <Value>100</Value>
          </HeartRateBpm>
          <SensorState>Absent</SensorState>
        </Trackpoint>
        <Trackpoint>
          <Time>2025-12-11T04:55:43Z</Time>
              <Position>
                  <LatitudeDegrees>24.45679098</LatitudeDegrees>
                  <LongitudeDegrees>118.07758801</LongitudeDegrees>
              </Position>
          <AltitudeMeters>15</AltitudeMeters>
          <DistanceMeters>83.0</DistanceMeters>
          <HeartRateBpm>
            <Value>95</Value>
          </HeartRateBpm>
          <SensorState>Absent</SensorState>
        </Trackpoint>
        <Trackpoint>
          <Time>2025-12-11T04:55:52Z</Time>
              <Position>
                  <LatitudeDegrees>24.45679157</LatitudeDegrees>
                  <LongitudeDegrees>118.07757888</LongitudeDegrees>
              </Position>
          <AltitudeMeters>15</AltitudeMeters>
          <DistanceMeters>84.0</DistanceMeters>
          <HeartRateBpm>
            <Value>91</Value>
          </HeartRateBpm>
          <SensorState>Absent</SensorState>
        </Trackpoint>
        <Trackpoint>
          <Time>2025-12-11T04:56:00Z</Time>
              <Position>
                  <LatitudeDegrees>24.45679118</LatitudeDegrees>
                  <LongitudeDegrees>118.07756909</LongitudeDegrees>
              </Position>
          <AltitudeMeters>15</AltitudeMeters>
          <DistanceMeters>85.0</DistanceMeters>
          <HeartRateBpm>
            <Value>92</Value>
          </HeartRateBpm>
          <SensorState>Absent</SensorState>
        </Trackpoint>
        <Trackpoint>
          <Time>2025-12-11T04:56:12Z</Time>
              <Position>
                  <LatitudeDegrees>24.45678996</LatitudeDegrees>
                  <LongitudeDegrees>118.07755833</LongitudeDegrees>
              </Position>
          <AltitudeMeters>15</AltitudeMeters>
          <DistanceMeters>86.0</DistanceMeters>
          <HeartRateBpm>
            <Value>97</Value>
          </HeartRateBpm>
          <SensorState>Absent</SensorState>
        </Trackpoint>
        <Trackpoint>
          <Time>2025-12-11T04:56:16Z</Time>
              <Position>
                  <LatitudeDegrees>24.45678795</LatitudeDegrees>
                  <LongitudeDegrees>118.07754729</LongitudeDegrees>
              </Position>
          <AltitudeMeters>15</AltitudeMeters>
          <DistanceMeters>87.0</DistanceMeters>
          <HeartRateBpm>
            <Value>98</Value>
          </HeartRateBpm>
          <SensorState>Absent</SensorState>
        </Trackpoint>
        <Trackpoint>
          <Time>2025-12-11T04:56:24Z</Time>
              <Position>
                  <LatitudeDegrees>24.45678526</LatitudeDegrees>
                  <LongitudeDegrees>118.07753501</LongitudeDegrees>
              </Position>
          <AltitudeMeters>15</AltitudeMeters>
          <DistanceMeters>88.0</DistanceMeters>
          <HeartRateBpm>
            <Value>96</Value>
          </HeartRateBpm>
          <SensorState>Absent</SensorState>
        </Trackpoint>
        <Trackpoint>
          <Time>2025-12-11T04:56:34Z</Time>
              <Position>
                  <LatitudeDegrees>24.45678199</LatitudeDegrees>
                  <LongitudeDegrees>118.07752386</LongitudeDegrees>
              </Position>
          <AltitudeMeters>16</AltitudeMeters>
          <DistanceMeters>89.0</DistanceMeters>
          <HeartRateBpm>
            <Value>103</Value>
          </HeartRateBpm>
          <SensorState>Absent</SensorState>
        </Trackpoint>
        <Trackpoint>
          <Time>2025-12-11T04:56:43Z</Time>
              <Position>
                  <LatitudeDegrees>24.45678001</LatitudeDegrees>
                  <LongitudeDegrees>118.07751331</LongitudeDegrees>
              </Position>
          <AltitudeMeters>16</AltitudeMeters>
          <DistanceMeters>90.0</DistanceMeters>
          <HeartRateBpm>
            <Value>102</Value>
          </HeartRateBpm>
          <SensorState>Absent</SensorState>
        </Trackpoint>
        <Trackpoint>
          <Time>2025-12-11T04:56:53Z</Time>
              <Position>
                  <LatitudeDegrees>24.45677968</LatitudeDegrees>
                  <LongitudeDegrees>118.07750176</LongitudeDegrees>
              </Position>
          <AltitudeMeters>16</AltitudeMeters>
          <DistanceMeters>91.0</DistanceMeters>
          <HeartRateBpm>
            <Value>102</Value>
          </HeartRateBpm>
          <SensorState>Absent</SensorState>
        </Trackpoint>
        <Trackpoint>
          <Time>2025-12-11T04:56:58Z</Time>
              <Position>
                  <LatitudeDegrees>24.45677903</LatitudeDegrees>
                  <LongitudeDegrees>118.07749061</LongitudeDegrees>
              </Position>
          <AltitudeMeters>15</AltitudeMeters>
          <DistanceMeters>92.0</DistanceMeters>
          <HeartRateBpm>
            <Value>102</Value>
          </HeartRateBpm>
          <SensorState>Absent</SensorState>
        </Trackpoint>
        <Trackpoint>
          <Time>2025-12-11T04:57:04Z</Time>
              <Position>
                  <LatitudeDegrees>24.4567791</LatitudeDegrees>
                  <LongitudeDegrees>118.07748113</LongitudeDegrees>
              </Position>
          <AltitudeMeters>16</AltitudeMeters>
          <DistanceMeters>93.0</DistanceMeters>
          <HeartRateBpm>
            <Value>103</Value>
          </HeartRateBpm>
          <SensorState>Absent</SensorState>
        </Trackpoint>
        <Trackpoint>
          <Time>2025-12-11T04:57:12Z</Time>
              <Position>
                  <LatitudeDegrees>24.45677926</LatitudeDegrees>
                  <LongitudeDegrees>118.07747306</LongitudeDegrees>
              </Position>
          <AltitudeMeters>16</AltitudeMeters>
          <DistanceMeters>94.0</DistanceMeters>
          <HeartRateBpm>
            <Value>105</Value>
          </HeartRateBpm>
          <SensorState>Absent</SensorState>
        </Trackpoint>
        <Trackpoint>
          <Time>2025-12-11T04:57:22Z</Time>
              <Position>
                  <LatitudeDegrees>24.45678039</LatitudeDegrees>
                  <LongitudeDegrees>118.07746478</LongitudeDegrees>
              </Position>
          <AltitudeMeters>16</AltitudeMeters>
          <DistanceMeters>95.0</DistanceMeters>
          <HeartRateBpm>
            <Value>104</Value>
          </HeartRateBpm>
          <SensorState>Absent</SensorState>
        </Trackpoint>
        <Trackpoint>
          <Time>2025-12-11T04:57:33Z</Time>
              <Position>
                  <LatitudeDegrees>24.45678045</LatitudeDegrees>
                  <LongitudeDegrees>118.07745654</LongitudeDegrees>
              </Position>
          <AltitudeMeters>15</AltitudeMeters>
          <DistanceMeters>96.0</DistanceMeters>
          <HeartRateBpm>
            <Value>106</Value>
          </HeartRateBpm>
          <SensorState>Absent</SensorState>
        </Trackpoint>
        <Trackpoint>
          <Time>2025-12-11T04:57:44Z</Time>
              <Position>
                  <LatitudeDegrees>24.45677896</LatitudeDegrees>
                  <LongitudeDegrees>118.07744703</LongitudeDegrees>
              </Position>
          <AltitudeMeters>15</AltitudeMeters>
          <DistanceMeters>97.0</DistanceMeters>
          <HeartRateBpm>
            <Value>112</Value>
          </HeartRateBpm>
          <SensorState>Absent</SensorState>
        </Trackpoint>
        <Trackpoint>
          <Time>2025-12-11T04:57:54Z</Time>
              <Position>
                  <LatitudeDegrees>24.45677663</LatitudeDegrees>
                  <LongitudeDegrees>118.07743721</LongitudeDegrees>
              </Position>
          <AltitudeMeters>15</AltitudeMeters>
          <DistanceMeters>98.0</DistanceMeters>
          <HeartRateBpm>
            <Value>110</Value>
          </HeartRateBpm>
          <SensorState>Absent</SensorState>
        </Trackpoint>
        <Trackpoint>
          <Time>2025-12-11T04:57:59Z</Time>
              <Position>
                  <LatitudeDegrees>24.45677671</LatitudeDegrees>
                  <LongitudeDegrees>118.0774264</LongitudeDegrees>
              </Position>
          <AltitudeMeters>15</AltitudeMeters>
          <DistanceMeters>99.0</DistanceMeters>
          <HeartRateBpm>
            <Value>101</Value>
          </HeartRateBpm>
          <SensorState>Absent</SensorState>
        </Trackpoint>
        <Trackpoint>
          <Time>2025-12-11T04:58:07Z</Time>
              <Position>
                  <LatitudeDegrees>24.45677492</LatitudeDegrees>
                  <LongitudeDegrees>118.07741667</LongitudeDegrees>
              </Position>
          <AltitudeMeters>15</AltitudeMeters>
          <DistanceMeters>100.0</DistanceMeters>
          <HeartRateBpm>
            <Value>72</Value>
          </HeartRateBpm>
          <SensorState>Absent</SensorState>
        </Trackpoint>
        <Trackpoint>
          <Time>2025-12-11T04:58:15Z</Time>
              <Position>
                  <LatitudeDegrees>24.45677412</LatitudeDegrees>
                  <LongitudeDegrees>118.07740656</LongitudeDegrees>
              </Position>
          <AltitudeMeters>15</AltitudeMeters>
          <DistanceMeters>101.0</DistanceMeters>
          <HeartRateBpm>
            <Value>77</Value>
          </HeartRateBpm>
          <SensorState>Absent</SensorState>
        </Trackpoint>
        <Trackpoint>
          <Time>2025-12-11T04:58:20Z</Time>
              <Position>
                  <LatitudeDegrees>24.45677347</LatitudeDegrees>
                  <LongitudeDegrees>118.07739641</LongitudeDegrees>
              </Position>
          <AltitudeMeters>15</AltitudeMeters>
          <DistanceMeters>102.0</DistanceMeters>
          <HeartRateBpm>
            <Value>76</Value>
          </HeartRateBpm>
          <SensorState>Absent</SensorState>
        </Trackpoint>
        <Trackpoint>
          <Time>2025-12-11T04:58:29Z</Time>
              <Position>
                  <LatitudeDegrees>24.45677484</LatitudeDegrees>
                  <LongitudeDegrees>118.07738587</LongitudeDegrees>
              </Position>
          <AltitudeMeters>15</AltitudeMeters>
          <DistanceMeters>103.0</DistanceMeters>
          <HeartRateBpm>
            <Value>80</Value>
          </HeartRateBpm>
          <SensorState>Absent</SensorState>
        </Trackpoint>
        <Trackpoint>
          <Time>2025-12-11T04:58:37Z</Time>
              <Position>
                  <LatitudeDegrees>24.45677253</LatitudeDegrees>
                  <LongitudeDegrees>118.07737655</LongitudeDegrees>
              </Position>
          <AltitudeMeters>15</AltitudeMeters>
          <DistanceMeters>104.0</DistanceMeters>
          <HeartRateBpm>
            <Value>75</Value>
          </HeartRateBpm>
          <SensorState>Absent</SensorState>
        </Trackpoint>
        <Trackpoint>
          <Time>2025-12-11T04:58:47Z</Time>
              <Position>
                  <LatitudeDegrees>24.4567732</LatitudeDegrees>
                  <LongitudeDegrees>118.07736599</LongitudeDegrees>
              </Position>
          <AltitudeMeters>15</AltitudeMeters>
          <DistanceMeters>105.0</DistanceMeters>
          <HeartRateBpm>
            <Value>69</Value>
          </HeartRateBpm>
          <SensorState>Absent</SensorState>
        </Trackpoint>
        <Trackpoint>
          <Time>2025-12-11T04:59:02Z</Time>
              <Position>
                  <LatitudeDegrees>24.4567722</LatitudeDegrees>
                  <LongitudeDegrees>118.07735614</LongitudeDegrees>
              </Position>
          <AltitudeMeters>15</AltitudeMeters>
          <DistanceMeters>106.0</DistanceMeters>
          <HeartRateBpm>
            <Value>72</Value>
          </HeartRateBpm>
          <SensorState>Absent</SensorState>
        </Trackpoint>
        <Trackpoint>
          <Time>2025-12-11T04:59:07Z</Time>
              <Position>
                  <LatitudeDegrees>24.45677129</LatitudeDegrees>
                  <LongitudeDegrees>118.07734556</LongitudeDegrees>
              </Position>
          <AltitudeMeters>15</AltitudeMeters>
          <DistanceMeters>107.0</DistanceMeters>
          <HeartRateBpm>
            <Value>76</Value>
          </HeartRateBpm>
          <SensorState>Absent</SensorState>
        </Trackpoint>
        <Trackpoint>
          <Time>2025-12-11T04:59:21Z</Time>
              <Position>
                  <LatitudeDegrees>24.45677121</LatitudeDegrees>
                  <LongitudeDegrees>118.07733532</LongitudeDegrees>
              </Position>
          <AltitudeMeters>15</AltitudeMeters>
          <DistanceMeters>108.0</DistanceMeters>
          <HeartRateBpm>
            <Value>84</Value>
          </HeartRateBpm>
          <SensorState>Absent</SensorState>
        </Trackpoint>
        <Trackpoint>
          <Time>2025-12-11T04:59:29Z</Time>
              <Position>
                  <LatitudeDegrees>24.45677187</LatitudeDegrees>
                  <LongitudeDegrees>118.07732504</LongitudeDegrees>
              </Position>
          <AltitudeMeters>15</AltitudeMeters>
          <DistanceMeters>109.0</DistanceMeters>
          <HeartRateBpm>
            <Value>86</Value>
          </HeartRateBpm>
          <SensorState>Absent</SensorState>
        </Trackpoint>
        <Trackpoint>
          <Time>2025-12-11T04:59:40Z</Time>
              <Position>
                  <LatitudeDegrees>24.45677002</LatitudeDegrees>
                  <LongitudeDegrees>118.0773149</LongitudeDegrees>
              </Position>
          <AltitudeMeters>15</AltitudeMeters>
          <DistanceMeters>110.0</DistanceMeters>
          <HeartRateBpm>
            <Value>88</Value>
          </HeartRateBpm>
          <SensorState>Absent</SensorState>
        </Trackpoint>
        <Trackpoint>
          <Time>2025-12-11T04:59:48Z</Time>
              <Position>
                  <LatitudeDegrees>24.456769</LatitudeDegrees>
                  <LongitudeDegrees>118.07730591</LongitudeDegrees>
              </Position>
          <AltitudeMeters>15</AltitudeMeters>
          <DistanceMeters>111.0</DistanceMeters>
          <HeartRateBpm>
            <Value>94</Value>
          </HeartRateBpm>
          <SensorState>Absent</SensorState>
        </Trackpoint>
        <Trackpoint>
          <Time>2025-12-11T04:59:56Z</Time>
              <Position>
                  <LatitudeDegrees>24.45676846</LatitudeDegrees>
                  <LongitudeDegrees>118.07729653</LongitudeDegrees>
              </Position>
          <AltitudeMeters>15</AltitudeMeters>
          <DistanceMeters>112.0</DistanceMeters>
          <HeartRateBpm>
            <Value>95</Value>
          </HeartRateBpm>
          <SensorState>Absent</SensorState>
        </Trackpoint>
        <Trackpoint>
          <Time>2025-12-11T05:00:04Z</Time>
              <Position>
                  <LatitudeDegrees>24.45676698</LatitudeDegrees>
                  <LongitudeDegrees>118.07728671</LongitudeDegrees>
              </Position>
          <AltitudeMeters>15</AltitudeMeters>
          <DistanceMeters>113.0</DistanceMeters>
          <HeartRateBpm>
            <Value>100</Value>
          </HeartRateBpm>
          <SensorState>Absent</SensorState>
        </Trackpoint>
        <Trackpoint>
          <Time>2025-12-11T05:00:09Z</Time>
              <Position>
                  <LatitudeDegrees>24.45676683</LatitudeDegrees>
                  <LongitudeDegrees>118.07727528</LongitudeDegrees>
              </Position>
          <AltitudeMeters>15</AltitudeMeters>
          <DistanceMeters>114.0</DistanceMeters>
          <HeartRateBpm>
            <Value>105</Value>
          </HeartRateBpm>
          <SensorState>Absent</SensorState>
        </Trackpoint>
        <Trackpoint>
          <Time>2025-12-11T05:00:09Z</Time>
              <Position>
                  <LatitudeDegrees>24.45676532</LatitudeDegrees>
                  <LongitudeDegrees>118.07726448</LongitudeDegrees>
              </Position>
          <AltitudeMeters>16</AltitudeMeters>
          <DistanceMeters>115.0</DistanceMeters>
          <HeartRateBpm>
            <Value>105</Value>
          </HeartRateBpm>
          <SensorState>Absent</SensorState>
        </Trackpoint>
        <Trackpoint>
          <Time>2025-12-11T05:00:09Z</Time>
              <Position>
                  <LatitudeDegrees>24.45676501</LatitudeDegrees>
                  <LongitudeDegrees>118.07725388</LongitudeDegrees>
              </Position>
          <AltitudeMeters>16</AltitudeMeters>
          <DistanceMeters>116.0</DistanceMeters>
          <HeartRateBpm>
            <Value>105</Value>
          </HeartRateBpm>
          <SensorState>Absent</SensorState>
        </Trackpoint>
        <Trackpoint>
          <Time>2025-12-11T05:00:09Z</Time>
              <Position>
                  <LatitudeDegrees>24.45676364</LatitudeDegrees>
                  <LongitudeDegrees>118.07724382</LongitudeDegrees>
              </Position>
          <AltitudeMeters>16</AltitudeMeters>
          <DistanceMeters>117.0</DistanceMeters>
          <HeartRateBpm>
            <Value>105</Value>
          </HeartRateBpm>
          <SensorState>Absent</SensorState>
        </Trackpoint>
        <Trackpoint>
          <Time>2025-12-11T05:00:09Z</Time>
              <Position>
                  <LatitudeDegrees>24.45676217</LatitudeDegrees>
                  <LongitudeDegrees>118.07723395</LongitudeDegrees>
              </Position>
          <AltitudeMeters>15</AltitudeMeters>
          <DistanceMeters>118.0</DistanceMeters>
          <HeartRateBpm>
            <Value>105</Value>
          </HeartRateBpm>
          <SensorState>Absent</SensorState>
        </Trackpoint>
        <Trackpoint>
          <Time>2025-12-11T05:00:09Z</Time>
              <Position>
                  <LatitudeDegrees>24.4567618</LatitudeDegrees>
                  <LongitudeDegrees>118.07722342</LongitudeDegrees>
              </Position>
          <AltitudeMeters>15</AltitudeMeters>
          <DistanceMeters>119.0</DistanceMeters>
          <HeartRateBpm>
            <Value>105</Value>
          </HeartRateBpm>
          <SensorState>Absent</SensorState>
        </Trackpoint>
        <Trackpoint>
          <Time>2025-12-11T05:00:09Z</Time>
              <Position>
                  <LatitudeDegrees>24.45676043</LatitudeDegrees>
                  <LongitudeDegrees>118.07721254</LongitudeDegrees>
              </Position>
          <AltitudeMeters>15</AltitudeMeters>
          <DistanceMeters>120.0</DistanceMeters>
          <HeartRateBpm>
            <Value>105</Value>
          </HeartRateBpm>
          <SensorState>Absent</SensorState>
        </Trackpoint>
        <Trackpoint>
          <Time>2025-12-11T05:00:10Z</Time>
              <Position>
                  <LatitudeDegrees>24.45676096</LatitudeDegrees>
                  <LongitudeDegrees>118.07720341</LongitudeDegrees>
              </Position>
          <AltitudeMeters>15</AltitudeMeters>
          <DistanceMeters>121.0</DistanceMeters>
          <HeartRateBpm>
            <Value>105</Value>
          </HeartRateBpm>
          <SensorState>Absent</SensorState>
        </Trackpoint>
        <Trackpoint>
          <Time>2025-12-11T05:00:11Z</Time>
              <Position>
                  <LatitudeDegrees>24.45676045</LatitudeDegrees>
                  <LongitudeDegrees>118.07719327</LongitudeDegrees>
              </Position>
          <AltitudeMeters>15</AltitudeMeters>
          <DistanceMeters>122.0</DistanceMeters>
          <HeartRateBpm>
            <Value>106</Value>
          </HeartRateBpm>
          <SensorState>Absent</SensorState>
        </Trackpoint>
        <Trackpoint>
          <Time>2025-12-11T05:00:20Z</Time>
              <Position>
                  <LatitudeDegrees>24.45675962</LatitudeDegrees>
                  <LongitudeDegrees>118.07718339</LongitudeDegrees>
              </Position>
          <AltitudeMeters>15</AltitudeMeters>
          <DistanceMeters>123.0</DistanceMeters>
          <HeartRateBpm>
            <Value>106</Value>
          </HeartRateBpm>
          <SensorState>Absent</SensorState>
        </Trackpoint>
        <Trackpoint>
          <Time>2025-12-11T05:00:29Z</Time>
              <Position>
                  <LatitudeDegrees>24.45676031</LatitudeDegrees>
                  <LongitudeDegrees>118.07717416</LongitudeDegrees>
              </Position>
          <AltitudeMeters>14</AltitudeMeters>
          <DistanceMeters>124.0</DistanceMeters>
          <HeartRateBpm>
            <Value>104</Value>
          </HeartRateBpm>
          <SensorState>Absent</SensorState>
        </Trackpoint>
        <Trackpoint>
          <Time>2025-12-11T05:00:37Z</Time>
              <Position>
                  <LatitudeDegrees>24.45675942</LatitudeDegrees>
                  <LongitudeDegrees>118.07716405</LongitudeDegrees>
              </Position>
          <AltitudeMeters>14</AltitudeMeters>
          <DistanceMeters>125.0</DistanceMeters>
          <HeartRateBpm>
            <Value>113</Value>
          </HeartRateBpm>
          <SensorState>Absent</SensorState>
        </Trackpoint>
        <Trackpoint>
          <Time>2025-12-11T05:00:45Z</Time>
              <Position>
                  <LatitudeDegrees>24.4567587</LatitudeDegrees>
                  <LongitudeDegrees>118.07715368</LongitudeDegrees>
              </Position>
          <AltitudeMeters>14</AltitudeMeters>
          <DistanceMeters>126.0</DistanceMeters>
          <HeartRateBpm>
            <Value>117</Value>
          </HeartRateBpm>
          <SensorState>Absent</SensorState>
        </Trackpoint>
        <Trackpoint>
          <Time>2025-12-11T05:00:53Z</Time>
              <Position>
                  <LatitudeDegrees>24.4567577</LatitudeDegrees>
                  <LongitudeDegrees>118.07714273</LongitudeDegrees>
              </Position>
          <AltitudeMeters>14</AltitudeMeters>
          <DistanceMeters>127.0</DistanceMeters>
          <HeartRateBpm>
            <Value>118</Value>
          </HeartRateBpm>
          <SensorState>Absent</SensorState>
        </Trackpoint>
        <Trackpoint>
          <Time>2025-12-11T05:01:01Z</Time>
              <Position>
                  <LatitudeDegrees>24.45675702</LatitudeDegrees>
                  <LongitudeDegrees>118.07713188</LongitudeDegrees>
              </Position>
          <AltitudeMeters>14</AltitudeMeters>
          <DistanceMeters>128.0</DistanceMeters>
          <HeartRateBpm>
            <Value>118</Value>
          </HeartRateBpm>
          <SensorState>Absent</SensorState>
        </Trackpoint>
        <Trackpoint>
          <Time>2025-12-11T05:01:05Z</Time>
              <Position>
                  <LatitudeDegrees>24.45675498</LatitudeDegrees>
                  <LongitudeDegrees>118.07712201</LongitudeDegrees>
              </Position>
          <AltitudeMeters>14</AltitudeMeters>
          <DistanceMeters>129.0</DistanceMeters>
          <HeartRateBpm>
            <Value>118</Value>
          </HeartRateBpm>
          <SensorState>Absent</SensorState>
        </Trackpoint>
        <Trackpoint>
          <Time>2025-12-11T05:01:13Z</Time>
              <Position>
                  <LatitudeDegrees>24.45675515</LatitudeDegrees>
                  <LongitudeDegrees>118.07711106</LongitudeDegrees>
              </Position>
          <AltitudeMeters>13</AltitudeMeters>
          <DistanceMeters>130.0</DistanceMeters>
          <HeartRateBpm>
            <Value>112</Value>
          </HeartRateBpm>
          <SensorState>Absent</SensorState>
        </Trackpoint>
        <Trackpoint>
          <Time>2025-12-11T05:01:18Z</Time>
              <Position>
                  <LatitudeDegrees>24.45675523</LatitudeDegrees>
                  <LongitudeDegrees>118.07709933</LongitudeDegrees>
              </Position>
          <AltitudeMeters>13</AltitudeMeters>
          <DistanceMeters>131.0</DistanceMeters>
          <HeartRateBpm>
            <Value>110</Value>
          </HeartRateBpm>
          <SensorState>Absent</SensorState>
        </Trackpoint>
        <Trackpoint>
          <Time>2025-12-11T05:01:26Z</Time>
              <Position>
                  <LatitudeDegrees>24.45675557</LatitudeDegrees>
                  <LongitudeDegrees>118.07708744</LongitudeDegrees>
              </Position>
          <AltitudeMeters>13</AltitudeMeters>
          <DistanceMeters>132.0</DistanceMeters>
          <HeartRateBpm>
            <Value>110</Value>
          </HeartRateBpm>
          <SensorState>Absent</SensorState>
        </Trackpoint>
        <Trackpoint>
          <Time>2025-12-11T05:01:30Z</Time>
              <Position>
                  <LatitudeDegrees>24.45675509</LatitudeDegrees>
                  <LongitudeDegrees>118.0770751</LongitudeDegrees>
              </Position>
          <AltitudeMeters>13</AltitudeMeters>
          <DistanceMeters>133.0</DistanceMeters>
          <HeartRateBpm>
            <Value>112</Value>
          </HeartRateBpm>
          <SensorState>Absent</SensorState>
        </Trackpoint>
        <Trackpoint>
          <Time>2025-12-11T05:01:34Z</Time>
              <Position>
                  <LatitudeDegrees>24.45675226</LatitudeDegrees>
                  <LongitudeDegrees>118.07706226</LongitudeDegrees>
              </Position>
          <AltitudeMeters>13</AltitudeMeters>
          <DistanceMeters>134.0</DistanceMeters>
          <HeartRateBpm>
            <Value>112</Value>
          </HeartRateBpm>
          <SensorState>Absent</SensorState>
        </Trackpoint>
        <Trackpoint>
          <Time>2025-12-11T05:01:34Z</Time>
              <Position>
                  <LatitudeDegrees>24.45675161</LatitudeDegrees>
                  <LongitudeDegrees>118.07704988</LongitudeDegrees>
              </Position>
          <AltitudeMeters>13</AltitudeMeters>
          <DistanceMeters>135.0</DistanceMeters>
          <HeartRateBpm>
            <Value>112</Value>
          </HeartRateBpm>
          <SensorState>Absent</SensorState>
        </Trackpoint>
        <Trackpoint>
          <Time>2025-12-11T05:01:35Z</Time>
              <Position>
                  <LatitudeDegrees>24.45675016</LatitudeDegrees>
                  <LongitudeDegrees>118.07703767</LongitudeDegrees>
              </Position>
          <AltitudeMeters>13</AltitudeMeters>
          <DistanceMeters>136.0</DistanceMeters>
          <HeartRateBpm>
            <Value>112</Value>
          </HeartRateBpm>
          <SensorState>Absent</SensorState>
        </Trackpoint>
        <Trackpoint>
          <Time>2025-12-11T05:01:35Z</Time>
              <Position>
                  <LatitudeDegrees>24.45674894</LatitudeDegrees>
                  <LongitudeDegrees>118.07702655</LongitudeDegrees>
              </Position>
          <AltitudeMeters>13</AltitudeMeters>
          <DistanceMeters>137.0</DistanceMeters>
          <HeartRateBpm>
            <Value>112</Value>
          </HeartRateBpm>
          <SensorState>Absent</SensorState>
        </Trackpoint>
        <Trackpoint>
          <Time>2025-12-11T05:01:35Z</Time>
              <Position>
                  <LatitudeDegrees>24.45674818</LatitudeDegrees>
                  <LongitudeDegrees>118.07701448</LongitudeDegrees>
              </Position>
          <AltitudeMeters>14</AltitudeMeters>
          <DistanceMeters>138.0</DistanceMeters>
          <HeartRateBpm>
            <Value>112</Value>
          </HeartRateBpm>
          <SensorState>Absent</SensorState>
        </Trackpoint>
        <Trackpoint>
          <Time>2025-12-11T05:01:35Z</Time>
              <Position>
                  <LatitudeDegrees>24.45674603</LatitudeDegrees>
                  <LongitudeDegrees>118.07700252</LongitudeDegrees>
              </Position>
          <AltitudeMeters>14</AltitudeMeters>
          <DistanceMeters>139.0</DistanceMeters>
          <HeartRateBpm>
            <Value>112</Value>
          </HeartRateBpm>
          <SensorState>Absent</SensorState>
        </Trackpoint>
        <Trackpoint>
          <Time>2025-12-11T05:01:40Z</Time>
              <Position>
                  <LatitudeDegrees>24.45674545</LatitudeDegrees>
                  <LongitudeDegrees>118.07699057</LongitudeDegrees>
              </Position>
          <AltitudeMeters>14</AltitudeMeters>
          <DistanceMeters>140.0</DistanceMeters>
          <HeartRateBpm>
            <Value>112</Value>
          </HeartRateBpm>
          <SensorState>Absent</SensorState>
        </Trackpoint>
        <Trackpoint>
          <Time>2025-12-11T05:01:48Z</Time>
              <Position>
                  <LatitudeDegrees>24.45674368</LatitudeDegrees>
                  <LongitudeDegrees>118.07698076</LongitudeDegrees>
              </Position>
          <AltitudeMeters>13</AltitudeMeters>
          <DistanceMeters>141.0</DistanceMeters>
          <HeartRateBpm>
            <Value>112</Value>
          </HeartRateBpm>
          <SensorState>Absent</SensorState>
        </Trackpoint>
        <Trackpoint>
          <Time>2025-12-11T05:01:52Z</Time>
              <Position>
                  <LatitudeDegrees>24.45674372</LatitudeDegrees>
                  <LongitudeDegrees>118.07697014</LongitudeDegrees>
              </Position>
          <AltitudeMeters>14</AltitudeMeters>
          <DistanceMeters>142.0</DistanceMeters>
          <HeartRateBpm>
            <Value>111</Value>
          </HeartRateBpm>
          <SensorState>Absent</SensorState>
        </Trackpoint>
        <Trackpoint>
          <Time>2025-12-11T05:02:01Z</Time>
              <Position>
                  <LatitudeDegrees>24.45674307</LatitudeDegrees>
                  <LongitudeDegrees>118.0769592</LongitudeDegrees>
              </Position>
          <AltitudeMeters>13</AltitudeMeters>
          <DistanceMeters>143.0</DistanceMeters>
          <HeartRateBpm>
            <Value>111</Value>
          </HeartRateBpm>
          <Cadence><Value>93</Value></Cadence>
          <SensorState>Absent</SensorState>
        </Trackpoint>
        <Trackpoint>
          <Time>2025-12-11T05:02:09Z</Time>
              <Position>
                  <LatitudeDegrees>24.45674363</LatitudeDegrees>
                  <LongitudeDegrees>118.07694773</LongitudeDegrees>
              </Position>
          <AltitudeMeters>13</AltitudeMeters>
          <DistanceMeters>144.0</DistanceMeters>
          <HeartRateBpm>
            <Value>118</Value>
          </HeartRateBpm>
          <SensorState>Absent</SensorState>
        </Trackpoint>
        <Trackpoint>
          <Time>2025-12-11T05:02:13Z</Time>
              <Position>
                  <LatitudeDegrees>24.456742</LatitudeDegrees>
                  <LongitudeDegrees>118.07693585</LongitudeDegrees>
              </Position>
          <AltitudeMeters>12</AltitudeMeters>
          <DistanceMeters>145.0</DistanceMeters>
          <HeartRateBpm>
            <Value>119</Value>
          </HeartRateBpm>
          <SensorState>Absent</SensorState>
        </Trackpoint>
        <Trackpoint>
          <Time>2025-12-11T05:02:21Z</Time>
              <Position>
                  <LatitudeDegrees>24.45674178</LatitudeDegrees>
                  <LongitudeDegrees>118.07692358</LongitudeDegrees>
              </Position>
          <AltitudeMeters>12</AltitudeMeters>
          <DistanceMeters>146.0</DistanceMeters>
          <HeartRateBpm>
            <Value>114</Value>
          </HeartRateBpm>
          <SensorState>Absent</SensorState>
        </Trackpoint>
        <Trackpoint>
          <Time>2025-12-11T05:02:25Z</Time>
              <Position>
                  <LatitudeDegrees>24.45674227</LatitudeDegrees>
                  <LongitudeDegrees>118.07691106</LongitudeDegrees>
              </Position>
          <AltitudeMeters>13</AltitudeMeters>
          <DistanceMeters>147.0</DistanceMeters>
          <HeartRateBpm>
            <Value>112</Value>
          </HeartRateBpm>
          <SensorState>Absent</SensorState>
        </Trackpoint>
        <Trackpoint>
          <Time>2025-12-11T05:02:34Z</Time>
              <Position>
                  <LatitudeDegrees>24.45674257</LatitudeDegrees>
                  <LongitudeDegrees>118.07689919</LongitudeDegrees>
              </Position>
          <AltitudeMeters>13</AltitudeMeters>
          <DistanceMeters>148.0</DistanceMeters>
          <HeartRateBpm>
            <Value>110</Value>
          </HeartRateBpm>
          <SensorState>Absent</SensorState>
        </Trackpoint>
        <Trackpoint>
          <Time>2025-12-11T05:02:38Z</Time>
              <Position>
                  <LatitudeDegrees>24.45674132</LatitudeDegrees>
                  <LongitudeDegrees>118.07688568</LongitudeDegrees>
              </Position>
          <AltitudeMeters>13</AltitudeMeters>
          <DistanceMeters>149.0</DistanceMeters>
          <HeartRateBpm>
            <Value>110</Value>
          </HeartRateBpm>
          <SensorState>Absent</SensorState>
        </Trackpoint>
        <Trackpoint>
          <Time>2025-12-11T05:02:46Z</Time>
              <Position>
                  <LatitudeDegrees>24.45673974</LatitudeDegrees>
                  <LongitudeDegrees>118.07687097</LongitudeDegrees>
              </Position>
          <AltitudeMeters>14</AltitudeMeters>
          <DistanceMeters>151.0</DistanceMeters>
          <HeartRateBpm>
            <Value>113</Value>
          </HeartRateBpm>
          <SensorState>Absent</SensorState>
        </Trackpoint>
        <Trackpoint>
          <Time>2025-12-11T05:02:54Z</Time>
              <Position>
                  <LatitudeDegrees>24.4567383</LatitudeDegrees>
                  <LongitudeDegrees>118.07685726</LongitudeDegrees>
              </Position>
          <AltitudeMeters>14</AltitudeMeters>
          <DistanceMeters>152.0</DistanceMeters>
          <HeartRateBpm>
            <Value>116</Value>
          </HeartRateBpm>
          <SensorState>Absent</SensorState>
        </Trackpoint>
        <Trackpoint>
          <Time>2025-12-11T05:03:02Z</Time>
              <Position>
                  <LatitudeDegrees>24.45673718</LatitudeDegrees>
                  <LongitudeDegrees>118.07684363</LongitudeDegrees>
              </Position>
          <AltitudeMeters>15</AltitudeMeters>
          <DistanceMeters>153.0</DistanceMeters>
          <HeartRateBpm>
            <Value>118</Value>
          </HeartRateBpm>
          <SensorState>Absent</SensorState>
        </Trackpoint>
        <Trackpoint>
          <Time>2025-12-11T05:03:06Z</Time>
              <Position>
                  <LatitudeDegrees>24.45673578</LatitudeDegrees>
                  <LongitudeDegrees>118.07682851</LongitudeDegrees>
              </Position>
          <AltitudeMeters>16</AltitudeMeters>
          <DistanceMeters>155.0</DistanceMeters>
          <HeartRateBpm>
            <Value>118</Value>
          </HeartRateBpm>
          <SensorState>Absent</SensorState>
        </Trackpoint>
        <Trackpoint>
          <Time>2025-12-11T05:03:07Z</Time>
              <Position>
                  <LatitudeDegrees>24.45673391</LatitudeDegrees>
                  <LongitudeDegrees>118.07681361</LongitudeDegrees>
              </Position>
          <AltitudeMeters>16</AltitudeMeters>
          <DistanceMeters>157.0</DistanceMeters>
          <HeartRateBpm>
            <Value>118</Value>
          </HeartRateBpm>
          <SensorState>Absent</SensorState>
        </Trackpoint>
        <Trackpoint>
          <Time>2025-12-11T05:03:07Z</Time>
              <Position>
                  <LatitudeDegrees>24.45673264</LatitudeDegrees>
                  <LongitudeDegrees>118.07680089</LongitudeDegrees>
              </Position>
          <AltitudeMeters>16</AltitudeMeters>
          <DistanceMeters>158.0</DistanceMeters>
          <HeartRateBpm>
            <Value>118</Value>
          </HeartRateBpm>
          <SensorState>Absent</SensorState>
        </Trackpoint>
        <Trackpoint>
          <Time>2025-12-11T05:03:07Z</Time>
              <Position>
                  <LatitudeDegrees>24.45673024</LatitudeDegrees>
                  <LongitudeDegrees>118.07678884</LongitudeDegrees>
              </Position>
          <AltitudeMeters>16</AltitudeMeters>
          <DistanceMeters>159.0</DistanceMeters>
          <HeartRateBpm>
            <Value>118</Value>
          </HeartRateBpm>
          <SensorState>Absent</SensorState>
        </Trackpoint>
        <Trackpoint>
          <Time>2025-12-11T05:03:07Z</Time>
              <Position>
                  <LatitudeDegrees>24.45672899</LatitudeDegrees>
                  <LongitudeDegrees>118.07677665</LongitudeDegrees>
              </Position>
          <AltitudeMeters>17</AltitudeMeters>
          <DistanceMeters>160.0</DistanceMeters>
          <HeartRateBpm>
            <Value>118</Value>
          </HeartRateBpm>
          <SensorState>Absent</SensorState>
        </Trackpoint>
        <Trackpoint>
          <Time>2025-12-11T05:03:07Z</Time>
              <Position>
                  <LatitudeDegrees>24.45672788</LatitudeDegrees>
                  <LongitudeDegrees>118.07676486</LongitudeDegrees>
              </Position>
          <AltitudeMeters>17</AltitudeMeters>
          <DistanceMeters>161.0</DistanceMeters>
          <HeartRateBpm>
            <Value>118</Value>
          </HeartRateBpm>
          <SensorState>Absent</SensorState>
        </Trackpoint>
        <Trackpoint>
          <Time>2025-12-11T05:03:07Z</Time>
              <Position>
                  <LatitudeDegrees>24.45672651</LatitudeDegrees>
                  <LongitudeDegrees>118.07675128</LongitudeDegrees>
              </Position>
          <AltitudeMeters>17</AltitudeMeters>
          <DistanceMeters>162.0</DistanceMeters>
          <HeartRateBpm>
            <Value>118</Value>
          </HeartRateBpm>
          <SensorState>Absent</SensorState>
        </Trackpoint>
        <Trackpoint>
          <Time>2025-12-11T05:03:07Z</Time>
              <Position>
                  <LatitudeDegrees>24.45672785</LatitudeDegrees>
                  <LongitudeDegrees>118.07673952</LongitudeDegrees>
              </Position>
          <AltitudeMeters>17</AltitudeMeters>
          <DistanceMeters>163.0</DistanceMeters>
          <HeartRateBpm>
            <Value>118</Value>
          </HeartRateBpm>
          <SensorState>Absent</SensorState>
        </Trackpoint>
        <Trackpoint>
          <Time>2025-12-11T05:03:07Z</Time>
              <Position>
                  <LatitudeDegrees>24.4567272</LatitudeDegrees>
                  <LongitudeDegrees>118.07672796</LongitudeDegrees>
              </Position>
          <AltitudeMeters>18</AltitudeMeters>
          <DistanceMeters>164.0</DistanceMeters>
          <HeartRateBpm>
            <Value>118</Value>
          </HeartRateBpm>
          <SensorState>Absent</SensorState>
        </Trackpoint>
        <Trackpoint>
          <Time>2025-12-11T05:03:08Z</Time>
              <Position>
                  <LatitudeDegrees>24.45672552</LatitudeDegrees>
                  <LongitudeDegrees>118.07671566</LongitudeDegrees>
              </Position>
          <AltitudeMeters>18</AltitudeMeters>
          <DistanceMeters>165.0</DistanceMeters>
          <HeartRateBpm>
            <Value>118</Value>
          </HeartRateBpm>
          <SensorState>Absent</SensorState>
        </Trackpoint>
        <Trackpoint>
          <Time>2025-12-11T05:03:08Z</Time>
              <Position>
                  <LatitudeDegrees>24.45672304</LatitudeDegrees>
                  <LongitudeDegrees>118.07670339</LongitudeDegrees>
              </Position>
          <AltitudeMeters>18</AltitudeMeters>
          <DistanceMeters>166.0</DistanceMeters>
          <HeartRateBpm>
            <Value>118</Value>
          </HeartRateBpm>
          <SensorState>Absent</SensorState>
        </Trackpoint>
        <Trackpoint>
          <Time>2025-12-11T05:03:12Z</Time>
              <Position>
                  <LatitudeDegrees>24.45672087</LatitudeDegrees>
                  <LongitudeDegrees>118.07669143</LongitudeDegrees>
              </Position>
          <AltitudeMeters>19</AltitudeMeters>
          <DistanceMeters>167.0</DistanceMeters>
          <HeartRateBpm>
            <Value>118</Value>
          </HeartRateBpm>
          <SensorState>Absent</SensorState>
        </Trackpoint>
        <Trackpoint>
          <Time>2025-12-11T05:03:20Z</Time>
              <Position>
                  <LatitudeDegrees>24.45671956</LatitudeDegrees>
                  <LongitudeDegrees>118.07668019</LongitudeDegrees>
              </Position>
          <AltitudeMeters>18</AltitudeMeters>
          <DistanceMeters>168.0</DistanceMeters>
          <HeartRateBpm>
            <Value>119</Value>
          </HeartRateBpm>
          <SensorState>Absent</SensorState>
        </Trackpoint>
        <Trackpoint>
          <Time>2025-12-11T05:03:28Z</Time>
              <Position>
                  <LatitudeDegrees>24.45671777</LatitudeDegrees>
                  <LongitudeDegrees>118.07666764</LongitudeDegrees>
              </Position>
          <AltitudeMeters>19</AltitudeMeters>
          <DistanceMeters>169.0</DistanceMeters>
          <HeartRateBpm>
            <Value>123</Value>
          </HeartRateBpm>
          <SensorState>Absent</SensorState>
        </Trackpoint>
        <Trackpoint>
          <Time>2025-12-11T05:03:40Z</Time>
              <Position>
                  <LatitudeDegrees>24.45671617</LatitudeDegrees>
                  <LongitudeDegrees>118.07665741</LongitudeDegrees>
              </Position>
          <AltitudeMeters>19</AltitudeMeters>
          <DistanceMeters>170.0</DistanceMeters>
          <HeartRateBpm>
            <Value>123</Value>
          </HeartRateBpm>
          <SensorState>Absent</SensorState>
        </Trackpoint>
	  </Track>
      </Lap>
      </Activity>
  </Activities>

</TrainingCenterDatabase>