<?xml version="1.0" encoding="UTF-8" standalone="no" ?>
<TrainingCenterDatabase xmlns="http://www.garmin.com/xmlschemas/TrainingCenterDatabase/v2" xmlns:xsi="http://www.w3.org/2001/XMLSchema-instance" xsi:schemaLocation="http://www.garmin.com/xmlschemas/TrainingCenterDatabase/v2 http://www.garmin.com/xmlschemas/TrainingCenterDatabasev2.xsd">
  <Activities>
    <Activity Sport="Other">
      <Id>2026-04-15T04:35:25Z</Id>
      <Notes>健走</Notes>
      <Lap StartTime="2026-04-15T04:35:25Z">
        <TotalTimeSeconds>2363</TotalTimeSeconds>
        <DistanceMeters>2146</DistanceMeters>
        <Calories>248</Calories>
        <AverageHeartRateBpm>
          <Value>105</Value>
        </AverageHeartRateBpm>
        <MaximumHeartRateBpm>
          <Value>140</Value>
        </MaximumHeartRateBpm>
        <Intensity>Active</Intensity>
        <TriggerMethod>Manual</TriggerMethod>	  <Track>
        <Trackpoint>
          <Time>2026-04-15T04:35:25Z</Time>
              <Position>
                  <LatitudeDegrees>30.5635041</LatitudeDegrees>
                  <LongitudeDegrees>104.04919294</LongitudeDegrees>
              </Position>
          <AltitudeMeters>480</AltitudeMeters>
          <DistanceMeters>0.0</DistanceMeters>
          <HeartRateBpm>
            <Value>85</Value>
          </HeartRateBpm>
          <Cadence><Value>74</Value></Cadence>
          <SensorState>Absent</SensorState>
        </Trackpoint>
        <Trackpoint>
          <Time>2026-04-15T04:35:27Z</Time>
              <Position>
                  <LatitudeDegrees>30.56352407</LatitudeDegrees>
                  <LongitudeDegrees>104.0492829</LongitudeDegrees>
              </Position>
          <AltitudeMeters>461</AltitudeMeters>
          <DistanceMeters>8.4</DistanceMeters>
          <HeartRateBpm>
            <Value>85</Value>
          </HeartRateBpm>
          <Cadence><Value>74</Value></Cadence>
          <SensorState>Absent</SensorState>
        </Trackpoint>
        <Trackpoint>
          <Time>2026-04-15T04:35:28Z</Time>
              <Position>
                  <LatitudeDegrees>30.56348218</LatitudeDegrees>
                  <LongitudeDegrees>104.0494071</LongitudeDegrees>
              </Position>
          <AltitudeMeters>442</AltitudeMeters>
          <DistanceMeters>20.4</DistanceMeters>
          <HeartRateBpm>
            <Value>85</Value>
          </HeartRateBpm>
          <Cadence><Value>74</Value></Cadence>
          <SensorState>Absent</SensorState>
        </Trackpoint>
        <Trackpoint>
          <Time>2026-04-15T04:35:29Z</Time>
              <Position>
                  <LatitudeDegrees>30.56350181</LatitudeDegrees>
                  <LongitudeDegrees>104.04939101</LongitudeDegrees>
              </Position>
          <AltitudeMeters>443</AltitudeMeters>
          <DistanceMeters>23.2</DistanceMeters>
          <HeartRateBpm>
            <Value>85</Value>
          </HeartRateBpm>
          <Cadence><Value>74</Value></Cadence>
          <SensorState>Absent</SensorState>
        </Trackpoint>
        <Trackpoint>
          <Time>2026-04-15T04:35:30Z</Time>
              <Position>
                  <LatitudeDegrees>30.56351489</LatitudeDegrees>
                  <LongitudeDegrees>104.04938508</LongitudeDegrees>
              </Position>
          <AltitudeMeters>444</AltitudeMeters>
          <DistanceMeters>25.1</DistanceMeters>
          <HeartRateBpm>
            <Value>85</Value>
          </HeartRateBpm>
          <Cadence><Value>74</Value></Cadence>
          <SensorState>Absent</SensorState>
        </Trackpoint>
        <Trackpoint>
          <Time>2026-04-15T04:35:31Z</Time>
              <Position>
                  <LatitudeDegrees>30.56353466</LatitudeDegrees>
                  <LongitudeDegrees>104.04938701</LongitudeDegrees>
              </Position>
          <AltitudeMeters>443</AltitudeMeters>
          <DistanceMeters>26.9</DistanceMeters>
          <HeartRateBpm>
            <Value>85</Value>
          </HeartRateBpm>
          <Cadence><Value>74</Value></Cadence>
          <SensorState>Absent</SensorState>
        </Trackpoint>
        <Trackpoint>
          <Time>2026-04-15T04:35:32Z</Time>
              <Position>
                  <LatitudeDegrees>30.56355112</LatitudeDegrees>
                  <LongitudeDegrees>104.04937924</LongitudeDegrees>
              </Position>
          <AltitudeMeters>444</AltitudeMeters>
          <DistanceMeters>28.8</DistanceMeters>
          <HeartRateBpm>
            <Value>87</Value>
          </HeartRateBpm>
          <Cadence><Value>74</Value></Cadence>
          <SensorState>Absent</SensorState>
        </Trackpoint>
        <Trackpoint>
          <Time>2026-04-15T04:35:33Z</Time>
              <Position>
                  <LatitudeDegrees>30.56356451</LatitudeDegrees>
                  <LongitudeDegrees>104.04938022</LongitudeDegrees>
              </Position>
          <AltitudeMeters>444</AltitudeMeters>
          <DistanceMeters>29.7</DistanceMeters>
          <HeartRateBpm>
            <Value>87</Value>
          </HeartRateBpm>
          <Cadence><Value>74</Value></Cadence>
          <SensorState>Absent</SensorState>
        </Trackpoint>
        <Trackpoint>
          <Time>2026-04-15T04:35:34Z</Time>
              <Position>
                  <LatitudeDegrees>30.56357906</LatitudeDegrees>
                  <LongitudeDegrees>104.04938281</LongitudeDegrees>
              </Position>
          <AltitudeMeters>444</AltitudeMeters>
          <DistanceMeters>31.6</DistanceMeters>
          <HeartRateBpm>
            <Value>87</Value>
          </HeartRateBpm>
          <Cadence><Value>74</Value></Cadence>
          <SensorState>Absent</SensorState>
        </Trackpoint>
        <Trackpoint>
          <Time>2026-04-15T04:35:35Z</Time>
              <Position>
                  <LatitudeDegrees>30.56359426</LatitudeDegrees>
                  <LongitudeDegrees>104.0493829</LongitudeDegrees>
              </Position>
          <AltitudeMeters>445</AltitudeMeters>
          <DistanceMeters>33.4</DistanceMeters>
          <HeartRateBpm>
            <Value>87</Value>
          </HeartRateBpm>
          <Cadence><Value>74</Value></Cadence>
          <SensorState>Absent</SensorState>
        </Trackpoint>
        <Trackpoint>
          <Time>2026-04-15T04:35:36Z</Time>
              <Position>
                  <LatitudeDegrees>30.56360766</LatitudeDegrees>
                  <LongitudeDegrees>104.0493824</LongitudeDegrees>
              </Position>
          <AltitudeMeters>446</AltitudeMeters>
          <DistanceMeters>34.4</DistanceMeters>
          <HeartRateBpm>
            <Value>87</Value>
          </HeartRateBpm>
          <Cadence><Value>74</Value></Cadence>
          <SensorState>Absent</SensorState>
        </Trackpoint>
        <Trackpoint>
          <Time>2026-04-15T04:35:37Z</Time>
              <Position>
                  <LatitudeDegrees>30.56362036</LatitudeDegrees>
                  <LongitudeDegrees>104.04938343</LongitudeDegrees>
              </Position>
          <AltitudeMeters>445</AltitudeMeters>
          <DistanceMeters>35.3</DistanceMeters>
          <HeartRateBpm>
            <Value>88</Value>
          </HeartRateBpm>
          <Cadence><Value>74</Value></Cadence>
          <SensorState>Absent</SensorState>
        </Trackpoint>
        <Trackpoint>
          <Time>2026-04-15T04:35:38Z</Time>
              <Position>
                  <LatitudeDegrees>30.56363244</LatitudeDegrees>
                  <LongitudeDegrees>104.04938588</LongitudeDegrees>
              </Position>
          <AltitudeMeters>445</AltitudeMeters>
          <DistanceMeters>36.2</DistanceMeters>
          <HeartRateBpm>
            <Value>91</Value>
          </HeartRateBpm>
          <Cadence><Value>74</Value></Cadence>
          <SensorState>Absent</SensorState>
        </Trackpoint>
        <Trackpoint>
          <Time>2026-04-15T04:35:39Z</Time>
              <Position>
                  <LatitudeDegrees>30.56364428</LatitudeDegrees>
                  <LongitudeDegrees>104.04938779</LongitudeDegrees>
              </Position>
          <AltitudeMeters>445</AltitudeMeters>
          <DistanceMeters>37.1</DistanceMeters>
          <HeartRateBpm>
            <Value>92</Value>
          </HeartRateBpm>
          <Cadence><Value>74</Value></Cadence>
          <SensorState>Absent</SensorState>
        </Trackpoint>
        <Trackpoint>
          <Time>2026-04-15T04:35:40Z</Time>
              <Position>
                  <LatitudeDegrees>30.56365634</LatitudeDegrees>
                  <LongitudeDegrees>104.04938811</LongitudeDegrees>
              </Position>
          <AltitudeMeters>445</AltitudeMeters>
          <DistanceMeters>38.1</DistanceMeters>
          <HeartRateBpm>
            <Value>93</Value>
          </HeartRateBpm>
          <Cadence><Value>74</Value></Cadence>
          <SensorState>Absent</SensorState>
        </Trackpoint>
        <Trackpoint>
          <Time>2026-04-15T04:35:41Z</Time>
              <Position>
                  <LatitudeDegrees>30.56366829</LatitudeDegrees>
                  <LongitudeDegrees>104.04938659</LongitudeDegrees>
              </Position>
          <AltitudeMeters>445</AltitudeMeters>
          <DistanceMeters>39.0</DistanceMeters>
          <HeartRateBpm>
            <Value>93</Value>
          </HeartRateBpm>
          <Cadence><Value>74</Value></Cadence>
          <SensorState>Absent</SensorState>
        </Trackpoint>
        <Trackpoint>
          <Time>2026-04-15T04:35:42Z</Time>
              <Position>
                  <LatitudeDegrees>30.56368035</LatitudeDegrees>
                  <LongitudeDegrees>104.04938491</LongitudeDegrees>
              </Position>
          <AltitudeMeters>445</AltitudeMeters>
          <DistanceMeters>39.9</DistanceMeters>
          <HeartRateBpm>
            <Value>92</Value>
          </HeartRateBpm>
          <Cadence><Value>74</Value></Cadence>
          <SensorState>Absent</SensorState>
        </Trackpoint>
        <Trackpoint>
          <Time>2026-04-15T04:35:43Z</Time>
              <Position>
                  <LatitudeDegrees>30.56369227</LatitudeDegrees>
                  <LongitudeDegrees>104.04938166</LongitudeDegrees>
              </Position>
          <AltitudeMeters>446</AltitudeMeters>
          <DistanceMeters>40.9</DistanceMeters>
          <HeartRateBpm>
            <Value>91</Value>
          </HeartRateBpm>
          <Cadence><Value>74</Value></Cadence>
          <SensorState>Absent</SensorState>
        </Trackpoint>
        <Trackpoint>
          <Time>2026-04-15T04:35:44Z</Time>
              <Position>
                  <LatitudeDegrees>30.56370349</LatitudeDegrees>
                  <LongitudeDegrees>104.04937831</LongitudeDegrees>
              </Position>
          <AltitudeMeters>446</AltitudeMeters>
          <DistanceMeters>41.8</DistanceMeters>
          <HeartRateBpm>
            <Value>89</Value>
          </HeartRateBpm>
          <Cadence><Value>74</Value></Cadence>
          <SensorState>Absent</SensorState>
        </Trackpoint>
        <Trackpoint>
          <Time>2026-04-15T04:35:45Z</Time>
              <Position>
                  <LatitudeDegrees>30.56371418</LatitudeDegrees>
                  <LongitudeDegrees>104.04937548</LongitudeDegrees>
              </Position>
          <AltitudeMeters>445</AltitudeMeters>
          <DistanceMeters>42.7</DistanceMeters>
          <HeartRateBpm>
            <Value>89</Value>
          </HeartRateBpm>
          <Cadence><Value>74</Value></Cadence>
          <SensorState>Absent</SensorState>
        </Trackpoint>
        <Trackpoint>
          <Time>2026-04-15T04:35:46Z</Time>
              <Position>
                  <LatitudeDegrees>30.56372485</LatitudeDegrees>
                  <LongitudeDegrees>104.04937244</LongitudeDegrees>
              </Position>
          <AltitudeMeters>445</AltitudeMeters>
          <DistanceMeters>43.6</DistanceMeters>
          <HeartRateBpm>
            <Value>88</Value>
          </HeartRateBpm>
          <Cadence><Value>74</Value></Cadence>
          <SensorState>Absent</SensorState>
        </Trackpoint>
        <Trackpoint>
          <Time>2026-04-15T04:35:47Z</Time>
              <Position>
                  <LatitudeDegrees>30.56373598</LatitudeDegrees>
                  <LongitudeDegrees>104.0493703</LongitudeDegrees>
              </Position>
          <AltitudeMeters>445</AltitudeMeters>
          <DistanceMeters>44.6</DistanceMeters>
          <HeartRateBpm>
            <Value>90</Value>
          </HeartRateBpm>
          <Cadence><Value>74</Value></Cadence>
          <SensorState>Absent</SensorState>
        </Trackpoint>
        <Trackpoint>
          <Time>2026-04-15T04:35:48Z</Time>
              <Position>
                  <LatitudeDegrees>30.56374772</LatitudeDegrees>
                  <LongitudeDegrees>104.04936868</LongitudeDegrees>
              </Position>
          <AltitudeMeters>446</AltitudeMeters>
          <DistanceMeters>45.5</DistanceMeters>
          <HeartRateBpm>
            <Value>91</Value>
          </HeartRateBpm>
          <Cadence><Value>74</Value></Cadence>
          <SensorState>Absent</SensorState>
        </Trackpoint>
        <Trackpoint>
          <Time>2026-04-15T04:35:49Z</Time>
              <Position>
                  <LatitudeDegrees>30.5637599</LatitudeDegrees>
                  <LongitudeDegrees>104.04936712</LongitudeDegrees>
              </Position>
          <AltitudeMeters>447</AltitudeMeters>
          <DistanceMeters>46.4</DistanceMeters>
          <HeartRateBpm>
            <Value>91</Value>
          </HeartRateBpm>
          <Cadence><Value>74</Value></Cadence>
          <SensorState>Absent</SensorState>
        </Trackpoint>
        <Trackpoint>
          <Time>2026-04-15T04:35:50Z</Time>
              <Position>
                  <LatitudeDegrees>30.5637718</LatitudeDegrees>
                  <LongitudeDegrees>104.04936638</LongitudeDegrees>
              </Position>
          <AltitudeMeters>447</AltitudeMeters>
          <DistanceMeters>47.4</DistanceMeters>
          <HeartRateBpm>
            <Value>92</Value>
          </HeartRateBpm>
          <Cadence><Value>74</Value></Cadence>
          <SensorState>Absent</SensorState>
        </Trackpoint>
        <Trackpoint>
          <Time>2026-04-15T04:35:51Z</Time>
              <Position>
                  <LatitudeDegrees>30.56378326</LatitudeDegrees>
                  <LongitudeDegrees>104.04936597</LongitudeDegrees>
              </Position>
          <AltitudeMeters>447</AltitudeMeters>
          <DistanceMeters>48.3</DistanceMeters>
          <HeartRateBpm>
            <Value>92</Value>
          </HeartRateBpm>
          <Cadence><Value>74</Value></Cadence>
          <SensorState>Absent</SensorState>
        </Trackpoint>
        <Trackpoint>
          <Time>2026-04-15T04:35:52Z</Time>
              <Position>
                  <LatitudeDegrees>30.56379468</LatitudeDegrees>
                  <LongitudeDegrees>104.04936558</LongitudeDegrees>
              </Position>
          <AltitudeMeters>447</AltitudeMeters>
          <DistanceMeters>49.2</DistanceMeters>
          <HeartRateBpm>
            <Value>91</Value>
          </HeartRateBpm>
          <Cadence><Value>74</Value></Cadence>
          <SensorState>Absent</SensorState>
        </Trackpoint>
        <Trackpoint>
          <Time>2026-04-15T04:35:53Z</Time>
              <Position>
                  <LatitudeDegrees>30.56380636</LatitudeDegrees>
                  <LongitudeDegrees>104.04936501</LongitudeDegrees>
              </Position>
          <AltitudeMeters>447</AltitudeMeters>
          <DistanceMeters>50.1</DistanceMeters>
          <HeartRateBpm>
            <Value>91</Value>
          </HeartRateBpm>
          <Cadence><Value>74</Value></Cadence>
          <SensorState>Absent</SensorState>
        </Trackpoint>
        <Trackpoint>
          <Time>2026-04-15T04:35:54Z</Time>
              <Position>
                  <LatitudeDegrees>30.56381797</LatitudeDegrees>
                  <LongitudeDegrees>104.04936551</LongitudeDegrees>
              </Position>
          <AltitudeMeters>447</AltitudeMeters>
          <DistanceMeters>51.1</DistanceMeters>
          <HeartRateBpm>
            <Value>91</Value>
          </HeartRateBpm>
          <Cadence><Value>74</Value></Cadence>
          <SensorState>Absent</SensorState>
        </Trackpoint>
        <Trackpoint>
          <Time>2026-04-15T04:35:55Z</Time>
              <Position>
                  <LatitudeDegrees>30.56382976</LatitudeDegrees>
                  <LongitudeDegrees>104.04936674</LongitudeDegrees>
              </Position>
          <AltitudeMeters>446</AltitudeMeters>
          <DistanceMeters>52.0</DistanceMeters>
          <HeartRateBpm>
            <Value>91</Value>
          </HeartRateBpm>
          <Cadence><Value>74</Value></Cadence>
          <SensorState>Absent</SensorState>
        </Trackpoint>
        <Trackpoint>
          <Time>2026-04-15T04:35:56Z</Time>
              <Position>
                  <LatitudeDegrees>30.56384096</LatitudeDegrees>
                  <LongitudeDegrees>104.04936796</LongitudeDegrees>
              </Position>
          <AltitudeMeters>446</AltitudeMeters>
          <DistanceMeters>52.9</DistanceMeters>
          <HeartRateBpm>
            <Value>91</Value>
          </HeartRateBpm>
          <Cadence><Value>74</Value></Cadence>
          <SensorState>Absent</SensorState>
        </Trackpoint>
        <Trackpoint>
          <Time>2026-04-15T04:35:57Z</Time>
              <Position>
                  <LatitudeDegrees>30.56385148</LatitudeDegrees>
                  <LongitudeDegrees>104.04936945</LongitudeDegrees>
              </Position>
          <AltitudeMeters>445</AltitudeMeters>
          <DistanceMeters>53.9</DistanceMeters>
          <HeartRateBpm>
            <Value>91</Value>
          </HeartRateBpm>
          <Cadence><Value>74</Value></Cadence>
          <SensorState>Absent</SensorState>
        </Trackpoint>
        <Trackpoint>
          <Time>2026-04-15T04:35:58Z</Time>
              <Position>
                  <LatitudeDegrees>30.56386173</LatitudeDegrees>
                  <LongitudeDegrees>104.04937077</LongitudeDegrees>
              </Position>
          <AltitudeMeters>444</AltitudeMeters>
          <DistanceMeters>54.8</DistanceMeters>
          <HeartRateBpm>
            <Value>90</Value>
          </HeartRateBpm>
          <Cadence><Value>74</Value></Cadence>
          <SensorState>Absent</SensorState>
        </Trackpoint>
        <Trackpoint>
          <Time>2026-04-15T04:35:59Z</Time>
              <Position>
                  <LatitudeDegrees>30.56387219</LatitudeDegrees>
                  <LongitudeDegrees>104.04937166</LongitudeDegrees>
              </Position>
          <AltitudeMeters>444</AltitudeMeters>
          <DistanceMeters>55.7</DistanceMeters>
          <HeartRateBpm>
            <Value>89</Value>
          </HeartRateBpm>
          <Cadence><Value>74</Value></Cadence>
          <SensorState>Absent</SensorState>
        </Trackpoint>
        <Trackpoint>
          <Time>2026-04-15T04:36:00Z</Time>
              <Position>
                  <LatitudeDegrees>30.56388309</LatitudeDegrees>
                  <LongitudeDegrees>104.04937307</LongitudeDegrees>
              </Position>
          <AltitudeMeters>444</AltitudeMeters>
          <DistanceMeters>56.6</DistanceMeters>
          <HeartRateBpm>
            <Value>88</Value>
          </HeartRateBpm>
          <Cadence><Value>111</Value></Cadence>
          <SensorState>Absent</SensorState>
        </Trackpoint>
        <Trackpoint>
          <Time>2026-04-15T04:36:01Z</Time>
              <Position>
                  <LatitudeDegrees>30.56389368</LatitudeDegrees>
                  <LongitudeDegrees>104.0493742</LongitudeDegrees>
              </Position>
          <AltitudeMeters>444</AltitudeMeters>
          <DistanceMeters>57.6</DistanceMeters>
          <HeartRateBpm>
            <Value>87</Value>
          </HeartRateBpm>
          <Cadence><Value>111</Value></Cadence>
          <SensorState>Absent</SensorState>
        </Trackpoint>
        <Trackpoint>
          <Time>2026-04-15T04:36:02Z</Time>
              <Position>
                  <LatitudeDegrees>30.56390447</LatitudeDegrees>
                  <LongitudeDegrees>104.04937514</LongitudeDegrees>
              </Position>
          <AltitudeMeters>444</AltitudeMeters>
          <DistanceMeters>58.5</DistanceMeters>
          <HeartRateBpm>
            <Value>87</Value>
          </HeartRateBpm>
          <Cadence><Value>111</Value></Cadence>
          <SensorState>Absent</SensorState>
        </Trackpoint>
        <Trackpoint>
          <Time>2026-04-15T04:36:03Z</Time>
              <Position>
                  <LatitudeDegrees>30.5639158</LatitudeDegrees>
                  <LongitudeDegrees>104.04937591</LongitudeDegrees>
              </Position>
          <AltitudeMeters>444</AltitudeMeters>
          <DistanceMeters>59.4</DistanceMeters>
          <HeartRateBpm>
            <Value>86</Value>
          </HeartRateBpm>
          <Cadence><Value>111</Value></Cadence>
          <SensorState>Absent</SensorState>
        </Trackpoint>
        <Trackpoint>
          <Time>2026-04-15T04:36:04Z</Time>
              <Position>
                  <LatitudeDegrees>30.56392639</LatitudeDegrees>
                  <LongitudeDegrees>104.04937639</LongitudeDegrees>
              </Position>
          <AltitudeMeters>444</AltitudeMeters>
          <DistanceMeters>60.4</DistanceMeters>
          <HeartRateBpm>
            <Value>86</Value>
          </HeartRateBpm>
          <Cadence><Value>111</Value></Cadence>
          <SensorState>Absent</SensorState>
        </Trackpoint>
        <Trackpoint>
          <Time>2026-04-15T04:36:05Z</Time>
              <Position>
                  <LatitudeDegrees>30.56393862</LatitudeDegrees>
                  <LongitudeDegrees>104.04937623</LongitudeDegrees>
              </Position>
          <AltitudeMeters>444</AltitudeMeters>
          <DistanceMeters>61.3</DistanceMeters>
          <HeartRateBpm>
            <Value>86</Value>
          </HeartRateBpm>
          <Cadence><Value>111</Value></Cadence>
          <SensorState>Absent</SensorState>
        </Trackpoint>
        <Trackpoint>
          <Time>2026-04-15T04:36:06Z</Time>
              <Position>
                  <LatitudeDegrees>30.56395349</LatitudeDegrees>
                  <LongitudeDegrees>104.04937469</LongitudeDegrees>
              </Position>
          <AltitudeMeters>444</AltitudeMeters>
          <DistanceMeters>63.1</DistanceMeters>
          <HeartRateBpm>
            <Value>86</Value>
          </HeartRateBpm>
          <Cadence><Value>111</Value></Cadence>
          <SensorState>Absent</SensorState>
        </Trackpoint>
        <Trackpoint>
          <Time>2026-04-15T04:36:07Z</Time>
              <Position>
                  <LatitudeDegrees>30.56396788</LatitudeDegrees>
                  <LongitudeDegrees>104.04936996</LongitudeDegrees>
              </Position>
          <AltitudeMeters>444</AltitudeMeters>
          <DistanceMeters>65.0</DistanceMeters>
          <HeartRateBpm>
            <Value>86</Value>
          </HeartRateBpm>
          <Cadence><Value>111</Value></Cadence>
          <SensorState>Absent</SensorState>
        </Trackpoint>
        <Trackpoint>
          <Time>2026-04-15T04:36:08Z</Time>
              <Position>
                  <LatitudeDegrees>30.56397846</LatitudeDegrees>
                  <LongitudeDegrees>104.04936501</LongitudeDegrees>
              </Position>
          <AltitudeMeters>445</AltitudeMeters>
          <DistanceMeters>65.9</DistanceMeters>
          <HeartRateBpm>
            <Value>87</Value>
          </HeartRateBpm>
          <Cadence><Value>111</Value></Cadence>
          <SensorState>Absent</SensorState>
        </Trackpoint>
        <Trackpoint>
          <Time>2026-04-15T04:36:09Z</Time>
              <Position>
                  <LatitudeDegrees>30.56398778</LatitudeDegrees>
                  <LongitudeDegrees>104.04936172</LongitudeDegrees>
              </Position>
          <AltitudeMeters>444</AltitudeMeters>
          <DistanceMeters>66.9</DistanceMeters>
          <HeartRateBpm>
            <Value>87</Value>
          </HeartRateBpm>
          <Cadence><Value>111</Value></Cadence>
          <SensorState>Absent</SensorState>
        </Trackpoint>
        <Trackpoint>
          <Time>2026-04-15T04:36:10Z</Time>
              <Position>
                  <LatitudeDegrees>30.56399732</LatitudeDegrees>
                  <LongitudeDegrees>104.04935784</LongitudeDegrees>
              </Position>
          <AltitudeMeters>444</AltitudeMeters>
          <DistanceMeters>67.8</DistanceMeters>
          <HeartRateBpm>
            <Value>87</Value>
          </HeartRateBpm>
          <Cadence><Value>111</Value></Cadence>
          <SensorState>Absent</SensorState>
        </Trackpoint>
        <Trackpoint>
          <Time>2026-04-15T04:36:11Z</Time>
              <Position>
                  <LatitudeDegrees>30.56400798</LatitudeDegrees>
                  <LongitudeDegrees>104.0493544</LongitudeDegrees>
              </Position>
          <AltitudeMeters>444</AltitudeMeters>
          <DistanceMeters>68.7</DistanceMeters>
          <HeartRateBpm>
            <Value>87</Value>
          </HeartRateBpm>
          <Cadence><Value>111</Value></Cadence>
          <SensorState>Absent</SensorState>
        </Trackpoint>
        <Trackpoint>
          <Time>2026-04-15T04:36:12Z</Time>
              <Position>
                  <LatitudeDegrees>30.56401944</LatitudeDegrees>
                  <LongitudeDegrees>104.04935007</LongitudeDegrees>
              </Position>
          <AltitudeMeters>444</AltitudeMeters>
          <DistanceMeters>69.6</DistanceMeters>
          <HeartRateBpm>
            <Value>88</Value>
          </HeartRateBpm>
          <Cadence><Value>111</Value></Cadence>
          <SensorState>Absent</SensorState>
        </Trackpoint>
        <Trackpoint>
          <Time>2026-04-15T04:36:13Z</Time>
              <Position>
                  <LatitudeDegrees>30.5640314</LatitudeDegrees>
                  <LongitudeDegrees>104.04934563</LongitudeDegrees>
              </Position>
          <AltitudeMeters>444</AltitudeMeters>
          <DistanceMeters>70.6</DistanceMeters>
          <HeartRateBpm>
            <Value>88</Value>
          </HeartRateBpm>
          <Cadence><Value>111</Value></Cadence>
          <SensorState>Absent</SensorState>
        </Trackpoint>
        <Trackpoint>
          <Time>2026-04-15T04:36:14Z</Time>
              <Position>
                  <LatitudeDegrees>30.5640439</LatitudeDegrees>
                  <LongitudeDegrees>104.04933959</LongitudeDegrees>
              </Position>
          <AltitudeMeters>445</AltitudeMeters>
          <DistanceMeters>72.4</DistanceMeters>
          <HeartRateBpm>
            <Value>88</Value>
          </HeartRateBpm>
          <Cadence><Value>111</Value></Cadence>
          <SensorState>Absent</SensorState>
        </Trackpoint>
        <Trackpoint>
          <Time>2026-04-15T04:36:15Z</Time>
              <Position>
                  <LatitudeDegrees>30.56405515</LatitudeDegrees>
                  <LongitudeDegrees>104.04933192</LongitudeDegrees>
              </Position>
          <AltitudeMeters>444</AltitudeMeters>
          <DistanceMeters>73.4</DistanceMeters>
          <HeartRateBpm>
            <Value>88</Value>
          </HeartRateBpm>
          <Cadence><Value>111</Value></Cadence>
          <SensorState>Absent</SensorState>
        </Trackpoint>
        <Trackpoint>
          <Time>2026-04-15T04:36:16Z</Time>
              <Position>
                  <LatitudeDegrees>30.56406551</LatitudeDegrees>
                  <LongitudeDegrees>104.04932275</LongitudeDegrees>
              </Position>
          <AltitudeMeters>444</AltitudeMeters>
          <DistanceMeters>74.3</DistanceMeters>
          <HeartRateBpm>
            <Value>88</Value>
          </HeartRateBpm>
          <Cadence><Value>111</Value></Cadence>
          <SensorState>Absent</SensorState>
        </Trackpoint>
        <Trackpoint>
          <Time>2026-04-15T04:36:17Z</Time>
              <Position>
                  <LatitudeDegrees>30.56407607</LatitudeDegrees>
                  <LongitudeDegrees>104.04931297</LongitudeDegrees>
              </Position>
          <AltitudeMeters>445</AltitudeMeters>
          <DistanceMeters>76.1</DistanceMeters>
          <HeartRateBpm>
            <Value>89</Value>
          </HeartRateBpm>
          <Cadence><Value>111</Value></Cadence>
          <SensorState>Absent</SensorState>
        </Trackpoint>
        <Trackpoint>
          <Time>2026-04-15T04:36:18Z</Time>
              <Position>
                  <LatitudeDegrees>30.5640854</LatitudeDegrees>
                  <LongitudeDegrees>104.04930287</LongitudeDegrees>
              </Position>
          <AltitudeMeters>445</AltitudeMeters>
          <DistanceMeters>77.1</DistanceMeters>
          <HeartRateBpm>
            <Value>89</Value>
          </HeartRateBpm>
          <Cadence><Value>111</Value></Cadence>
          <SensorState>Absent</SensorState>
        </Trackpoint>
        <Trackpoint>
          <Time>2026-04-15T04:36:19Z</Time>
              <Position>
                  <LatitudeDegrees>30.56409386</LatitudeDegrees>
                  <LongitudeDegrees>104.04929246</LongitudeDegrees>
              </Position>
          <AltitudeMeters>445</AltitudeMeters>
          <DistanceMeters>78.0</DistanceMeters>
          <HeartRateBpm>
            <Value>89</Value>
          </HeartRateBpm>
          <Cadence><Value>111</Value></Cadence>
          <SensorState>Absent</SensorState>
        </Trackpoint>
        <Trackpoint>
          <Time>2026-04-15T04:36:20Z</Time>
              <Position>
                  <LatitudeDegrees>30.56409995</LatitudeDegrees>
                  <LongitudeDegrees>104.04928278</LongitudeDegrees>
              </Position>
          <AltitudeMeters>445</AltitudeMeters>
          <DistanceMeters>78.9</DistanceMeters>
          <HeartRateBpm>
            <Value>90</Value>
          </HeartRateBpm>
          <Cadence><Value>111</Value></Cadence>
          <SensorState>Absent</SensorState>
        </Trackpoint>
        <Trackpoint>
          <Time>2026-04-15T04:36:21Z</Time>
              <Position>
                  <LatitudeDegrees>30.56410708</LatitudeDegrees>
                  <LongitudeDegrees>104.04927363</LongitudeDegrees>
              </Position>
          <AltitudeMeters>445</AltitudeMeters>
          <DistanceMeters>79.9</DistanceMeters>
          <HeartRateBpm>
            <Value>90</Value>
          </HeartRateBpm>
          <Cadence><Value>111</Value></Cadence>
          <SensorState>Absent</SensorState>
        </Trackpoint>
        <Trackpoint>
          <Time>2026-04-15T04:36:22Z</Time>
              <Position>
                  <LatitudeDegrees>30.56411418</LatitudeDegrees>
                  <LongitudeDegrees>104.04926445</LongitudeDegrees>
              </Position>
          <AltitudeMeters>445</AltitudeMeters>
          <DistanceMeters>80.8</DistanceMeters>
          <HeartRateBpm>
            <Value>90</Value>
          </HeartRateBpm>
          <Cadence><Value>111</Value></Cadence>
          <SensorState>Absent</SensorState>
        </Trackpoint>
        <Trackpoint>
          <Time>2026-04-15T04:36:23Z</Time>
              <Position>
                  <LatitudeDegrees>30.56411912</LatitudeDegrees>
                  <LongitudeDegrees>104.04925385</LongitudeDegrees>
              </Position>
          <AltitudeMeters>445</AltitudeMeters>
          <DistanceMeters>81.7</DistanceMeters>
          <HeartRateBpm>
            <Value>90</Value>
          </HeartRateBpm>
          <Cadence><Value>111</Value></Cadence>
          <SensorState>Absent</SensorState>
        </Trackpoint>
        <Trackpoint>
          <Time>2026-04-15T04:36:24Z</Time>
              <Position>
                  <LatitudeDegrees>30.56412214</LatitudeDegrees>
                  <LongitudeDegrees>104.04924091</LongitudeDegrees>
              </Position>
          <AltitudeMeters>444</AltitudeMeters>
          <DistanceMeters>82.6</DistanceMeters>
          <HeartRateBpm>
            <Value>89</Value>
          </HeartRateBpm>
          <Cadence><Value>111</Value></Cadence>
          <SensorState>Absent</SensorState>
        </Trackpoint>
        <Trackpoint>
          <Time>2026-04-15T04:36:25Z</Time>
              <Position>
                  <LatitudeDegrees>30.56412589</LatitudeDegrees>
                  <LongitudeDegrees>104.04922856</LongitudeDegrees>
              </Position>
          <AltitudeMeters>445</AltitudeMeters>
          <DistanceMeters>83.6</DistanceMeters>
          <HeartRateBpm>
            <Value>89</Value>
          </HeartRateBpm>
          <Cadence><Value>111</Value></Cadence>
          <SensorState>Absent</SensorState>
        </Trackpoint>
        <Trackpoint>
          <Time>2026-04-15T04:36:26Z</Time>
              <Position>
                  <LatitudeDegrees>30.56413391</LatitudeDegrees>
                  <LongitudeDegrees>104.04922042</LongitudeDegrees>
              </Position>
          <AltitudeMeters>444</AltitudeMeters>
          <DistanceMeters>84.5</DistanceMeters>
          <HeartRateBpm>
            <Value>89</Value>
          </HeartRateBpm>
          <Cadence><Value>111</Value></Cadence>
          <SensorState>Absent</SensorState>
        </Trackpoint>
        <Trackpoint>
          <Time>2026-04-15T04:36:27Z</Time>
              <Position>
                  <LatitudeDegrees>30.56414466</LatitudeDegrees>
                  <LongitudeDegrees>104.04921758</LongitudeDegrees>
              </Position>
          <AltitudeMeters>444</AltitudeMeters>
          <DistanceMeters>85.4</DistanceMeters>
          <HeartRateBpm>
            <Value>89</Value>
          </HeartRateBpm>
          <Cadence><Value>111</Value></Cadence>
          <SensorState>Absent</SensorState>
        </Trackpoint>
        <Trackpoint>
          <Time>2026-04-15T04:36:28Z</Time>
              <Position>
                  <LatitudeDegrees>30.5641557</LatitudeDegrees>
                  <LongitudeDegrees>104.04921799</LongitudeDegrees>
              </Position>
          <AltitudeMeters>444</AltitudeMeters>
          <DistanceMeters>86.4</DistanceMeters>
          <HeartRateBpm>
            <Value>89</Value>
          </HeartRateBpm>
          <Cadence><Value>111</Value></Cadence>
          <SensorState>Absent</SensorState>
        </Trackpoint>
        <Trackpoint>
          <Time>2026-04-15T04:36:29Z</Time>
              <Position>
                  <LatitudeDegrees>30.56416623</LatitudeDegrees>
                  <LongitudeDegrees>104.04921939</LongitudeDegrees>
              </Position>
          <AltitudeMeters>444</AltitudeMeters>
          <DistanceMeters>87.3</DistanceMeters>
          <HeartRateBpm>
            <Value>89</Value>
          </HeartRateBpm>
          <Cadence><Value>111</Value></Cadence>
          <SensorState>Absent</SensorState>
        </Trackpoint>
        <Trackpoint>
          <Time>2026-04-15T04:36:30Z</Time>
              <Position>
                  <LatitudeDegrees>30.56417661</LatitudeDegrees>
                  <LongitudeDegrees>104.04922045</LongitudeDegrees>
              </Position>
          <AltitudeMeters>444</AltitudeMeters>
          <DistanceMeters>88.2</DistanceMeters>
          <HeartRateBpm>
            <Value>90</Value>
          </HeartRateBpm>
          <Cadence><Value>111</Value></Cadence>
          <SensorState>Absent</SensorState>
        </Trackpoint>
        <Trackpoint>
          <Time>2026-04-15T04:36:31Z</Time>
              <Position>
                  <LatitudeDegrees>30.56418753</LatitudeDegrees>
                  <LongitudeDegrees>104.04922002</LongitudeDegrees>
              </Position>
          <AltitudeMeters>444</AltitudeMeters>
          <DistanceMeters>89.1</DistanceMeters>
          <HeartRateBpm>
            <Value>91</Value>
          </HeartRateBpm>
          <Cadence><Value>111</Value></Cadence>
          <SensorState>Absent</SensorState>
        </Trackpoint>
        <Trackpoint>
          <Time>2026-04-15T04:36:32Z</Time>
              <Position>
                  <LatitudeDegrees>30.56419832</LatitudeDegrees>
                  <LongitudeDegrees>104.04921906</LongitudeDegrees>
              </Position>
          <AltitudeMeters>444</AltitudeMeters>
          <DistanceMeters>90.1</DistanceMeters>
          <HeartRateBpm>
            <Value>92</Value>
          </HeartRateBpm>
          <Cadence><Value>111</Value></Cadence>
          <SensorState>Absent</SensorState>
        </Trackpoint>
        <Trackpoint>
          <Time>2026-04-15T04:36:33Z</Time>
              <Position>
                  <LatitudeDegrees>30.56420914</LatitudeDegrees>
                  <LongitudeDegrees>104.04921797</LongitudeDegrees>
              </Position>
          <AltitudeMeters>445</AltitudeMeters>
          <DistanceMeters>91.0</DistanceMeters>
          <HeartRateBpm>
            <Value>92</Value>
          </HeartRateBpm>
          <Cadence><Value>111</Value></Cadence>
          <SensorState>Absent</SensorState>
        </Trackpoint>
        <Trackpoint>
          <Time>2026-04-15T04:36:34Z</Time>
              <Position>
                  <LatitudeDegrees>30.56422045</LatitudeDegrees>
                  <LongitudeDegrees>104.04921797</LongitudeDegrees>
              </Position>
          <AltitudeMeters>444</AltitudeMeters>
          <DistanceMeters>91.9</DistanceMeters>
          <HeartRateBpm>
            <Value>92</Value>
          </HeartRateBpm>
          <Cadence><Value>111</Value></Cadence>
          <SensorState>Absent</SensorState>
        </Trackpoint>
        <Trackpoint>
          <Time>2026-04-15T04:36:35Z</Time>
              <Position>
                  <LatitudeDegrees>30.56423264</LatitudeDegrees>
                  <LongitudeDegrees>104.04921855</LongitudeDegrees>
              </Position>
          <AltitudeMeters>445</AltitudeMeters>
          <DistanceMeters>92.9</DistanceMeters>
          <HeartRateBpm>
            <Value>91</Value>
          </HeartRateBpm>
          <Cadence><Value>111</Value></Cadence>
          <SensorState>Absent</SensorState>
        </Trackpoint>
        <Trackpoint>
          <Time>2026-04-15T04:36:36Z</Time>
              <Position>
                  <LatitudeDegrees>30.56424502</LatitudeDegrees>
                  <LongitudeDegrees>104.04921896</LongitudeDegrees>
              </Position>
          <AltitudeMeters>444</AltitudeMeters>
          <DistanceMeters>93.8</DistanceMeters>
          <HeartRateBpm>
            <Value>90</Value>
          </HeartRateBpm>
          <Cadence><Value>111</Value></Cadence>
          <SensorState>Absent</SensorState>
        </Trackpoint>
        <Trackpoint>
          <Time>2026-04-15T04:36:37Z</Time>
              <Position>
                  <LatitudeDegrees>30.56425731</LatitudeDegrees>
                  <LongitudeDegrees>104.0492191</LongitudeDegrees>
              </Position>
          <AltitudeMeters>444</AltitudeMeters>
          <DistanceMeters>94.7</DistanceMeters>
          <HeartRateBpm>
            <Value>90</Value>
          </HeartRateBpm>
          <Cadence><Value>111</Value></Cadence>
          <SensorState>Absent</SensorState>
        </Trackpoint>
        <Trackpoint>
          <Time>2026-04-15T04:36:38Z</Time>
              <Position>
                  <LatitudeDegrees>30.56427061</LatitudeDegrees>
                  <LongitudeDegrees>104.04921944</LongitudeDegrees>
              </Position>
          <AltitudeMeters>444</AltitudeMeters>
          <DistanceMeters>95.6</DistanceMeters>
          <HeartRateBpm>
            <Value>90</Value>
          </HeartRateBpm>
          <Cadence><Value>111</Value></Cadence>
          <SensorState>Absent</SensorState>
        </Trackpoint>
        <Trackpoint>
          <Time>2026-04-15T04:36:39Z</Time>
              <Position>
                  <LatitudeDegrees>30.56428444</LatitudeDegrees>
                  <LongitudeDegrees>104.0492201</LongitudeDegrees>
              </Position>
          <AltitudeMeters>444</AltitudeMeters>
          <DistanceMeters>97.5</DistanceMeters>
          <HeartRateBpm>
            <Value>90</Value>
          </HeartRateBpm>
          <Cadence><Value>111</Value></Cadence>
          <SensorState>Absent</SensorState>
        </Trackpoint>
        <Trackpoint>
          <Time>2026-04-15T04:36:40Z</Time>
              <Position>
                  <LatitudeDegrees>30.56429895</LatitudeDegrees>
                  <LongitudeDegrees>104.04922005</LongitudeDegrees>
              </Position>
          <AltitudeMeters>444</AltitudeMeters>
          <DistanceMeters>99.4</DistanceMeters>
          <HeartRateBpm>
            <Value>90</Value>
          </HeartRateBpm>
          <Cadence><Value>111</Value></Cadence>
          <SensorState>Absent</SensorState>
        </Trackpoint>
        <Trackpoint>
          <Time>2026-04-15T04:36:41Z</Time>
              <Position>
                  <LatitudeDegrees>30.56431339</LatitudeDegrees>
                  <LongitudeDegrees>104.04921782</LongitudeDegrees>
              </Position>
          <AltitudeMeters>445</AltitudeMeters>
          <DistanceMeters>101.2</DistanceMeters>
          <HeartRateBpm>
            <Value>90</Value>
          </HeartRateBpm>
          <Cadence><Value>111</Value></Cadence>
          <SensorState>Absent</SensorState>
        </Trackpoint>
        <Trackpoint>
          <Time>2026-04-15T04:36:42Z</Time>
              <Position>
                  <LatitudeDegrees>30.56432654</LatitudeDegrees>
                  <LongitudeDegrees>104.04921394</LongitudeDegrees>
              </Position>
          <AltitudeMeters>445</AltitudeMeters>
          <DistanceMeters>103.1</DistanceMeters>
          <HeartRateBpm>
            <Value>91</Value>
          </HeartRateBpm>
          <Cadence><Value>111</Value></Cadence>
          <SensorState>Absent</SensorState>
        </Trackpoint>
        <Trackpoint>
          <Time>2026-04-15T04:36:43Z</Time>
              <Position>
                  <LatitudeDegrees>30.56433899</LatitudeDegrees>
                  <LongitudeDegrees>104.04920901</LongitudeDegrees>
              </Position>
          <AltitudeMeters>445</AltitudeMeters>
          <DistanceMeters>104.0</DistanceMeters>
          <HeartRateBpm>
            <Value>92</Value>
          </HeartRateBpm>
          <Cadence><Value>111</Value></Cadence>
          <SensorState>Absent</SensorState>
        </Trackpoint>
        <Trackpoint>
          <Time>2026-04-15T04:36:44Z</Time>
              <Position>
                  <LatitudeDegrees>30.56435178</LatitudeDegrees>
                  <LongitudeDegrees>104.04920507</LongitudeDegrees>
              </Position>
          <AltitudeMeters>445</AltitudeMeters>
          <DistanceMeters>104.9</DistanceMeters>
          <HeartRateBpm>
            <Value>92</Value>
          </HeartRateBpm>
          <Cadence><Value>111</Value></Cadence>
          <SensorState>Absent</SensorState>
        </Trackpoint>
        <Trackpoint>
          <Time>2026-04-15T04:36:45Z</Time>
              <Position>
                  <LatitudeDegrees>30.56436476</LatitudeDegrees>
                  <LongitudeDegrees>104.04920304</LongitudeDegrees>
              </Position>
          <AltitudeMeters>445</AltitudeMeters>
          <DistanceMeters>105.9</DistanceMeters>
          <HeartRateBpm>
            <Value>92</Value>
          </HeartRateBpm>
          <Cadence><Value>111</Value></Cadence>
          <SensorState>Absent</SensorState>
        </Trackpoint>
        <Trackpoint>
          <Time>2026-04-15T04:36:46Z</Time>
              <Position>
                  <LatitudeDegrees>30.56437844</LatitudeDegrees>
                  <LongitudeDegrees>104.04920315</LongitudeDegrees>
              </Position>
          <AltitudeMeters>445</AltitudeMeters>
          <DistanceMeters>107.7</DistanceMeters>
          <HeartRateBpm>
            <Value>92</Value>
          </HeartRateBpm>
          <Cadence><Value>111</Value></Cadence>
          <SensorState>Absent</SensorState>
        </Trackpoint>
        <Trackpoint>
          <Time>2026-04-15T04:36:47Z</Time>
              <Position>
                  <LatitudeDegrees>30.56439229</LatitudeDegrees>
                  <LongitudeDegrees>104.04920409</LongitudeDegrees>
              </Position>
          <AltitudeMeters>445</AltitudeMeters>
          <DistanceMeters>109.6</DistanceMeters>
          <HeartRateBpm>
            <Value>93</Value>
          </HeartRateBpm>
          <Cadence><Value>111</Value></Cadence>
          <SensorState>Absent</SensorState>
        </Trackpoint>
        <Trackpoint>
          <Time>2026-04-15T04:36:48Z</Time>
              <Position>
                  <LatitudeDegrees>30.5644051</LatitudeDegrees>
                  <LongitudeDegrees>104.04920488</LongitudeDegrees>
              </Position>
          <AltitudeMeters>445</AltitudeMeters>
          <DistanceMeters>110.5</DistanceMeters>
          <HeartRateBpm>
            <Value>93</Value>
          </HeartRateBpm>
          <Cadence><Value>111</Value></Cadence>
          <SensorState>Absent</SensorState>
        </Trackpoint>
        <Trackpoint>
          <Time>2026-04-15T04:36:49Z</Time>
              <Position>
                  <LatitudeDegrees>30.56441788</LatitudeDegrees>
                  <LongitudeDegrees>104.0492062</LongitudeDegrees>
              </Position>
          <AltitudeMeters>445</AltitudeMeters>
          <DistanceMeters>111.4</DistanceMeters>
          <HeartRateBpm>
            <Value>93</Value>
          </HeartRateBpm>
          <Cadence><Value>111</Value></Cadence>
          <SensorState>Absent</SensorState>
        </Trackpoint>
        <Trackpoint>
          <Time>2026-04-15T04:36:50Z</Time>
              <Position>
                  <LatitudeDegrees>30.56443043</LatitudeDegrees>
                  <LongitudeDegrees>104.04920727</LongitudeDegrees>
              </Position>
          <AltitudeMeters>444</AltitudeMeters>
          <DistanceMeters>112.4</DistanceMeters>
          <HeartRateBpm>
            <Value>92</Value>
          </HeartRateBpm>
          <Cadence><Value>111</Value></Cadence>
          <SensorState>Absent</SensorState>
        </Trackpoint>
        <Trackpoint>
          <Time>2026-04-15T04:36:51Z</Time>
              <Position>
                  <LatitudeDegrees>30.56444306</LatitudeDegrees>
                  <LongitudeDegrees>104.04920864</LongitudeDegrees>
              </Position>
          <AltitudeMeters>444</AltitudeMeters>
          <DistanceMeters>113.3</DistanceMeters>
          <HeartRateBpm>
            <Value>91</Value>
          </HeartRateBpm>
          <Cadence><Value>111</Value></Cadence>
          <SensorState>Absent</SensorState>
        </Trackpoint>
        <Trackpoint>
          <Time>2026-04-15T04:36:52Z</Time>
              <Position>
                  <LatitudeDegrees>30.56445635</LatitudeDegrees>
                  <LongitudeDegrees>104.04920975</LongitudeDegrees>
              </Position>
          <AltitudeMeters>444</AltitudeMeters>
          <DistanceMeters>114.2</DistanceMeters>
          <HeartRateBpm>
            <Value>91</Value>
          </HeartRateBpm>
          <Cadence><Value>111</Value></Cadence>
          <SensorState>Absent</SensorState>
        </Trackpoint>
        <Trackpoint>
          <Time>2026-04-15T04:36:53Z</Time>
              <Position>
                  <LatitudeDegrees>30.56446938</LatitudeDegrees>
                  <LongitudeDegrees>104.04921019</LongitudeDegrees>
              </Position>
          <AltitudeMeters>444</AltitudeMeters>
          <DistanceMeters>115.1</DistanceMeters>
          <HeartRateBpm>
            <Value>91</Value>
          </HeartRateBpm>
          <Cadence><Value>111</Value></Cadence>
          <SensorState>Absent</SensorState>
        </Trackpoint>
        <Trackpoint>
          <Time>2026-04-15T04:36:54Z</Time>
              <Position>
                  <LatitudeDegrees>30.56448238</LatitudeDegrees>
                  <LongitudeDegrees>104.04920994</LongitudeDegrees>
              </Position>
          <AltitudeMeters>445</AltitudeMeters>
          <DistanceMeters>116.1</DistanceMeters>
          <HeartRateBpm>
            <Value>91</Value>
          </HeartRateBpm>
          <Cadence><Value>111</Value></Cadence>
          <SensorState>Absent</SensorState>
        </Trackpoint>
        <Trackpoint>
          <Time>2026-04-15T04:36:55Z</Time>
              <Position>
                  <LatitudeDegrees>30.56449556</LatitudeDegrees>
                  <LongitudeDegrees>104.04920891</LongitudeDegrees>
              </Position>
          <AltitudeMeters>445</AltitudeMeters>
          <DistanceMeters>117.0</DistanceMeters>
          <HeartRateBpm>
            <Value>91</Value>
          </HeartRateBpm>
          <Cadence><Value>111</Value></Cadence>
          <SensorState>Absent</SensorState>
        </Trackpoint>
        <Trackpoint>
          <Time>2026-04-15T04:36:56Z</Time>
              <Position>
                  <LatitudeDegrees>30.56450828</LatitudeDegrees>
                  <LongitudeDegrees>104.04920783</LongitudeDegrees>
              </Position>
          <AltitudeMeters>445</AltitudeMeters>
          <DistanceMeters>117.9</DistanceMeters>
          <HeartRateBpm>
            <Value>91</Value>
          </HeartRateBpm>
          <Cadence><Value>111</Value></Cadence>
          <SensorState>Absent</SensorState>
        </Trackpoint>
        <Trackpoint>
          <Time>2026-04-15T04:36:57Z</Time>
              <Position>
                  <LatitudeDegrees>30.56452087</LatitudeDegrees>
                  <LongitudeDegrees>104.04920665</LongitudeDegrees>
              </Position>
          <AltitudeMeters>445</AltitudeMeters>
          <DistanceMeters>118.9</DistanceMeters>
          <HeartRateBpm>
            <Value>91</Value>
          </HeartRateBpm>
          <Cadence><Value>111</Value></Cadence>
          <SensorState>Absent</SensorState>
        </Trackpoint>
        <Trackpoint>
          <Time>2026-04-15T04:36:58Z</Time>
              <Position>
                  <LatitudeDegrees>30.5645328</LatitudeDegrees>
                  <LongitudeDegrees>104.04920587</LongitudeDegrees>
              </Position>
          <AltitudeMeters>445</AltitudeMeters>
          <DistanceMeters>119.8</DistanceMeters>
          <HeartRateBpm>
            <Value>91</Value>
          </HeartRateBpm>
          <Cadence><Value>111</Value></Cadence>
          <SensorState>Absent</SensorState>
        </Trackpoint>
        <Trackpoint>
          <Time>2026-04-15T04:36:59Z</Time>
              <Position>
                  <LatitudeDegrees>30.56454396</LatitudeDegrees>
                  <LongitudeDegrees>104.04920685</LongitudeDegrees>
              </Position>
          <AltitudeMeters>444</AltitudeMeters>
          <DistanceMeters>120.7</DistanceMeters>
          <HeartRateBpm>
            <Value>91</Value>
          </HeartRateBpm>
          <Cadence><Value>111</Value></Cadence>
          <SensorState>Absent</SensorState>
        </Trackpoint>
        <Trackpoint>
          <Time>2026-04-15T04:37:00Z</Time>
              <Position>
                  <LatitudeDegrees>30.56455486</LatitudeDegrees>
                  <LongitudeDegrees>104.0492093</LongitudeDegrees>
              </Position>
          <AltitudeMeters>444</AltitudeMeters>
          <DistanceMeters>121.6</DistanceMeters>
          <HeartRateBpm>
            <Value>90</Value>
          </HeartRateBpm>
          <Cadence><Value>112</Value></Cadence>
          <SensorState>Absent</SensorState>
        </Trackpoint>
        <Trackpoint>
          <Time>2026-04-15T04:37:01Z</Time>
              <Position>
                  <LatitudeDegrees>30.56456588</LatitudeDegrees>
                  <LongitudeDegrees>104.04921293</LongitudeDegrees>
              </Position>
          <AltitudeMeters>444</AltitudeMeters>
          <DistanceMeters>122.6</DistanceMeters>
          <HeartRateBpm>
            <Value>91</Value>
          </HeartRateBpm>
          <Cadence><Value>112</Value></Cadence>
          <SensorState>Absent</SensorState>
        </Trackpoint>
        <Trackpoint>
          <Time>2026-04-15T04:37:02Z</Time>
              <Position>
                  <LatitudeDegrees>30.56457536</LatitudeDegrees>
                  <LongitudeDegrees>104.04921742</LongitudeDegrees>
              </Position>
          <AltitudeMeters>443</AltitudeMeters>
          <DistanceMeters>123.5</DistanceMeters>
          <HeartRateBpm>
            <Value>91</Value>
          </HeartRateBpm>
          <Cadence><Value>112</Value></Cadence>
          <SensorState>Absent</SensorState>
        </Trackpoint>
        <Trackpoint>
          <Time>2026-04-15T04:37:03Z</Time>
              <Position>
                  <LatitudeDegrees>30.56458431</LatitudeDegrees>
                  <LongitudeDegrees>104.04922063</LongitudeDegrees>
              </Position>
          <AltitudeMeters>444</AltitudeMeters>
          <DistanceMeters>124.4</DistanceMeters>
          <HeartRateBpm>
            <Value>91</Value>
          </HeartRateBpm>
          <Cadence><Value>112</Value></Cadence>
          <SensorState>Absent</SensorState>
        </Trackpoint>
        <Trackpoint>
          <Time>2026-04-15T04:37:04Z</Time>
              <Position>
                  <LatitudeDegrees>30.56459518</LatitudeDegrees>
                  <LongitudeDegrees>104.04922355</LongitudeDegrees>
              </Position>
          <AltitudeMeters>444</AltitudeMeters>
          <DistanceMeters>125.4</DistanceMeters>
          <HeartRateBpm>
            <Value>92</Value>
          </HeartRateBpm>
          <Cadence><Value>112</Value></Cadence>
          <SensorState>Absent</SensorState>
        </Trackpoint>
        <Trackpoint>
          <Time>2026-04-15T04:37:05Z</Time>
              <Position>
                  <LatitudeDegrees>30.56460766</LatitudeDegrees>
                  <LongitudeDegrees>104.04922455</LongitudeDegrees>
              </Position>
          <AltitudeMeters>444</AltitudeMeters>
          <DistanceMeters>126.3</DistanceMeters>
          <HeartRateBpm>
            <Value>91</Value>
          </HeartRateBpm>
          <Cadence><Value>112</Value></Cadence>
          <SensorState>Absent</SensorState>
        </Trackpoint>
        <Trackpoint>
          <Time>2026-04-15T04:37:06Z</Time>
              <Position>
                  <LatitudeDegrees>30.56461965</LatitudeDegrees>
                  <LongitudeDegrees>104.04922418</LongitudeDegrees>
              </Position>
          <AltitudeMeters>444</AltitudeMeters>
          <DistanceMeters>127.2</DistanceMeters>
          <HeartRateBpm>
            <Value>91</Value>
          </HeartRateBpm>
          <Cadence><Value>112</Value></Cadence>
          <SensorState>Absent</SensorState>
        </Trackpoint>
        <Trackpoint>
          <Time>2026-04-15T04:37:07Z</Time>
              <Position>
                  <LatitudeDegrees>30.56463109</LatitudeDegrees>
                  <LongitudeDegrees>104.04922273</LongitudeDegrees>
              </Position>
          <AltitudeMeters>444</AltitudeMeters>
          <DistanceMeters>128.1</DistanceMeters>
          <HeartRateBpm>
            <Value>91</Value>
          </HeartRateBpm>
          <Cadence><Value>112</Value></Cadence>
          <SensorState>Absent</SensorState>
        </Trackpoint>
        <Trackpoint>
          <Time>2026-04-15T04:37:08Z</Time>
              <Position>
                  <LatitudeDegrees>30.56464343</LatitudeDegrees>
                  <LongitudeDegrees>104.04922233</LongitudeDegrees>
              </Position>
          <AltitudeMeters>444</AltitudeMeters>
          <DistanceMeters>129.1</DistanceMeters>
          <HeartRateBpm>
            <Value>90</Value>
          </HeartRateBpm>
          <Cadence><Value>112</Value></Cadence>
          <SensorState>Absent</SensorState>
        </Trackpoint>
        <Trackpoint>
          <Time>2026-04-15T04:37:09Z</Time>
              <Position>
                  <LatitudeDegrees>30.56465624</LatitudeDegrees>
                  <LongitudeDegrees>104.0492239</LongitudeDegrees>
              </Position>
          <AltitudeMeters>444</AltitudeMeters>
          <DistanceMeters>130.0</DistanceMeters>
          <HeartRateBpm>
            <Value>90</Value>
          </HeartRateBpm>
          <Cadence><Value>112</Value></Cadence>
          <SensorState>Absent</SensorState>
        </Trackpoint>
        <Trackpoint>
          <Time>2026-04-15T04:37:10Z</Time>
              <Position>
                  <LatitudeDegrees>30.56466633</LatitudeDegrees>
                  <LongitudeDegrees>104.04922512</LongitudeDegrees>
              </Position>
          <AltitudeMeters>444</AltitudeMeters>
          <DistanceMeters>130.9</DistanceMeters>
          <HeartRateBpm>
            <Value>90</Value>
          </HeartRateBpm>
          <Cadence><Value>112</Value></Cadence>
          <SensorState>Absent</SensorState>
        </Trackpoint>
        <Trackpoint>
          <Time>2026-04-15T04:37:11Z</Time>
              <Position>
                  <LatitudeDegrees>30.56467527</LatitudeDegrees>
                  <LongitudeDegrees>104.049226</LongitudeDegrees>
              </Position>
          <AltitudeMeters>445</AltitudeMeters>
          <DistanceMeters>131.9</DistanceMeters>
          <HeartRateBpm>
            <Value>90</Value>
          </HeartRateBpm>
          <Cadence><Value>112</Value></Cadence>
          <SensorState>Absent</SensorState>
        </Trackpoint>
        <Trackpoint>
          <Time>2026-04-15T04:37:12Z</Time>
              <Position>
                  <LatitudeDegrees>30.56468624</LatitudeDegrees>
                  <LongitudeDegrees>104.04922667</LongitudeDegrees>
              </Position>
          <AltitudeMeters>445</AltitudeMeters>
          <DistanceMeters>132.8</DistanceMeters>
          <HeartRateBpm>
            <Value>90</Value>
          </HeartRateBpm>
          <Cadence><Value>112</Value></Cadence>
          <SensorState>Absent</SensorState>
        </Trackpoint>
        <Trackpoint>
          <Time>2026-04-15T04:37:13Z</Time>
              <Position>
                  <LatitudeDegrees>30.56469794</LatitudeDegrees>
                  <LongitudeDegrees>104.04922684</LongitudeDegrees>
              </Position>
          <AltitudeMeters>446</AltitudeMeters>
          <DistanceMeters>133.7</DistanceMeters>
          <HeartRateBpm>
            <Value>92</Value>
          </HeartRateBpm>
          <Cadence><Value>112</Value></Cadence>
          <SensorState>Absent</SensorState>
        </Trackpoint>
        <Trackpoint>
          <Time>2026-04-15T04:37:14Z</Time>
              <Position>
                  <LatitudeDegrees>30.5647108</LatitudeDegrees>
                  <LongitudeDegrees>104.0492269</LongitudeDegrees>
              </Position>
          <AltitudeMeters>446</AltitudeMeters>
          <DistanceMeters>134.6</DistanceMeters>
          <HeartRateBpm>
            <Value>93</Value>
          </HeartRateBpm>
          <Cadence><Value>112</Value></Cadence>
          <SensorState>Absent</SensorState>
        </Trackpoint>
        <Trackpoint>
          <Time>2026-04-15T04:37:15Z</Time>
              <Position>
                  <LatitudeDegrees>30.56472401</LatitudeDegrees>
                  <LongitudeDegrees>104.04922734</LongitudeDegrees>
              </Position>
          <AltitudeMeters>446</AltitudeMeters>
          <DistanceMeters>135.6</DistanceMeters>
          <HeartRateBpm>
            <Value>94</Value>
          </HeartRateBpm>
          <Cadence><Value>112</Value></Cadence>
          <SensorState>Absent</SensorState>
        </Trackpoint>
        <Trackpoint>
          <Time>2026-04-15T04:37:16Z</Time>
              <Position>
                  <LatitudeDegrees>30.56473569</LatitudeDegrees>
                  <LongitudeDegrees>104.04922826</LongitudeDegrees>
              </Position>
          <AltitudeMeters>447</AltitudeMeters>
          <DistanceMeters>136.5</DistanceMeters>
          <HeartRateBpm>
            <Value>94</Value>
          </HeartRateBpm>
          <Cadence><Value>112</Value></Cadence>
          <SensorState>Absent</SensorState>
        </Trackpoint>
        <Trackpoint>
          <Time>2026-04-15T04:37:17Z</Time>
              <Position>
                  <LatitudeDegrees>30.56474643</LatitudeDegrees>
                  <LongitudeDegrees>104.04922927</LongitudeDegrees>
              </Position>
          <AltitudeMeters>447</AltitudeMeters>
          <DistanceMeters>137.4</DistanceMeters>
          <HeartRateBpm>
            <Value>93</Value>
          </HeartRateBpm>
          <Cadence><Value>112</Value></Cadence>
          <SensorState>Absent</SensorState>
        </Trackpoint>
        <Trackpoint>
          <Time>2026-04-15T04:37:18Z</Time>
              <Position>
                  <LatitudeDegrees>30.56475697</LatitudeDegrees>
                  <LongitudeDegrees>104.04922967</LongitudeDegrees>
              </Position>
          <AltitudeMeters>448</AltitudeMeters>
          <DistanceMeters>138.4</DistanceMeters>
          <HeartRateBpm>
            <Value>93</Value>
          </HeartRateBpm>
          <Cadence><Value>112</Value></Cadence>
          <SensorState>Absent</SensorState>
        </Trackpoint>
        <Trackpoint>
          <Time>2026-04-15T04:37:19Z</Time>
              <Position>
                  <LatitudeDegrees>30.56476799</LatitudeDegrees>
                  <LongitudeDegrees>104.04923017</LongitudeDegrees>
              </Position>
          <AltitudeMeters>449</AltitudeMeters>
          <DistanceMeters>139.3</DistanceMeters>
          <HeartRateBpm>
            <Value>93</Value>
          </HeartRateBpm>
          <Cadence><Value>112</Value></Cadence>
          <SensorState>Absent</SensorState>
        </Trackpoint>
        <Trackpoint>
          <Time>2026-04-15T04:37:20Z</Time>
              <Position>
                  <LatitudeDegrees>30.56478008</LatitudeDegrees>
                  <LongitudeDegrees>104.04923155</LongitudeDegrees>
              </Position>
          <AltitudeMeters>448</AltitudeMeters>
          <DistanceMeters>140.2</DistanceMeters>
          <HeartRateBpm>
            <Value>93</Value>
          </HeartRateBpm>
          <Cadence><Value>112</Value></Cadence>
          <SensorState>Absent</SensorState>
        </Trackpoint>
        <Trackpoint>
          <Time>2026-04-15T04:37:21Z</Time>
              <Position>
                  <LatitudeDegrees>30.56479202</LatitudeDegrees>
                  <LongitudeDegrees>104.0492329</LongitudeDegrees>
              </Position>
          <AltitudeMeters>448</AltitudeMeters>
          <DistanceMeters>141.1</DistanceMeters>
          <HeartRateBpm>
            <Value>92</Value>
          </HeartRateBpm>
          <Cadence><Value>112</Value></Cadence>
          <SensorState>Absent</SensorState>
        </Trackpoint>
        <Trackpoint>
          <Time>2026-04-15T04:37:22Z</Time>
              <Position>
                  <LatitudeDegrees>30.56480317</LatitudeDegrees>
                  <LongitudeDegrees>104.04923386</LongitudeDegrees>
              </Position>
          <AltitudeMeters>448</AltitudeMeters>
          <DistanceMeters>142.1</DistanceMeters>
          <HeartRateBpm>
            <Value>90</Value>
          </HeartRateBpm>
          <Cadence><Value>112</Value></Cadence>
          <SensorState>Absent</SensorState>
        </Trackpoint>
        <Trackpoint>
          <Time>2026-04-15T04:37:23Z</Time>
              <Position>
                  <LatitudeDegrees>30.56481397</LatitudeDegrees>
                  <LongitudeDegrees>104.04923482</LongitudeDegrees>
              </Position>
          <AltitudeMeters>448</AltitudeMeters>
          <DistanceMeters>143.0</DistanceMeters>
          <HeartRateBpm>
            <Value>90</Value>
          </HeartRateBpm>
          <Cadence><Value>112</Value></Cadence>
          <SensorState>Absent</SensorState>
        </Trackpoint>
        <Trackpoint>
          <Time>2026-04-15T04:37:24Z</Time>
              <Position>
                  <LatitudeDegrees>30.56482379</LatitudeDegrees>
                  <LongitudeDegrees>104.04923671</LongitudeDegrees>
              </Position>
          <AltitudeMeters>448</AltitudeMeters>
          <DistanceMeters>143.9</DistanceMeters>
          <HeartRateBpm>
            <Value>90</Value>
          </HeartRateBpm>
          <Cadence><Value>112</Value></Cadence>
          <SensorState>Absent</SensorState>
        </Trackpoint>
        <Trackpoint>
          <Time>2026-04-15T04:37:25Z</Time>
              <Position>
                  <LatitudeDegrees>30.56483321</LatitudeDegrees>
                  <LongitudeDegrees>104.04923766</LongitudeDegrees>
              </Position>
          <AltitudeMeters>448</AltitudeMeters>
          <DistanceMeters>144.9</DistanceMeters>
          <HeartRateBpm>
            <Value>90</Value>
          </HeartRateBpm>
          <Cadence><Value>112</Value></Cadence>
          <SensorState>Absent</SensorState>
        </Trackpoint>
        <Trackpoint>
          <Time>2026-04-15T04:37:26Z</Time>
              <Position>
                  <LatitudeDegrees>30.56484298</LatitudeDegrees>
                  <LongitudeDegrees>104.04923648</LongitudeDegrees>
              </Position>
          <AltitudeMeters>448</AltitudeMeters>
          <DistanceMeters>145.8</DistanceMeters>
          <HeartRateBpm>
            <Value>90</Value>
          </HeartRateBpm>
          <Cadence><Value>112</Value></Cadence>
          <SensorState>Absent</SensorState>
        </Trackpoint>
        <Trackpoint>
          <Time>2026-04-15T04:37:27Z</Time>
              <Position>
                  <LatitudeDegrees>30.56485235</LatitudeDegrees>
                  <LongitudeDegrees>104.0492341</LongitudeDegrees>
              </Position>
          <AltitudeMeters>448</AltitudeMeters>
          <DistanceMeters>146.7</DistanceMeters>
          <HeartRateBpm>
            <Value>89</Value>
          </HeartRateBpm>
          <Cadence><Value>112</Value></Cadence>
          <SensorState>Absent</SensorState>
        </Trackpoint>
        <Trackpoint>
          <Time>2026-04-15T04:37:28Z</Time>
              <Position>
                  <LatitudeDegrees>30.56486268</LatitudeDegrees>
                  <LongitudeDegrees>104.04923136</LongitudeDegrees>
              </Position>
          <AltitudeMeters>449</AltitudeMeters>
          <DistanceMeters>147.6</DistanceMeters>
          <HeartRateBpm>
            <Value>89</Value>
          </HeartRateBpm>
          <Cadence><Value>112</Value></Cadence>
          <SensorState>Absent</SensorState>
        </Trackpoint>
        <Trackpoint>
          <Time>2026-04-15T04:37:29Z</Time>
              <Position>
                  <LatitudeDegrees>30.56487309</LatitudeDegrees>
                  <LongitudeDegrees>104.04922949</LongitudeDegrees>
              </Position>
          <AltitudeMeters>448</AltitudeMeters>
          <DistanceMeters>148.6</DistanceMeters>
          <HeartRateBpm>
            <Value>89</Value>
          </HeartRateBpm>
          <Cadence><Value>112</Value></Cadence>
          <SensorState>Absent</SensorState>
        </Trackpoint>
        <Trackpoint>
          <Time>2026-04-15T04:37:30Z</Time>
              <Position>
                  <LatitudeDegrees>30.56488299</LatitudeDegrees>
                  <LongitudeDegrees>104.04922904</LongitudeDegrees>
              </Position>
          <AltitudeMeters>446</AltitudeMeters>
          <DistanceMeters>149.5</DistanceMeters>
          <HeartRateBpm>
            <Value>89</Value>
          </HeartRateBpm>
          <Cadence><Value>112</Value></Cadence>
          <SensorState>Absent</SensorState>
        </Trackpoint>
        <Trackpoint>
          <Time>2026-04-15T04:37:31Z</Time>
              <Position>
                  <LatitudeDegrees>30.56489329</LatitudeDegrees>
                  <LongitudeDegrees>104.0492289</LongitudeDegrees>
              </Position>
          <AltitudeMeters>446</AltitudeMeters>
          <DistanceMeters>150.4</DistanceMeters>
          <HeartRateBpm>
            <Value>89</Value>
          </HeartRateBpm>
          <Cadence><Value>112</Value></Cadence>
          <SensorState>Absent</SensorState>
        </Trackpoint>
        <Trackpoint>
          <Time>2026-04-15T04:37:32Z</Time>
              <Position>
                  <LatitudeDegrees>30.5649037</LatitudeDegrees>
                  <LongitudeDegrees>104.04923015</LongitudeDegrees>
              </Position>
          <AltitudeMeters>446</AltitudeMeters>
          <DistanceMeters>151.4</DistanceMeters>
          <HeartRateBpm>
            <Value>89</Value>
          </HeartRateBpm>
          <Cadence><Value>112</Value></Cadence>
          <SensorState>Absent</SensorState>
        </Trackpoint>
        <Trackpoint>
          <Time>2026-04-15T04:37:33Z</Time>
              <Position>
                  <LatitudeDegrees>30.56491356</LatitudeDegrees>
                  <LongitudeDegrees>104.04923219</LongitudeDegrees>
              </Position>
          <AltitudeMeters>446</AltitudeMeters>
          <DistanceMeters>152.3</DistanceMeters>
          <HeartRateBpm>
            <Value>89</Value>
          </HeartRateBpm>
          <Cadence><Value>112</Value></Cadence>
          <SensorState>Absent</SensorState>
        </Trackpoint>
        <Trackpoint>
          <Time>2026-04-15T04:37:34Z</Time>
              <Position>
                  <LatitudeDegrees>30.56492363</LatitudeDegrees>
                  <LongitudeDegrees>104.04923393</LongitudeDegrees>
              </Position>
          <AltitudeMeters>446</AltitudeMeters>
          <DistanceMeters>153.2</DistanceMeters>
          <HeartRateBpm>
            <Value>89</Value>
          </HeartRateBpm>
          <Cadence><Value>112</Value></Cadence>
          <SensorState>Absent</SensorState>
        </Trackpoint>
        <Trackpoint>
          <Time>2026-04-15T04:37:35Z</Time>
              <Position>
                  <LatitudeDegrees>30.56493417</LatitudeDegrees>
                  <LongitudeDegrees>104.04923532</LongitudeDegrees>
              </Position>
          <AltitudeMeters>446</AltitudeMeters>
          <DistanceMeters>154.1</DistanceMeters>
          <HeartRateBpm>
            <Value>89</Value>
          </HeartRateBpm>
          <Cadence><Value>112</Value></Cadence>
          <SensorState>Absent</SensorState>
        </Trackpoint>
        <Trackpoint>
          <Time>2026-04-15T04:37:36Z</Time>
              <Position>
                  <LatitudeDegrees>30.56494471</LatitudeDegrees>
                  <LongitudeDegrees>104.04923617</LongitudeDegrees>
              </Position>
          <AltitudeMeters>446</AltitudeMeters>
          <DistanceMeters>155.1</DistanceMeters>
          <HeartRateBpm>
            <Value>89</Value>
          </HeartRateBpm>
          <Cadence><Value>112</Value></Cadence>
          <SensorState>Absent</SensorState>
        </Trackpoint>
        <Trackpoint>
          <Time>2026-04-15T04:37:37Z</Time>
              <Position>
                  <LatitudeDegrees>30.56495497</LatitudeDegrees>
                  <LongitudeDegrees>104.04923656</LongitudeDegrees>
              </Position>
          <AltitudeMeters>446</AltitudeMeters>
          <DistanceMeters>156.0</DistanceMeters>
          <HeartRateBpm>
            <Value>89</Value>
          </HeartRateBpm>
          <Cadence><Value>112</Value></Cadence>
          <SensorState>Absent</SensorState>
        </Trackpoint>
        <Trackpoint>
          <Time>2026-04-15T04:37:38Z</Time>
              <Position>
                  <LatitudeDegrees>30.5649654</LatitudeDegrees>
                  <LongitudeDegrees>104.04923692</LongitudeDegrees>
              </Position>
          <AltitudeMeters>446</AltitudeMeters>
          <DistanceMeters>156.9</DistanceMeters>
          <HeartRateBpm>
            <Value>89</Value>
          </HeartRateBpm>
          <Cadence><Value>112</Value></Cadence>
          <SensorState>Absent</SensorState>
        </Trackpoint>
        <Trackpoint>
          <Time>2026-04-15T04:37:39Z</Time>
              <Position>
                  <LatitudeDegrees>30.56497564</LatitudeDegrees>
                  <LongitudeDegrees>104.04923767</LongitudeDegrees>
              </Position>
          <AltitudeMeters>446</AltitudeMeters>
          <DistanceMeters>157.9</DistanceMeters>
          <HeartRateBpm>
            <Value>89</Value>
          </HeartRateBpm>
          <Cadence><Value>112</Value></Cadence>
          <SensorState>Absent</SensorState>
        </Trackpoint>
        <Trackpoint>
          <Time>2026-04-15T04:37:40Z</Time>
              <Position>
                  <LatitudeDegrees>30.56498166</LatitudeDegrees>
                  <LongitudeDegrees>104.04923955</LongitudeDegrees>
              </Position>
          <AltitudeMeters>446</AltitudeMeters>
          <DistanceMeters>158.8</DistanceMeters>
          <HeartRateBpm>
            <Value>89</Value>
          </HeartRateBpm>
          <Cadence><Value>112</Value></Cadence>
          <SensorState>Absent</SensorState>
        </Trackpoint>
        <Trackpoint>
          <Time>2026-04-15T04:37:41Z</Time>
              <Position>
                  <LatitudeDegrees>30.56498641</LatitudeDegrees>
                  <LongitudeDegrees>104.04924165</LongitudeDegrees>
              </Position>
          <AltitudeMeters>446</AltitudeMeters>
          <DistanceMeters>159.7</DistanceMeters>
          <HeartRateBpm>
            <Value>89</Value>
          </HeartRateBpm>
          <Cadence><Value>112</Value></Cadence>
          <SensorState>Absent</SensorState>
        </Trackpoint>
        <Trackpoint>
          <Time>2026-04-15T04:37:42Z</Time>
              <Position>
                  <LatitudeDegrees>30.56499108</LatitudeDegrees>
                  <LongitudeDegrees>104.0492443</LongitudeDegrees>
              </Position>
          <AltitudeMeters>446</AltitudeMeters>
          <DistanceMeters>160.6</DistanceMeters>
          <HeartRateBpm>
            <Value>89</Value>
          </HeartRateBpm>
          <Cadence><Value>112</Value></Cadence>
          <SensorState>Absent</SensorState>
        </Trackpoint>
        <Trackpoint>
          <Time>2026-04-15T04:37:43Z</Time>
              <Position>
                  <LatitudeDegrees>30.56499538</LatitudeDegrees>
                  <LongitudeDegrees>104.04924711</LongitudeDegrees>
              </Position>
          <AltitudeMeters>446</AltitudeMeters>
          <DistanceMeters>161.6</DistanceMeters>
          <HeartRateBpm>
            <Value>90</Value>
          </HeartRateBpm>
          <Cadence><Value>112</Value></Cadence>
          <SensorState>Absent</SensorState>
        </Trackpoint>
        <Trackpoint>
          <Time>2026-04-15T04:37:44Z</Time>
              <Position>
                  <LatitudeDegrees>30.56500131</LatitudeDegrees>
                  <LongitudeDegrees>104.04924986</LongitudeDegrees>
              </Position>
          <AltitudeMeters>446</AltitudeMeters>
          <DistanceMeters>162.5</DistanceMeters>
          <HeartRateBpm>
            <Value>90</Value>
          </HeartRateBpm>
          <Cadence><Value>112</Value></Cadence>
          <SensorState>Absent</SensorState>
        </Trackpoint>
        <Trackpoint>
          <Time>2026-04-15T04:37:45Z</Time>
              <Position>
                  <LatitudeDegrees>30.56500639</LatitudeDegrees>
                  <LongitudeDegrees>104.04925231</LongitudeDegrees>
              </Position>
          <AltitudeMeters>446</AltitudeMeters>
          <DistanceMeters>163.4</DistanceMeters>
          <HeartRateBpm>
            <Value>90</Value>
          </HeartRateBpm>
          <Cadence><Value>112</Value></Cadence>
          <SensorState>Absent</SensorState>
        </Trackpoint>
        <Trackpoint>
          <Time>2026-04-15T04:37:46Z</Time>
              <Position>
                  <LatitudeDegrees>30.56501053</LatitudeDegrees>
                  <LongitudeDegrees>104.04925446</LongitudeDegrees>
              </Position>
          <AltitudeMeters>447</AltitudeMeters>
          <DistanceMeters>164.4</DistanceMeters>
          <HeartRateBpm>
            <Value>90</Value>
          </HeartRateBpm>
          <Cadence><Value>112</Value></Cadence>
          <SensorState>Absent</SensorState>
        </Trackpoint>
        <Trackpoint>
          <Time>2026-04-15T04:37:47Z</Time>
              <Position>
                  <LatitudeDegrees>30.56501507</LatitudeDegrees>
                  <LongitudeDegrees>104.0492561</LongitudeDegrees>
              </Position>
          <AltitudeMeters>447</AltitudeMeters>
          <DistanceMeters>165.3</DistanceMeters>
          <HeartRateBpm>
            <Value>90</Value>
          </HeartRateBpm>
          <Cadence><Value>112</Value></Cadence>
          <SensorState>Absent</SensorState>
        </Trackpoint>
        <Trackpoint>
          <Time>2026-04-15T04:37:48Z</Time>
              <Position>
                  <LatitudeDegrees>30.56501939</LatitudeDegrees>
                  <LongitudeDegrees>104.04925782</LongitudeDegrees>
              </Position>
          <AltitudeMeters>447</AltitudeMeters>
          <DistanceMeters>166.2</DistanceMeters>
          <HeartRateBpm>
            <Value>91</Value>
          </HeartRateBpm>
          <Cadence><Value>112</Value></Cadence>
          <SensorState>Absent</SensorState>
        </Trackpoint>
        <Trackpoint>
          <Time>2026-04-15T04:37:49Z</Time>
              <Position>
                  <LatitudeDegrees>30.5650234</LatitudeDegrees>
                  <LongitudeDegrees>104.04925993</LongitudeDegrees>
              </Position>
          <AltitudeMeters>447</AltitudeMeters>
          <DistanceMeters>166.2</DistanceMeters>
          <HeartRateBpm>
            <Value>92</Value>
          </HeartRateBpm>
          <Cadence><Value>112</Value></Cadence>
          <SensorState>Absent</SensorState>
        </Trackpoint>
        <Trackpoint>
          <Time>2026-04-15T04:37:50Z</Time>
              <Position>
                  <LatitudeDegrees>30.56502827</LatitudeDegrees>
                  <LongitudeDegrees>104.04926058</LongitudeDegrees>
              </Position>
          <AltitudeMeters>448</AltitudeMeters>
          <DistanceMeters>167.1</DistanceMeters>
          <HeartRateBpm>
            <Value>92</Value>
          </HeartRateBpm>
          <Cadence><Value>112</Value></Cadence>
          <SensorState>Absent</SensorState>
        </Trackpoint>
        <Trackpoint>
          <Time>2026-04-15T04:37:51Z</Time>
              <Position>
                  <LatitudeDegrees>30.56503342</LatitudeDegrees>
                  <LongitudeDegrees>104.04926156</LongitudeDegrees>
              </Position>
          <AltitudeMeters>448</AltitudeMeters>
          <DistanceMeters>168.1</DistanceMeters>
          <HeartRateBpm>
            <Value>92</Value>
          </HeartRateBpm>
          <Cadence><Value>112</Value></Cadence>
          <SensorState>Absent</SensorState>
        </Trackpoint>
        <Trackpoint>
          <Time>2026-04-15T04:37:52Z</Time>
              <Position>
                  <LatitudeDegrees>30.56503758</LatitudeDegrees>
                  <LongitudeDegrees>104.04926257</LongitudeDegrees>
              </Position>
          <AltitudeMeters>448</AltitudeMeters>
          <DistanceMeters>168.1</DistanceMeters>
          <HeartRateBpm>
            <Value>92</Value>
          </HeartRateBpm>
          <Cadence><Value>112</Value></Cadence>
          <SensorState>Absent</SensorState>
        </Trackpoint>
        <Trackpoint>
          <Time>2026-04-15T04:37:53Z</Time>
              <Position>
                  <LatitudeDegrees>30.56504173</LatitudeDegrees>
                  <LongitudeDegrees>104.04926387</LongitudeDegrees>
              </Position>
          <AltitudeMeters>447</AltitudeMeters>
          <DistanceMeters>168.1</DistanceMeters>
          <HeartRateBpm>
            <Value>92</Value>
          </HeartRateBpm>
          <Cadence><Value>112</Value></Cadence>
          <SensorState>Absent</SensorState>
        </Trackpoint>
        <Trackpoint>
          <Time>2026-04-15T04:37:54Z</Time>
              <Position>
                  <LatitudeDegrees>30.56504603</LatitudeDegrees>
                  <LongitudeDegrees>104.0492659</LongitudeDegrees>
              </Position>
          <AltitudeMeters>448</AltitudeMeters>
          <DistanceMeters>169.0</DistanceMeters>
          <HeartRateBpm>
            <Value>92</Value>
          </HeartRateBpm>
          <Cadence><Value>112</Value></Cadence>
          <SensorState>Absent</SensorState>
        </Trackpoint>
        <Trackpoint>
          <Time>2026-04-15T04:37:55Z</Time>
              <Position>
                  <LatitudeDegrees>30.56505001</LatitudeDegrees>
                  <LongitudeDegrees>104.04926855</LongitudeDegrees>
              </Position>
          <AltitudeMeters>447</AltitudeMeters>
          <DistanceMeters>169.9</DistanceMeters>
          <HeartRateBpm>
            <Value>92</Value>
          </HeartRateBpm>
          <Cadence><Value>112</Value></Cadence>
          <SensorState>Absent</SensorState>
        </Trackpoint>
        <Trackpoint>
          <Time>2026-04-15T04:37:56Z</Time>
              <Position>
                  <LatitudeDegrees>30.56505445</LatitudeDegrees>
                  <LongitudeDegrees>104.04927078</LongitudeDegrees>
              </Position>
          <AltitudeMeters>447</AltitudeMeters>
          <DistanceMeters>170.9</DistanceMeters>
          <HeartRateBpm>
            <Value>93</Value>
          </HeartRateBpm>
          <Cadence><Value>112</Value></Cadence>
          <SensorState>Absent</SensorState>
        </Trackpoint>
        <Trackpoint>
          <Time>2026-04-15T04:37:57Z</Time>
              <Position>
                  <LatitudeDegrees>30.56505898</LatitudeDegrees>
                  <LongitudeDegrees>104.04927269</LongitudeDegrees>
              </Position>
          <AltitudeMeters>448</AltitudeMeters>
          <DistanceMeters>171.8</DistanceMeters>
          <HeartRateBpm>
            <Value>94</Value>
          </HeartRateBpm>
          <Cadence><Value>112</Value></Cadence>
          <SensorState>Absent</SensorState>
        </Trackpoint>
        <Trackpoint>
          <Time>2026-04-15T04:37:58Z</Time>
              <Position>
                  <LatitudeDegrees>30.56506268</LatitudeDegrees>
                  <LongitudeDegrees>104.04927429</LongitudeDegrees>
              </Position>
          <AltitudeMeters>447</AltitudeMeters>
          <DistanceMeters>171.8</DistanceMeters>
          <HeartRateBpm>
            <Value>94</Value>
          </HeartRateBpm>
          <Cadence><Value>112</Value></Cadence>
          <SensorState>Absent</SensorState>
        </Trackpoint>
        <Trackpoint>
          <Time>2026-04-15T04:37:59Z</Time>
              <Position>
                  <LatitudeDegrees>30.56506552</LatitudeDegrees>
                  <LongitudeDegrees>104.04927524</LongitudeDegrees>
              </Position>
          <AltitudeMeters>448</AltitudeMeters>
          <DistanceMeters>171.8</DistanceMeters>
          <HeartRateBpm>
            <Value>95</Value>
          </HeartRateBpm>
          <Cadence><Value>112</Value></Cadence>
          <SensorState>Absent</SensorState>
        </Trackpoint>
        <Trackpoint>
          <Time>2026-04-15T04:38:00Z</Time>
              <Position>
                  <LatitudeDegrees>30.56506796</LatitudeDegrees>
                  <LongitudeDegrees>104.04927595</LongitudeDegrees>
              </Position>
          <AltitudeMeters>448</AltitudeMeters>
          <DistanceMeters>171.8</DistanceMeters>
          <HeartRateBpm>
            <Value>95</Value>
          </HeartRateBpm>
          <SensorState>Absent</SensorState>
        </Trackpoint>
        <Trackpoint>
          <Time>2026-04-15T04:38:01Z</Time>
              <Position>
                  <LatitudeDegrees>30.56507044</LatitudeDegrees>
                  <LongitudeDegrees>104.04927652</LongitudeDegrees>
              </Position>
          <AltitudeMeters>448</AltitudeMeters>
          <DistanceMeters>171.8</DistanceMeters>
          <HeartRateBpm>
            <Value>96</Value>
          </HeartRateBpm>
          <SensorState>Absent</SensorState>
        </Trackpoint>
        <Trackpoint>
          <Time>2026-04-15T04:38:02Z</Time>
              <Position>
                  <LatitudeDegrees>30.56507447</LatitudeDegrees>
                  <LongitudeDegrees>104.04927703</LongitudeDegrees>
              </Position>
          <AltitudeMeters>448</AltitudeMeters>
          <DistanceMeters>171.8</DistanceMeters>
          <HeartRateBpm>
            <Value>97</Value>
          </HeartRateBpm>
          <SensorState>Absent</SensorState>
        </Trackpoint>
        <Trackpoint>
          <Time>2026-04-15T04:38:03Z</Time>
              <Position>
                  <LatitudeDegrees>30.56507895</LatitudeDegrees>
                  <LongitudeDegrees>104.04927825</LongitudeDegrees>
              </Position>
          <AltitudeMeters>448</AltitudeMeters>
          <DistanceMeters>172.7</DistanceMeters>
          <HeartRateBpm>
            <Value>97</Value>
          </HeartRateBpm>
          <SensorState>Absent</SensorState>
        </Trackpoint>
        <Trackpoint>
          <Time>2026-04-15T04:38:04Z</Time>
              <Position>
                  <LatitudeDegrees>30.56508273</LatitudeDegrees>
                  <LongitudeDegrees>104.04927916</LongitudeDegrees>
              </Position>
          <AltitudeMeters>448</AltitudeMeters>
          <DistanceMeters>172.7</DistanceMeters>
          <HeartRateBpm>
            <Value>97</Value>
          </HeartRateBpm>
          <SensorState>Absent</SensorState>
        </Trackpoint>
        <Trackpoint>
          <Time>2026-04-15T04:38:05Z</Time>
              <Position>
                  <LatitudeDegrees>30.56508719</LatitudeDegrees>
                  <LongitudeDegrees>104.04928018</LongitudeDegrees>
              </Position>
          <AltitudeMeters>448</AltitudeMeters>
          <DistanceMeters>173.6</DistanceMeters>
          <HeartRateBpm>
            <Value>97</Value>
          </HeartRateBpm>
          <SensorState>Absent</SensorState>
        </Trackpoint>
        <Trackpoint>
          <Time>2026-04-15T04:38:06Z</Time>
              <Position>
                  <LatitudeDegrees>30.56509184</LatitudeDegrees>
                  <LongitudeDegrees>104.04928175</LongitudeDegrees>
              </Position>
          <AltitudeMeters>448</AltitudeMeters>
          <DistanceMeters>174.6</DistanceMeters>
          <HeartRateBpm>
            <Value>98</Value>
          </HeartRateBpm>
          <SensorState>Absent</SensorState>
        </Trackpoint>
        <Trackpoint>
          <Time>2026-04-15T04:38:07Z</Time>
              <Position>
                  <LatitudeDegrees>30.56509617</LatitudeDegrees>
                  <LongitudeDegrees>104.04928332</LongitudeDegrees>
              </Position>
          <AltitudeMeters>448</AltitudeMeters>
          <DistanceMeters>175.5</DistanceMeters>
          <HeartRateBpm>
            <Value>98</Value>
          </HeartRateBpm>
          <SensorState>Absent</SensorState>
        </Trackpoint>
        <Trackpoint>
          <Time>2026-04-15T04:38:08Z</Time>
              <Position>
                  <LatitudeDegrees>30.56510023</LatitudeDegrees>
                  <LongitudeDegrees