<?xml version="1.0" encoding="UTF-8"?>
<gpx version="1.1" creator="Notify for Mi Band" xmlns="http://www.topografix.com/GPX/1/1" xmlns:xsi="http://www.w3.org/2001/XMLSchema-instance" 
xsi:schemaLocation="
http://www.topografix.com/GPX/1/1 
http://www.topografix.com/GPX/1/1/gpx.xsd 
http://www.garmin.com/xmlschemas/GpxExtensions/v3 
http://www.garmin.com/xmlschemas/GpxExtensionsv3.xsd 
http://www.garmin.com/xmlschemas/TrackPointExtension/v1 
http://www.garmin.com/xmlschemas/TrackPointExtensionv1.xsd"
xmlns:gpxtpx="http://www.garmin.com/xmlschemas/TrackPointExtension/v1" xmlns:gpxx="http://www.garmin.com/xmlschemas/GpxExtensions/v3">
<name>划艇机</name>
<trk><name>划艇机</name><number>1</number><trkseg>
<trkpt lat="22.19288467" lon="113.54497267">
    <ele>30</ele>
    <time>2025-01-29T05:18:32Z</time>
    <extensions>
     <gpxtpx:TrackPointExtension>
      <gpxtpx:hr>90</gpxtpx:hr>
     </gpxtpx:TrackPointExtension>
    </extensions>
   </trkpt>
<trkpt lat="22.19288433" lon="113.54497433">
    <ele>30</ele>
    <time>2025-01-29T05:18:34Z</time>
    <extensions>
     <gpxtpx:TrackPointExtension>
      <gpxtpx:hr>90</gpxtpx:hr>
     </gpxtpx:TrackPointExtension>
    </extensions>
   </trkpt>
<trkpt lat="22.19288367" lon="113.54497733">
    <ele>30</ele>
    <time>2025-01-29T05:18:35Z</time>
    <extensions>
     <gpxtpx:TrackPointExtension>
      <gpxtpx:hr>90</gpxtpx:hr>
     </gpxtpx:TrackPointExtension>
    </extensions>
   </trkpt>
<trkpt lat="22.19288233" lon="113.54497867">
    <ele>30</ele>
    <time>2025-01-29T05:18:36Z</time>
    <extensions>
     <gpxtpx:TrackPointExtension>
      <gpxtpx:hr>90</gpxtpx:hr>
     </gpxtpx:TrackPointExtension>
    </extensions>
   </trkpt>
<trkpt lat="22.192881" lon="113.54497867">
    <ele>30</ele>
    <time>2025-01-29T05:18:37Z</time>
    <extensions>
     <gpxtpx:TrackPointExtension>
      <gpxtpx:hr>90</gpxtpx:hr>
     </gpxtpx:TrackPointExtension>
    </extensions>
   </trkpt>
<trkpt lat="22.192879" lon="113.54498">
    <ele>30</ele>
    <time>2025-01-29T05:18:38Z</time>
    <extensions>
     <gpxtpx:TrackPointExtension>
      <gpxtpx:hr>91</gpxtpx:hr>
     </gpxtpx:TrackPointExtension>
    </extensions>
   </trkpt>
<trkpt lat="22.192877" lon="113.54498067">
    <ele>30</ele>
    <time>2025-01-29T05:18:39Z</time>
    <extensions>
     <gpxtpx:TrackPointExtension>
      <gpxtpx:hr>91</gpxtpx:hr>
     </gpxtpx:TrackPointExtension>
    </extensions>
   </trkpt>
<trkpt lat="22.192875" lon="113.544983">
    <ele>30</ele>
    <time>2025-01-29T05:18:40Z</time>
    <extensions>
     <gpxtpx:TrackPointExtension>
      <gpxtpx:hr>92</gpxtpx:hr>
     </gpxtpx:TrackPointExtension>
    </extensions>
   </trkpt>
<trkpt lat="22.192871" lon="113.54498333">
    <ele>30</ele>
    <time>2025-01-29T05:18:41Z</time>
    <extensions>
     <gpxtpx:TrackPointExtension>
      <gpxtpx:hr>92</gpxtpx:hr>
     </gpxtpx:TrackPointExtension>
    </extensions>
   </trkpt>
<trkpt lat="22.192869" lon="113.544984">
    <ele>30</ele>
    <time>2025-01-29T05:18:42Z</time>
    <extensions>
     <gpxtpx:TrackPointExtension>
      <gpxtpx:hr>92</gpxtpx:hr>
     </gpxtpx:TrackPointExtension>
    </extensions>
   </trkpt>
<trkpt lat="22.192866" lon="113.54498433">
    <ele>30</ele>
    <time>2025-01-29T05:18:43Z</time>
    <extensions>
     <gpxtpx:TrackPointExtension>
      <gpxtpx:hr>92</gpxtpx:hr>
     </gpxtpx:TrackPointExtension>
    </extensions>
   </trkpt>
<trkpt lat="22.19286133" lon="113.54498633">
    <ele>30</ele>
    <time>2025-01-29T05:18:44Z</time>
    <extensions>
     <gpxtpx:TrackPointExtension>
      <gpxtpx:hr>92</gpxtpx:hr>
     </gpxtpx:TrackPointExtension>
    </extensions>
   </trkpt>
<trkpt lat="22.19285867" lon="113.54498967">
    <ele>30</ele>
    <time>2025-01-29T05:18:45Z</time>
    <extensions>
     <gpxtpx:TrackPointExtension>
      <gpxtpx:hr>92</gpxtpx:hr>
     </gpxtpx:TrackPointExtension>
    </extensions>
   </trkpt>
<trkpt lat="22.192856" lon="113.54499367">
    <ele>30</ele>
    <time>2025-01-29T05:18:46Z</time>
    <extensions>
     <gpxtpx:TrackPointExtension>
      <gpxtpx:hr>93</gpxtpx:hr>
     </gpxtpx:TrackPointExtension>
    </extensions>
   </trkpt>
<trkpt lat="22.192853" lon="113.54499667">
    <ele>30</ele>
    <time>2025-01-29T05:18:47Z</time>
    <extensions>
     <gpxtpx:TrackPointExtension>
      <gpxtpx:hr>93</gpxtpx:hr>
     </gpxtpx:TrackPointExtension>
    </extensions>
   </trkpt>
<trkpt lat="22.192851" lon="113.544999">
    <ele>30</ele>
    <time>2025-01-29T05:18:48Z</time>
    <extensions>
     <gpxtpx:TrackPointExtension>
      <gpxtpx:hr>93</gpxtpx:hr>
     </gpxtpx:TrackPointExtension>
    </extensions>
   </trkpt>
<trkpt lat="22.19285" lon="113.54499967">
    <ele>30</ele>
    <time>2025-01-29T05:18:49Z</time>
    <extensions>
     <gpxtpx:TrackPointExtension>
      <gpxtpx:hr>92</gpxtpx:hr>
     </gpxtpx:TrackPointExtension>
    </extensions>
   </trkpt>
<trkpt lat="22.19284867" lon="113.54499967">
    <ele>30</ele>
    <time>2025-01-29T05:18:50Z</time>
    <extensions>
     <gpxtpx:TrackPointExtension>
      <gpxtpx:hr>89</gpxtpx:hr>
     </gpxtpx:TrackPointExtension>
    </extensions>
   </trkpt>
<trkpt lat="22.19283233" lon="113.54499633">
    <ele>30</ele>
    <time>2025-01-29T05:19:12Z</time>
    <extensions>
     <gpxtpx:TrackPointExtension>
      <gpxtpx:hr>83</gpxtpx:hr>
     </gpxtpx:TrackPointExtension>
    </extensions>
   </trkpt>
<trkpt lat="22.19283167" lon="113.544997">
    <ele>30</ele>
    <time>2025-01-29T05:19:13Z</time>
    <extensions>
     <gpxtpx:TrackPointExtension>
      <gpxtpx:hr>82</gpxtpx:hr>
     </gpxtpx:TrackPointExtension>
    </extensions>
   </trkpt>
<trkpt lat="22.192831" lon="113.54499833">
    <ele>30</ele>
    <time>2025-01-29T05:19:14Z</time>
    <extensions>
     <gpxtpx:TrackPointExtension>
      <gpxtpx:hr>82</gpxtpx:hr>
     </gpxtpx:TrackPointExtension>
    </extensions>
   </trkpt>
<trkpt lat="22.19283033" lon="113.545">
    <ele>30</ele>
    <time>2025-01-29T05:19:15Z</time>
    <extensions>
     <gpxtpx:TrackPointExtension>
      <gpxtpx:hr>82</gpxtpx:hr>
     </gpxtpx:TrackPointExtension>
    </extensions>
   </trkpt>
<trkpt lat="22.19283033" lon="113.54500067">
    <ele>30</ele>
    <time>2025-01-29T05:19:16Z</time>
    <extensions>
     <gpxtpx:TrackPointExtension>
      <gpxtpx:hr>82</gpxtpx:hr>
     </gpxtpx:TrackPointExtension>
    </extensions>
   </trkpt>
<trkpt lat="22.19283033" lon="113.54500233">
    <ele>30</ele>
    <time>2025-01-29T05:19:17Z</time>
    <extensions>
     <gpxtpx:TrackPointExtension>
      <gpxtpx:hr>82</gpxtpx:hr>
     </gpxtpx:TrackPointExtension>
    </extensions>
   </trkpt>
<trkpt lat="22.19283033" lon="113.54500367">
    <ele>30</ele>
    <time>2025-01-29T05:19:18Z</time>
    <extensions>
     <gpxtpx:TrackPointExtension>
      <gpxtpx:hr>83</gpxtpx:hr>
     </gpxtpx:TrackPointExtension>
    </extensions>
   </trkpt>
<trkpt lat="22.19283" lon="113.54500567">
    <ele>30</ele>
    <time>2025-01-29T05:19:19Z</time>
    <extensions>
     <gpxtpx:TrackPointExtension>
      <gpxtpx:hr>77</gpxtpx:hr>
     </gpxtpx:TrackPointExtension>
    </extensions>
   </trkpt>
<trkpt lat="22.19286067" lon="113.54503767">
    <ele>29</ele>
    <time>2025-01-29T05:19:39Z</time>
    <extensions>
     <gpxtpx:TrackPointExtension>
      <gpxtpx:hr>70</gpxtpx:hr>
     </gpxtpx:TrackPointExtension>
    </extensions>
   </trkpt>
<trkpt lat="22.19286167" lon="113.54503833">
    <ele>29</ele>
    <time>2025-01-29T05:19:40Z</time>
    <extensions>
     <gpxtpx:TrackPointExtension>
      <gpxtpx:hr>70</gpxtpx:hr>
     </gpxtpx:TrackPointExtension>
    </extensions>
   </trkpt>
<trkpt lat="22.192862" lon="113.54504">
    <ele>29</ele>
    <time>2025-01-29T05:19:41Z</time>
    <extensions>
     <gpxtpx:TrackPointExtension>
      <gpxtpx:hr>70</gpxtpx:hr>
     </gpxtpx:TrackPointExtension>
    </extensions>
   </trkpt>
<trkpt lat="22.192861" lon="113.545043">
    <ele>29</ele>
    <time>2025-01-29T05:19:42Z</time>
    <extensions>
     <gpxtpx:TrackPointExtension>
      <gpxtpx:hr>71</gpxtpx:hr>
     </gpxtpx:TrackPointExtension>
    </extensions>
   </trkpt>
<trkpt lat="22.19285933" lon="113.54504567">
    <ele>29</ele>
    <time>2025-01-29T05:19:43Z</time>
    <extensions>
     <gpxtpx:TrackPointExtension>
      <gpxtpx:hr>71</gpxtpx:hr>
     </gpxtpx:TrackPointExtension>
    </extensions>
   </trkpt>
<trkpt lat="22.19285767" lon="113.54504867">
    <ele>29</ele>
    <time>2025-01-29T05:19:44Z</time>
    <extensions>
     <gpxtpx:TrackPointExtension>
      <gpxtpx:hr>71</gpxtpx:hr>
     </gpxtpx:TrackPointExtension>
    </extensions>
   </trkpt>
<trkpt lat="22.19285567" lon="113.54505167">
    <ele>29</ele>
    <time>2025-01-29T05:19:45Z</time>
    <extensions>
     <gpxtpx:TrackPointExtension>
      <gpxtpx:hr>73</gpxtpx:hr>
     </gpxtpx:TrackPointExtension>
    </extensions>
   </trkpt>
<trkpt lat="22.19285367" lon="113.545054">
    <ele>29</ele>
    <time>2025-01-29T05:19:46Z</time>
    <extensions>
     <gpxtpx:TrackPointExtension>
      <gpxtpx:hr>75</gpxtpx:hr>
     </gpxtpx:TrackPointExtension>
    </extensions>
   </trkpt>
<trkpt lat="22.192852" lon="113.54505633">
    <ele>29</ele>
    <time>2025-01-29T05:19:47Z</time>
    <extensions>
     <gpxtpx:TrackPointExtension>
      <gpxtpx:hr>76</gpxtpx:hr>
     </gpxtpx:TrackPointExtension>
    </extensions>
   </trkpt>
<trkpt lat="22.19285033" lon="113.54505767">
    <ele>29</ele>
    <time>2025-01-29T05:19:48Z</time>
    <extensions>
     <gpxtpx:TrackPointExtension>
      <gpxtpx:hr>76</gpxtpx:hr>
     </gpxtpx:TrackPointExtension>
    </extensions>
   </trkpt>
<trkpt lat="22.192848" lon="113.54505933">
    <ele>29</ele>
    <time>2025-01-29T05:19:49Z</time>
    <extensions>
     <gpxtpx:TrackPointExtension>
      <gpxtpx:hr>76</gpxtpx:hr>
     </gpxtpx:TrackPointExtension>
    </extensions>
   </trkpt>
<trkpt lat="22.19284433" lon="113.545062">
    <ele>29</ele>
    <time>2025-01-29T05:19:50Z</time>
    <extensions>
     <gpxtpx:TrackPointExtension>
      <gpxtpx:hr>76</gpxtpx:hr>
     </gpxtpx:TrackPointExtension>
    </extensions>
   </trkpt>
<trkpt lat="22.19284" lon="113.545066">
    <ele>29</ele>
    <time>2025-01-29T05:19:51Z</time>
    <extensions>
     <gpxtpx:TrackPointExtension>
      <gpxtpx:hr>76</gpxtpx:hr>
     </gpxtpx:TrackPointExtension>
    </extensions>
   </trkpt>
<trkpt lat="22.19283533" lon="113.54507067">
    <ele>29</ele>
    <time>2025-01-29T05:19:52Z</time>
    <extensions>
     <gpxtpx:TrackPointExtension>
      <gpxtpx:hr>77</gpxtpx:hr>
     </gpxtpx:TrackPointExtension>
    </extensions>
   </trkpt>
<trkpt lat="22.192831" lon="113.54507533">
    <ele>29</ele>
    <time>2025-01-29T05:19:53Z</time>
    <extensions>
     <gpxtpx:TrackPointExtension>
      <gpxtpx:hr>77</gpxtpx:hr>
     </gpxtpx:TrackPointExtension>
    </extensions>
   </trkpt>
<trkpt lat="22.192827" lon="113.54508">
    <ele>29</ele>
    <time>2025-01-29T05:19:54Z</time>
    <extensions>
     <gpxtpx:TrackPointExtension>
      <gpxtpx:hr>77</gpxtpx:hr>
     </gpxtpx:TrackPointExtension>
    </extensions>
   </trkpt>
<trkpt lat="22.19282233" lon="113.54508433">
    <ele>29</ele>
    <time>2025-01-29T05:19:55Z</time>
    <extensions>
     <gpxtpx:TrackPointExtension>
      <gpxtpx:hr>77</gpxtpx:hr>
     </gpxtpx:TrackPointExtension>
    </extensions>
   </trkpt>
<trkpt lat="22.192817" lon="113.54508933">
    <ele>29</ele>
    <time>2025-01-29T05:19:56Z</time>
    <extensions>
     <gpxtpx:TrackPointExtension>
      <gpxtpx:hr>77</gpxtpx:hr>
     </gpxtpx:TrackPointExtension>
    </extensions>
   </trkpt>
<trkpt lat="22.19281267" lon="113.54509467">
    <ele>29</ele>
    <time>2025-01-29T05:19:57Z</time>
    <extensions>
     <gpxtpx:TrackPointExtension>
      <gpxtpx:hr>77</gpxtpx:hr>
     </gpxtpx:TrackPointExtension>
    </extensions>
   </trkpt>
<trkpt lat="22.192808" lon="113.54510033">
    <ele>29</ele>
    <time>2025-01-29T05:19:58Z</time>
    <extensions>
     <gpxtpx:TrackPointExtension>
      <gpxtpx:hr>77</gpxtpx:hr>
     </gpxtpx:TrackPointExtension>
    </extensions>
   </trkpt>
<trkpt lat="22.19280233" lon="113.54510567">
    <ele>29</ele>
    <time>2025-01-29T05:19:59Z</time>
    <extensions>
     <gpxtpx:TrackPointExtension>
      <gpxtpx:hr>77</gpxtpx:hr>
     </gpxtpx:TrackPointExtension>
    </extensions>
   </trkpt>
<trkpt lat="22.192797" lon="113.54510967">
    <ele>29</ele>
    <time>2025-01-29T05:20:00Z</time>
    <extensions>
     <gpxtpx:TrackPointExtension>
      <gpxtpx:hr>76</gpxtpx:hr>
     </gpxtpx:TrackPointExtension>
    </extensions>
   </trkpt>
<trkpt lat="22.19279167" lon="113.54511267">
    <ele>29</ele>
    <time>2025-01-29T05:20:01Z</time>
    <extensions>
     <gpxtpx:TrackPointExtension>
      <gpxtpx:hr>77</gpxtpx:hr>
     </gpxtpx:TrackPointExtension>
    </extensions>
   </trkpt>
<trkpt lat="22.19278733" lon="113.54511367">
    <ele>29</ele>
    <time>2025-01-29T05:20:02Z</time>
    <extensions>
     <gpxtpx:TrackPointExtension>
      <gpxtpx:hr>77</gpxtpx:hr>
     </gpxtpx:TrackPointExtension>
    </extensions>
   </trkpt>
<trkpt lat="22.192783" lon="113.54511333">
    <ele>29</ele>
    <time>2025-01-29T05:20:03Z</time>
    <extensions>
     <gpxtpx:TrackPointExtension>
      <gpxtpx:hr>77</gpxtpx:hr>
     </gpxtpx:TrackPointExtension>
    </extensions>
   </trkpt>
<trkpt lat="22.19277767" lon="113.54511267">
    <ele>29</ele>
    <time>2025-01-29T05:20:04Z</time>
    <extensions>
     <gpxtpx:TrackPointExtension>
      <gpxtpx:hr>76</gpxtpx:hr>
     </gpxtpx:TrackPointExtension>
    </extensions>
   </trkpt>
<trkpt lat="22.192773" lon="113.545112">
    <ele>29</ele>
    <time>2025-01-29T05:20:05Z</time>
    <extensions>
     <gpxtpx:TrackPointExtension>
      <gpxtpx:hr>75</gpxtpx:hr>
     </gpxtpx:TrackPointExtension>
    </extensions>
   </trkpt>
<trkpt lat="22.192768" lon="113.54511133">
    <ele>29</ele>
    <time>2025-01-29T05:20:06Z</time>
    <extensions>
     <gpxtpx:TrackPointExtension>
      <gpxtpx:hr>75</gpxtpx:hr>
     </gpxtpx:TrackPointExtension>
    </extensions>
   </trkpt>
<trkpt lat="22.192763" lon="113.54511067">
    <ele>29</ele>
    <time>2025-01-29T05:20:07Z</time>
    <extensions>
     <gpxtpx:TrackPointExtension>
      <gpxtpx:hr>75</gpxtpx:hr>
     </gpxtpx:TrackPointExtension>
    </extensions>
   </trkpt>
<trkpt lat="22.19275867" lon="113.54510933">
    <ele>28</ele>
    <time>2025-01-29T05:20:08Z</time>
    <extensions>
     <gpxtpx:TrackPointExtension>
      <gpxtpx:hr>76</gpxtpx:hr>
     </gpxtpx:TrackPointExtension>
    </extensions>
   </trkpt>
<trkpt lat="22.19275433" lon="113.545107">
    <ele>28</ele>
    <time>2025-01-29T05:20:09Z</time>
    <extensions>
     <gpxtpx:TrackPointExtension>
      <gpxtpx:hr>76</gpxtpx:hr>
     </gpxtpx:TrackPointExtension>
    </extensions>
   </trkpt>
<trkpt lat="22.19275033" lon="113.545102">
    <ele>28</ele>
    <time>2025-01-29T05:20:10Z</time>
    <extensions>
     <gpxtpx:TrackPointExtension>
      <gpxtpx:hr>76</gpxtpx:hr>
     </gpxtpx:TrackPointExtension>
    </extensions>
   </trkpt>
<trkpt lat="22.19274633" lon="113.54509667">
    <ele>28</ele>
    <time>2025-01-29T05:20:11Z</time>
    <extensions>
     <gpxtpx:TrackPointExtension>
      <gpxtpx:hr>76</gpxtpx:hr>
     </gpxtpx:TrackPointExtension>
    </extensions>
   </trkpt>
<trkpt lat="22.19274133" lon="113.54509033">
    <ele>28</ele>
    <time>2025-01-29T05:20:12Z</time>
    <extensions>
     <gpxtpx:TrackPointExtension>
      <gpxtpx:hr>75</gpxtpx:hr>
     </gpxtpx:TrackPointExtension>
    </extensions>
   </trkpt>
<trkpt lat="22.19273633" lon="113.54508333">
    <ele>28</ele>
    <time>2025-01-29T05:20:13Z</time>
    <extensions>
     <gpxtpx:TrackPointExtension>
      <gpxtpx:hr>74</gpxtpx:hr>
     </gpxtpx:TrackPointExtension>
    </extensions>
   </trkpt>
<trkpt lat="22.19273133" lon="113.54507733">
    <ele>27</ele>
    <time>2025-01-29T05:20:14Z</time>
    <extensions>
     <gpxtpx:TrackPointExtension>
      <gpxtpx:hr>74</gpxtpx:hr>
     </gpxtpx:TrackPointExtension>
    </extensions>
   </trkpt>
<trkpt lat="22.192726" lon="113.54507167">
    <ele>27</ele>
    <time>2025-01-29T05:20:15Z</time>
    <extensions>
     <gpxtpx:TrackPointExtension>
      <gpxtpx:hr>74</gpxtpx:hr>
     </gpxtpx:TrackPointExtension>
    </extensions>
   </trkpt>
<trkpt lat="22.19271933" lon="113.545067">
    <ele>27</ele>
    <time>2025-01-29T05:20:16Z</time>
    <extensions>
     <gpxtpx:TrackPointExtension>
      <gpxtpx:hr>74</gpxtpx:hr>
     </gpxtpx:TrackPointExtension>
    </extensions>
   </trkpt>
<trkpt lat="22.19271233" lon="113.545063">
    <ele>27</ele>
    <time>2025-01-29T05:20:17Z</time>
    <extensions>
     <gpxtpx:TrackPointExtension>
      <gpxtpx:hr>74</gpxtpx:hr>
     </gpxtpx:TrackPointExtension>
    </extensions>
   </trkpt>
<trkpt lat="22.192705" lon="113.54505967">
    <ele>27</ele>
    <time>2025-01-29T05:20:18Z</time>
    <extensions>
     <gpxtpx:TrackPointExtension>
      <gpxtpx:hr>74</gpxtpx:hr>
     </gpxtpx:TrackPointExtension>
    </extensions>
   </trkpt>
<trkpt lat="22.19269767" lon="113.54505633">
    <ele>27</ele>
    <time>2025-01-29T05:20:19Z</time>
    <extensions>
     <gpxtpx:TrackPointExtension>
      <gpxtpx:hr>74</gpxtpx:hr>
     </gpxtpx:TrackPointExtension>
    </extensions>
   </trkpt>
<trkpt lat="22.19268967" lon="113.54505233">
    <ele>26</ele>
    <time>2025-01-29T05:20:20Z</time>
    <extensions>
     <gpxtpx:TrackPointExtension>
      <gpxtpx:hr>73</gpxtpx:hr>
     </gpxtpx:TrackPointExtension>
    </extensions>
   </trkpt>
<trkpt lat="22.19268133" lon="113.54504767">
    <ele>26</ele>
    <time>2025-01-29T05:20:21Z</time>
    <extensions>
     <gpxtpx:TrackPointExtension>
      <gpxtpx:hr>71</gpxtpx:hr>
     </gpxtpx:TrackPointExtension>
    </extensions>
   </trkpt>
<trkpt lat="22.19267267" lon="113.54504333">
    <ele>26</ele>
    <time>2025-01-29T05:20:22Z</time>
    <extensions>
     <gpxtpx:TrackPointExtension>
      <gpxtpx:hr>71</gpxtpx:hr>
     </gpxtpx:TrackPointExtension>
    </extensions>
   </trkpt>
<trkpt lat="22.19266333" lon="113.54503933">
    <ele>26</ele>
    <time>2025-01-29T05:20:23Z</time>
    <extensions>
     <gpxtpx:TrackPointExtension>
      <gpxtpx:hr>71</gpxtpx:hr>
     </gpxtpx:TrackPointExtension>
    </extensions>
   </trkpt>
<trkpt lat="22.19265467" lon="113.545035">
    <ele>26</ele>
    <time>2025-01-29T05:20:24Z</time>
    <extensions>
     <gpxtpx:TrackPointExtension>
      <gpxtpx:hr>72</gpxtpx:hr>
     </gpxtpx:TrackPointExtension>
    </extensions>
   </trkpt>
<trkpt lat="22.192646" lon="113.54503033">
    <ele>26</ele>
    <time>2025-01-29T05:20:25Z</time>
    <extensions>
     <gpxtpx:TrackPointExtension>
      <gpxtpx:hr>73</gpxtpx:hr>
     </gpxtpx:TrackPointExtension>
    </extensions>
   </trkpt>
<trkpt lat="22.19263733" lon="113.545025">
    <ele>26</ele>
    <time>2025-01-29T05:20:26Z</time>
    <extensions>
     <gpxtpx:TrackPointExtension>
      <gpxtpx:hr>73</gpxtpx:hr>
     </gpxtpx:TrackPointExtension>
    </extensions>
   </trkpt>
<trkpt lat="22.192629" lon="113.545019">
    <ele>25</ele>
    <time>2025-01-29T05:20:27Z</time>
    <extensions>
     <gpxtpx:TrackPointExtension>
      <gpxtpx:hr>73</gpxtpx:hr>
     </gpxtpx:TrackPointExtension>
    </extensions>
   </trkpt>
<trkpt lat="22.19262133" lon="113.545013">
    <ele>25</ele>
    <time>2025-01-29T05:20:28Z</time>
    <extensions>
     <gpxtpx:TrackPointExtension>
      <gpxtpx:hr>73</gpxtpx:hr>
     </gpxtpx:TrackPointExtension>
    </extensions>
   </trkpt>
<trkpt lat="22.192615" lon="113.545007">
    <ele>25</ele>
    <time>2025-01-29T05:20:29Z</time>
    <extensions>
     <gpxtpx:TrackPointExtension>
      <gpxtpx:hr>73</gpxtpx:hr>
     </gpxtpx:TrackPointExtension>
    </extensions>
   </trkpt>
<trkpt lat="22.19260867" lon="113.54500133">
    <ele>25</ele>
    <time>2025-01-29T05:20:30Z</time>
    <extensions>
     <gpxtpx:TrackPointExtension>
      <gpxtpx:hr>73</gpxtpx:hr>
     </gpxtpx:TrackPointExtension>
    </extensions>
   </trkpt>
<trkpt lat="22.192603" lon="113.544995">
    <ele>25</ele>
    <time>2025-01-29T05:20:31Z</time>
    <extensions>
     <gpxtpx:TrackPointExtension>
      <gpxtpx:hr>73</gpxtpx:hr>
     </gpxtpx:TrackPointExtension>
    </extensions>
   </trkpt>
<trkpt lat="22.19259733" lon="113.544989">
    <ele>25</ele>
    <time>2025-01-29T05:20:32Z</time>
    <extensions>
     <gpxtpx:TrackPointExtension>
      <gpxtpx:hr>73</gpxtpx:hr>
     </gpxtpx:TrackPointExtension>
    </extensions>
   </trkpt>
<trkpt lat="22.192592" lon="113.54498367">
    <ele>25</ele>
    <time>2025-01-29T05:20:33Z</time>
    <extensions>
     <gpxtpx:TrackPointExtension>
      <gpxtpx:hr>73</gpxtpx:hr>
     </gpxtpx:TrackPointExtension>
    </extensions>
   </trkpt>
<trkpt lat="22.19258667" lon="113.54497833">
    <ele>25</ele>
    <time>2025-01-29T05:20:34Z</time>
    <extensions>
     <gpxtpx:TrackPointExtension>
      <gpxtpx:hr>73</gpxtpx:hr>
     </gpxtpx:TrackPointExtension>
    </extensions>
   </trkpt>
<trkpt lat="22.192581" lon="113.54497233">
    <ele>25</ele>
    <time>2025-01-29T05:20:35Z</time>
    <extensions>
     <gpxtpx:TrackPointExtension>
      <gpxtpx:hr>73</gpxtpx:hr>
     </gpxtpx:TrackPointExtension>
    </extensions>
   </trkpt>
<trkpt lat="22.19257567" lon="113.54496667">
    <ele>25</ele>
    <time>2025-01-29T05:20:36Z</time>
    <extensions>
     <gpxtpx:TrackPointExtension>
      <gpxtpx:hr>73</gpxtpx:hr>
     </gpxtpx:TrackPointExtension>
    </extensions>
   </trkpt>
<trkpt lat="22.19257" lon="113.54496233">
    <ele>24</ele>
    <time>2025-01-29T05:20:37Z</time>
    <extensions>
     <gpxtpx:TrackPointExtension>
      <gpxtpx:hr>73</gpxtpx:hr>
     </gpxtpx:TrackPointExtension>
    </extensions>
   </trkpt>
<trkpt lat="22.19256567" lon="113.54495967">
    <ele>24</ele>
    <time>2025-01-29T05:20:38Z</time>
    <extensions>
     <gpxtpx:TrackPointExtension>
      <gpxtpx:hr>73</gpxtpx:hr>
     </gpxtpx:TrackPointExtension>
    </extensions>
   </trkpt>
<trkpt lat="22.19256133" lon="113.54495767">
    <ele>24</ele>
    <time>2025-01-29T05:20:39Z</time>
    <extensions>
     <gpxtpx:TrackPointExtension>
      <gpxtpx:hr>73</gpxtpx:hr>
     </gpxtpx:TrackPointExtension>
    </extensions>
   </trkpt>
<trkpt lat="22.19255767" lon="113.544956">
    <ele>24</ele>
    <time>2025-01-29T05:20:40Z</time>
    <extensions>
     <gpxtpx:TrackPointExtension>
      <gpxtpx:hr>73</gpxtpx:hr>
     </gpxtpx:TrackPointExtension>
    </extensions>
   </trkpt>
<trkpt lat="22.19255467" lon="113.54495433">
    <ele>24</ele>
    <time>2025-01-29T05:20:41Z</time>
    <extensions>
     <gpxtpx:TrackPointExtension>
      <gpxtpx:hr>73</gpxtpx:hr>
     </gpxtpx:TrackPointExtension>
    </extensions>
   </trkpt>
<trkpt lat="22.192552" lon="113.54495333">
    <ele>24</ele>
    <time>2025-01-29T05:20:42Z</time>
    <extensions>
     <gpxtpx:TrackPointExtension>
      <gpxtpx:hr>75</gpxtpx:hr>
     </gpxtpx:TrackPointExtension>
    </extensions>
   </trkpt>
<trkpt lat="22.19254933" lon="113.54495233">
    <ele>24</ele>
    <time>2025-01-29T05:20:43Z</time>
    <extensions>
     <gpxtpx:TrackPointExtension>
      <gpxtpx:hr>74</gpxtpx:hr>
     </gpxtpx:TrackPointExtension>
    </extensions>
   </trkpt>
<trkpt lat="22.19251167" lon="113.544934">
    <ele>24</ele>
    <time>2025-01-29T05:21:00Z</time>
    <extensions>
     <gpxtpx:TrackPointExtension>
      <gpxtpx:hr>69</gpxtpx:hr>
     </gpxtpx:TrackPointExtension>
    </extensions>
   </trkpt>
<trkpt lat="22.192511" lon="113.544932">
    <ele>24</ele>
    <time>2025-01-29T05:21:01Z</time>
    <extensions>
     <gpxtpx:TrackPointExtension>
      <gpxtpx:hr>69</gpxtpx:hr>
     </gpxtpx:TrackPointExtension>
    </extensions>
   </trkpt>
<trkpt lat="22.19251" lon="113.54492833">
    <ele>24</ele>
    <time>2025-01-29T05:21:02Z</time>
    <extensions>
     <gpxtpx:TrackPointExtension>
      <gpxtpx:hr>70</gpxtpx:hr>
     </gpxtpx:TrackPointExtension>
    </extensions>
   </trkpt>
<trkpt lat="22.19250867" lon="113.54492333">
    <ele>24</ele>
    <time>2025-01-29T05:21:03Z</time>
    <extensions>
     <gpxtpx:TrackPointExtension>
      <gpxtpx:hr>70</gpxtpx:hr>
     </gpxtpx:TrackPointExtension>
    </extensions>
   </trkpt>
<trkpt lat="22.19250733" lon="113.544918">
    <ele>24</ele>
    <time>2025-01-29T05:21:04Z</time>
    <extensions>
     <gpxtpx:TrackPointExtension>
      <gpxtpx:hr>70</gpxtpx:hr>
     </gpxtpx:TrackPointExtension>
    </extensions>
   </trkpt>
<trkpt lat="22.19250667" lon="113.544912">
    <ele>24</ele>
    <time>2025-01-29T05:21:05Z</time>
    <extensions>
     <gpxtpx:TrackPointExtension>
      <gpxtpx:hr>71</gpxtpx:hr>
     </gpxtpx:TrackPointExtension>
    </extensions>
   </trkpt>
<trkpt lat="22.19250667" lon="113.54490533">
    <ele>24</ele>
    <time>2025-01-29T05:21:06Z</time>
    <extensions>
     <gpxtpx:TrackPointExtension>
      <gpxtpx:hr>72</gpxtpx:hr>
     </gpxtpx:TrackPointExtension>
    </extensions>
   </trkpt>
<trkpt lat="22.19250667" lon="113.54489867">
    <ele>24</ele>
    <time>2025-01-29T05:21:07Z</time>
    <extensions>
     <gpxtpx:TrackPointExtension>
      <gpxtpx:hr>72</gpxtpx:hr>
     </gpxtpx:TrackPointExtension>
    </extensions>
   </trkpt>
<trkpt lat="22.19250633" lon="113.544892">
    <ele>24</ele>
    <time>2025-01-29T05:21:08Z</time>
    <extensions>
     <gpxtpx:TrackPointExtension>
      <gpxtpx:hr>73</gpxtpx:hr>
     </gpxtpx:TrackPointExtension>
    </extensions>
   </trkpt>
<trkpt lat="22.19250533" lon="113.544885">
    <ele>24</ele>
    <time>2025-01-29T05:21:09Z</time>
    <extensions>
     <gpxtpx:TrackPointExtension>
      <gpxtpx:hr>73</gpxtpx:hr>
     </gpxtpx:TrackPointExtension>
    </extensions>
   </trkpt>
<trkpt lat="22.192504" lon="113.54487733">
    <ele>24</ele>
    <time>2025-01-29T05:21:10Z</time>
    <extensions>
     <gpxtpx:TrackPointExtension>
      <gpxtpx:hr>73</gpxtpx:hr>
     </gpxtpx:TrackPointExtension>
    </extensions>
   </trkpt>
<trkpt lat="22.19250233" lon="113.54486933">
    <ele>24</ele>
    <time>2025-01-29T05:21:11Z</time>
    <extensions>
     <gpxtpx:TrackPointExtension>
      <gpxtpx:hr>73</gpxtpx:hr>
     </gpxtpx:TrackPointExtension>
    </extensions>
   </trkpt>
<trkpt lat="22.192499" lon="113.544861">
    <ele>24</ele>
    <time>2025-01-29T05:21:12Z</time>
    <extensions>
     <gpxtpx:TrackPointExtension>
      <gpxtpx:hr>73</gpxtpx:hr>
     </gpxtpx:TrackPointExtension>
    </extensions>
   </trkpt>
<trkpt lat="22.192495" lon="113.544853">
    <ele>24</ele>
    <time>2025-01-29T05:21:13Z</time>
    <extensions>
     <gpxtpx:TrackPointExtension>
      <gpxtpx:hr>74</gpxtpx:hr>
     </gpxtpx:TrackPointExtension>
    </extensions>
   </trkpt>
<trkpt lat="22.19248967" lon="113.54484567">
    <ele>24</ele>
    <time>2025-01-29T05:21:14Z</time>
    <extensions>
     <gpxtpx:TrackPointExtension>
      <gpxtpx:hr>74</gpxtpx:hr>
     </gpxtpx:TrackPointExtension>
    </extensions>
   </trkpt>
<trkpt lat="22.19248367" lon="113.54483867">
    <ele>24</ele>
    <time>2025-01-29T05:21:15Z</time>
    <extensions>
     <gpxtpx:TrackPointExtension>
      <gpxtpx:hr>73</gpxtpx:hr>
     </gpxtpx:TrackPointExtension>
    </extensions>
   </trkpt>
<trkpt lat="22.19247733" lon="113.54483233">
    <ele>24</ele>
    <time>2025-01-29T05:21:16Z</time>
    <extensions>
     <gpxtpx:TrackPointExtension>
      <gpxtpx:hr>73</gpxtpx:hr>
     </gpxtpx:TrackPointExtension>
    </extensions>
   </trkpt>
<trkpt lat="22.192471" lon="113.54482667">
    <ele>24</ele>
    <time>2025-01-29T05:21:17Z</time>
    <extensions>
     <gpxtpx:TrackPointExtension>
      <gpxtpx:hr>73</gpxtpx:hr>
     </gpxtpx:TrackPointExtension>
    </extensions>
   </trkpt>
<trkpt lat="22.19246467" lon="113.54482033">
    <ele>24</ele>
    <time>2025-01-29T05:21:18Z</time>
    <extensions>
     <gpxtpx:TrackPointExtension>
      <gpxtpx:hr>74</gpxtpx:hr>
     </gpxtpx:TrackPointExtension>
    </extensions>
   </trkpt>
<trkpt lat="22.19245833" lon="113.544814">
    <ele>24</ele>
    <time>2025-01-29T05:21:19Z</time>
    <extensions>
     <gpxtpx:TrackPointExtension>
      <gpxtpx:hr>75</gpxtpx:hr>
     </gpxtpx:TrackPointExtension>
    </extensions>
   </trkpt>
<trkpt lat="22.192452" lon="113.54480733">
    <ele>24</ele>
    <time>2025-01-29T05:21:20Z</time>
    <extensions>
     <gpxtpx:TrackPointExtension>
      <gpxtpx:hr>76</gpxtpx:hr>
     </gpxtpx:TrackPointExtension>
    </extensions>
   </trkpt>
<trkpt lat="22.192446" lon="113.54480033">
    <ele>24</ele>
    <time>2025-01-29T05:21:21Z</time>
    <extensions>
     <gpxtpx:TrackPointExtension>
      <gpxtpx:hr>76</gpxtpx:hr>
     </gpxtpx:TrackPointExtension>
    </extensions>
   </trkpt>
<trkpt lat="22.19243967" lon="113.54479367">
    <ele>24</ele>
    <time>2025-01-29T05:21:22Z</time>
    <extensions>
     <gpxtpx:TrackPointExtension>
      <gpxtpx:hr>76</gpxtpx:hr>
     </gpxtpx:TrackPointExtension>
    </extensions>
   </trkpt>
<trkpt lat="22.192434" lon="113.54478733">
    <ele>24</ele>
    <time>2025-01-29T05:21:23Z</time>
    <extensions>
     <gpxtpx:TrackPointExtension>
      <gpxtpx:hr>76</gpxtpx:hr>
     </gpxtpx:TrackPointExtension>
    </extensions>
   </trkpt>
<trkpt lat="22.19243" lon="113.544783">
    <ele>24</ele>
    <time>2025-01-29T05:21:24Z</time>
    <extensions>
     <gpxtpx:TrackPointExtension>
      <gpxtpx:hr>76</gpxtpx:hr>
     </gpxtpx:TrackPointExtension>
    </extensions>
   </trkpt>
<trkpt lat="22.19242567" lon="113.54477867">
    <ele>24</ele>
    <time>2025-01-29T05:21:25Z</time>
    <extensions>
     <gpxtpx:TrackPointExtension>
      <gpxtpx:hr>75</gpxtpx:hr>
     </gpxtpx:TrackPointExtension>
    </extensions>
   </trkpt>
<trkpt lat="22.192421" lon="113.54477333">
    <ele>24</ele>
    <time>2025-01-29T05:21:26Z</time>
    <extensions>
     <gpxtpx:TrackPointExtension>
      <gpxtpx:hr>75</gpxtpx:hr>
     </gpxtpx:TrackPointExtension>
    </extensions>
   </trkpt>
<trkpt lat="22.19241633" lon="113.54476733">
    <ele>24</ele>
    <time>2025-01-29T05:21:27Z</time>
    <extensions>
     <gpxtpx:TrackPointExtension>
      <gpxtpx:hr>75</gpxtpx:hr>
     </gpxtpx:TrackPointExtension>
    </extensions>
   </trkpt>
<trkpt lat="22.19241233" lon="113.544761">
    <ele>24</ele>
    <time>2025-01-29T05:21:28Z</time>
    <extensions>
     <gpxtpx:TrackPointExtension>
      <gpxtpx:hr>75</gpxtpx:hr>
     </gpxtpx:TrackPointExtension>
    </extensions>
   </trkpt>
<trkpt lat="22.19240867" lon="113.54475433">
    <ele>24</ele>
    <time>2025-01-29T05:21:29Z</time>
    <extensions>
     <gpxtpx:TrackPointExtension>
      <gpxtpx:hr>75</gpxtpx:hr>
     </gpxtpx:TrackPointExtension>
    </extensions>
   </trkpt>
<trkpt lat="22.19240567" lon="113.54474767">
    <ele>24</ele>
    <time>2025-01-29T05:21:30Z</time>
    <extensions>
     <gpxtpx:TrackPointExtension>
      <gpxtpx:hr>75</gpxtpx:hr>
     </gpxtpx:TrackPointExtension>
    </extensions>
   </trkpt>
<trkpt lat="22.19240333" lon="113.544741">
    <ele>24</ele>
    <time>2025-01-29T05:21:31Z</time>
    <extensions>
     <gpxtpx:TrackPointExtension>
      <gpxtpx:hr>76</gpxtpx:hr>
     </gpxtpx:TrackPointExtension>
    </extensions>
   </trkpt>
<trkpt lat="22.19240267" lon="113.54473367">
    <ele>24</ele>
    <time>2025-01-29T05:21:32Z</time>
    <extensions>
     <gpxtpx:TrackPointExtension>
      <gpxtpx:hr>78</gpxtpx:hr>
     </gpxtpx:TrackPointExtension>
    </extensions>
   </trkpt>
<trkpt lat="22.192404" lon="113.54472633">
    <ele>24</ele>
    <time>2025-01-29T05:21:33Z</time>
    <extensions>
     <gpxtpx:TrackPointExtension>
      <gpxtpx:hr>79</gpxtpx:hr>
     </gpxtpx:TrackPointExtension>
    </extensions>
   </trkpt>
<trkpt lat="22.19240667" lon="113.54471933">
    <ele>24</ele>
    <time>2025-01-29T05:21:34Z</time>
    <extensions>
     <gpxtpx:TrackPointExtension>
      <gpxtpx:hr>79</gpxtpx:hr>
     </gpxtpx:TrackPointExtension>
    </extensions>
   </trkpt>
<trkpt lat="22.19241067" lon="113.544713">
    <ele>24</ele>
    <time>2025-01-29T05:21:35Z</time>
    <extensions>
     <gpxtpx:TrackPointExtension>
      <gpxtpx:hr>80</gpxtpx:hr>
     </gpxtpx:TrackPointExtension>
    </extensions>
   </trkpt>
<trkpt lat="22.192415" lon="113.54470767">
    <ele>24</ele>
    <time>2025-01-29T05:21:36Z</time>
    <extensions>
     <gpxtpx:TrackPointExtension>
      <gpxtpx:hr>80</gpxtpx:hr>
     </gpxtpx:TrackPointExtension>
    </extensions>
   </trkpt>
<trkpt lat="22.192419" lon="113.54470333">
    <ele>24</ele>
    <time>2025-01-29T05:21:37Z</time>
    <extensions>
     <gpxtpx:TrackPointExtension>
      <gpxtpx:hr>79</gpxtpx:hr>
     </gpxtpx:TrackPointExtension>
    </extensions>
   </trkpt>
<trkpt lat="22.192423" lon="113.54469967">
    <ele>24</ele>
    <time>2025-01-29T05:21:38Z</time>
    <extensions>
     <gpxtpx:TrackPointExtension>
      <gpxtpx:hr>79</gpxtpx:hr>
     </gpxtpx:TrackPointExtension>
    </extensions>
   </trkpt>
<trkpt lat="22.19242733" lon="113.544695">
    <ele>24</ele>
    <time>2025-01-29T05:21:39Z</time>
    <extensions>
     <gpxtpx:TrackPointExtension>
      <gpxtpx:hr>78</gpxtpx:hr>
     </gpxtpx:TrackPointExtension>
    </extensions>
   </trkpt>
<trkpt lat="22.19243167" lon="113.54469033">
    <ele>24</ele>
    <time>2025-01-29T05:21:40Z</time>
    <extensions>
     <gpxtpx:TrackPointExtension>
      <gpxtpx:hr>78</gpxtpx:hr>
     </gpxtpx:TrackPointExtension>
    </extensions>
   </trkpt>
<trkpt lat="22.19243567" lon="113.54468333">
    <ele>24</ele>
    <time>2025-01-29T05:21:41Z</time>
    <extensions>
     <gpxtpx:TrackPointExtension>
      <gpxtpx:hr>78</gpxtpx:hr>
     </gpxtpx:TrackPointExtension>
    </extensions>
   </trkpt>
<trkpt lat="22.19244033" lon="113.54467433">
    <ele>24</ele>
    <time>2025-01-29T05:21:42Z</time>
    <extensions>
     <gpxtpx:TrackPointExtension>
      <gpxtpx:hr>78</gpxtpx:hr>
     </gpxtpx:TrackPointExtension>
    </extensions>
   </trkpt>
<trkpt lat="22.19244467" lon="113.544665">
    <ele>23</ele>
    <time>2025-01-29T05:21:43Z</time>
    <extensions>
     <gpxtpx:TrackPointExtension>
      <gpxtpx:hr>78</gpxtpx:hr>
     </gpxtpx:TrackPointExtension>
    </extensions>
   </trkpt>
<trkpt lat="22.19244767" lon="113.54465567">
    <ele>23</ele>
    <time>2025-01-29T05:21:44Z</time>
    <extensions>
     <gpxtpx:TrackPointExtension>
      <gpxtpx:hr>78</gpxtpx:hr>
     </gpxtpx:TrackPointExtension>
    </extensions>
   </trkpt>
<trkpt lat="22.19244933" lon="113.54464667">
    <ele>23</ele>
    <time>2025-01-29T05:21:45Z</time>
    <extensions>
     <gpxtpx:TrackPointExtension>
      <gpxtpx:hr>78</gpxtpx:hr>
     </gpxtpx:TrackPointExtension>
    </extensions>
   </trkpt>
<trkpt lat="22.19245033" lon="113.54463833">
    <ele>23</ele>
    <time>2025-01-29T05:21:46Z</time>
    <extensions>
     <gpxtpx:TrackPointExtension>
      <gpxtpx:hr>78</gpxtpx:hr>
     </gpxtpx:TrackPointExtension>
    </extensions>
   </trkpt>
<trkpt lat="22.192451" lon="113.54463067">
    <ele>23</ele>
    <time>2025-01-29T05:21:47Z</time>
    <extensions>
     <gpxtpx:TrackPointExtension>
      <gpxtpx:hr>78</gpxtpx:hr>
     </gpxtpx:TrackPointExtension>
    </extensions>
   </trkpt>
<trkpt lat="22.19245133" lon="113.54462367">
    <ele>23</ele>
    <time>2025-01-29T05:21:48Z</time>
    <extensions>
     <gpxtpx:TrackPointExtension>
      <gpxtpx:hr>78</gpxtpx:hr>
     </gpxtpx:TrackPointExtension>
    </extensions>
   </trkpt>
<trkpt lat="22.19245033" lon="113.54461767">
    <ele>23</ele>
    <time>2025-01-29T05:21:49Z</time>
    <extensions>
     <gpxtpx:TrackPointExtension>
      <gpxtpx:hr>78</gpxtpx:hr>
     </gpxtpx:TrackPointExtension>
    </extensions>
   </trkpt>
<trkpt lat="22.19244933" lon="113.54461267">
    <ele>23</ele>
    <time>2025-01-29T05:21:50Z</time>
    <extensions>
     <gpxtpx:TrackPointExtension>
      <gpxtpx:hr>78</gpxtpx:hr>
     </gpxtpx:TrackPointExtension>
    </extensions>
   </trkpt>
<trkpt lat="22.19245" lon="113.54460833">
    <ele>23</ele>
    <time>2025-01-29T05:21:51Z</time>
    <extensions>
     <gpxtpx:TrackPointExtension>
      <gpxtpx:hr>78</gpxtpx:hr>
     </gpxtpx:TrackPointExtension>
    </extensions>
   </trkpt>
<trkpt lat="22.192452" lon="113.54460467">
    <ele>23</ele>
    <time>2025-01-29T05:21:52Z</time>
    <extensions>
     <gpxtpx:TrackPointExtension>
      <gpxtpx:hr>77</gpxtpx:hr>
     </gpxtpx:TrackPointExtension>
    </extensions>
   </trkpt>
<trkpt lat="22.192456" lon="113.54460133">
    <ele>23</ele>
    <time>2025-01-29T05:21:53Z</time>
    <extensions>
     <gpxtpx:TrackPointExtension>
      <gpxtpx:hr>77</gpxtpx:hr>
     </gpxtpx:TrackPointExtension>
    </extensions>
   </trkpt>
<trkpt lat="22.192461" lon="113.54459833">
    <ele>23</ele>
    <time>2025-01-29T05:21:54Z</time>
    <extensions>
     <gpxtpx:TrackPointExtension>
      <gpxtpx:hr>77</gpxtpx:hr>
     </gpxtpx:TrackPointExtension>
    </extensions>
   </trkpt>
<trkpt lat="22.19246733" lon="113.54459533">
    <ele>23</ele>
    <time>2025-01-29T05:21:55Z</time>
    <extensions>
     <gpxtpx:TrackPointExtension>
      <gpxtpx:hr>77</gpxtpx:hr>
     </gpxtpx:TrackPointExtension>
    </extensions>
   </trkpt>
<trkpt lat="22.192474" lon="113.544592">
    <ele>23</ele>
    <time>2025-01-29T05:21:56Z</time>
    <extensions>
     <gpxtpx:TrackPointExtension>
      <gpxtpx:hr>77</gpxtpx:hr>
     </gpxtpx:TrackPointExtension>
    </extensions>
   </trkpt>
<trkpt lat="22.19248067" lon="113.544589">
    <ele>23</ele>
    <time>2025-01-29T05:21:57Z</time>
    <extensions>
     <gpxtpx:TrackPointExtension>
      <gpxtpx:hr>77</gpxtpx:hr>
     </gpxtpx:TrackPointExtension>
    </extensions>
   </trkpt>
<trkpt lat="22.19248767" lon="113.544585">
    <ele>23</ele>
    <time>2025-01-29T05:21:58Z</time>
    <extensions>
     <gpxtpx:TrackPointExtension>
      <gpxtpx:hr>77</gpxtpx:hr>
     </gpxtpx:TrackPointExtension>
    </extensions>
   </trkpt>
<trkpt lat="22.19249467" lon="113.54458">
    <ele>23</ele>
    <time>2025-01-29T05:21:59Z</time>
    <extensions>
     <gpxtpx:TrackPointExtension>
      <gpxtpx:hr>77</gpxtpx:hr>
     </gpxtpx:TrackPointExtension>
    </extensions>
   </trkpt>
<trkpt lat="22.19250033" lon="113.54457433">
    <ele>23</ele>
    <time>2025-01-29T05:22:00Z</time>
    <extensions>
     <gpxtpx:TrackPointExtension>
      <gpxtpx:hr>79</gpxtpx:hr>
     </gpxtpx:TrackPointExtension>
    </extensions>
   </trkpt>
<trkpt lat="22.192504" lon="113.544569">
    <ele>23</ele>
    <time>2025-01-29T05:22:01Z</time>
    <extensions>
     <gpxtpx:TrackPointExtension>
      <gpxtpx:hr>79</gpxtpx:hr>
     </gpxtpx:TrackPointExtension>
    </extensions>
   </trkpt>
<trkpt lat="22.19250733" lon="113.54456367">
    <ele>23</ele>
    <time>2025-01-29T05:22:02Z</time>
    <extensions>
     <gpxtpx:TrackPointExtension>
      <gpxtpx:hr>79</gpxtpx:hr>
     </gpxtpx:TrackPointExtension>
    </extensions>
   </trkpt>
<trkpt lat="22.192511" lon="113.54455933">
    <ele>23</ele>
    <time>2025-01-29T05:22:03Z</time>
    <extensions>
     <gpxtpx:TrackPointExtension>
      <gpxtpx:hr>79</gpxtpx:hr>
     </gpxtpx:TrackPointExtension>
    </extensions>
   </trkpt>
<trkpt lat="22.192515" lon="113.544555">
    <ele>23</ele>
    <time>2025-01-29T05:22:04Z</time>
    <extensions>
     <gpxtpx:TrackPointExtension>
      <gpxtpx:hr>79</gpxtpx:hr>
     </gpxtpx:TrackPointExtension>
    </extensions>
   </trkpt>
<trkpt lat="22.192518" lon="113.54455133">
    <ele>22</ele>
    <time>2025-01-29T05:22:05Z</time>
    <extensions>
     <gpxtpx:TrackPointExtension>
      <gpxtpx:hr>78</gpxtpx:hr>
     </gpxtpx:TrackPointExtension>
    </extensions>
   </trkpt>
<trkpt lat="22.19251967" lon="113.544547">
    <ele>22</ele>
    <time>2025-01-29T05:22:06Z</time>
    <extensions>
     <gpxtpx:TrackPointExtension>
      <gpxtpx:hr>78</gpxtpx:hr>
     </gpxtpx:TrackPointExtension>
    </extensions>
   </trkpt>
<trkpt lat="22.19252067" lon="113.54454">
    <ele>22</ele>
    <time>2025-01-29T05:22:07Z</time>
    <extensions>
     <gpxtpx:TrackPointExtension>
      <gpxtpx:hr>78</gpxtpx:hr>
     </gpxtpx:TrackPointExtension>
    </extensions>
   </trkpt>
<trkpt lat="22.192522" lon="113.54453267">
    <ele>22</ele>
    <time>2025-01-29T05:22:08Z</time>
    <extensions>
     <gpxtpx:TrackPointExtension>
      <gpxtpx:hr>78</gpxtpx:hr>
     </gpxtpx:TrackPointExtension>
    </extensions>
   </trkpt>
<trkpt lat="22.19252333" lon="113.54452633">
    <ele>22</ele>
    <time>2025-01-29T05:22:09Z</time>
    <extensions>
     <gpxtpx:TrackPointExtension>
      <gpxtpx:hr>78</gpxtpx:hr>
     </gpxtpx:TrackPointExtension>
    </extensions>
   </trkpt>
<trkpt lat="22.192524" lon="113.54452067">
    <ele>22</ele>
    <time>2025-01-29T05:22:10Z</time>
    <extensions>
     <gpxtpx:TrackPointExtension>
      <gpxtpx:hr>79</gpxtpx:hr>
     </gpxtpx:TrackPointExtension>
    </extensions>
   </trkpt>
<trkpt lat="22.19252433" lon="113.54451567">
    <ele>22</ele>
    <time>2025-01-29T05:22:11Z</time>
    <extensions>
     <gpxtpx:TrackPointExtension>
      <gpxtpx:hr>80</gpxtpx:hr>
     </gpxtpx:TrackPointExtension>
    </extensions>
   </trkpt>
<trkpt lat="22.192523" lon="113.54451167">
    <ele>22</ele>
    <time>2025-01-29T05:22:12Z</time>
    <extensions>
     <gpxtpx:TrackPointExtension>
      <gpxtpx:hr>81</gpxtpx:hr>
     </gpxtpx:TrackPointExtension>
    </extensions>
   </trkpt>
<trkpt lat="22.19252" lon="113.54450867">
    <ele>22</ele>
    <time>2025-01-29T05:22:13Z</time>
    <extensions>
     <gpxtpx:TrackPointExtension>
      <gpxtpx:hr>82</gpxtpx:hr>
     </gpxtpx:TrackPointExtension>
    </extensions>
   </trkpt>
<trkpt lat="22.192515" lon="113.54450733">
    <ele>22</ele>
    <time>2025-01-29T05:22:14Z</time>
    <extensions>
     <gpxtpx:TrackPointExtension>
      <gpxtpx:hr>83</gpxtpx:hr>
     </gpxtpx:TrackPointExtension>
    </extensions>
   </trkpt>
<trkpt lat="22.192509" lon="113.54450733">
    <ele>22</ele>
    <time>2025-01-29T05:22:15Z</time>
    <extensions>
     <gpxtpx:TrackPointExtension>
      <gpxtpx:hr>83</gpxtpx:hr>
     </gpxtpx:TrackPointExtension>
    </extensions>
   </trkpt>
<trkpt lat="22.19250267" lon="113.54450833">
    <ele>22</ele>
    <time>2025-01-29T05:22:16Z</time>
    <extensions>
     <gpxtpx:TrackPointExtension>
      <gpxtpx:hr>83</gpxtpx:hr>
     </gpxtpx:TrackPointExtension>
    </extensions>
   </trkpt>
<trkpt lat="22.19249533" lon="113.544511">
    <ele>22</ele>
    <time>2025-01-29T05:22:17Z</time>
    <extensions>
     <gpxtpx:TrackPointExtension>
      <gpxtpx:hr>83</gpxtpx:hr>
     </gpxtpx:TrackPointExtension>
    </extensions>
   </trkpt>
<trkpt lat="22.192488" lon="113.54451433">
    <ele>22</ele>
    <time>2025-01-29T05:22:18Z</time>
    <extensions>
     <gpxtpx:TrackPointExtension>
      <gpxtpx:hr>85</gpxtpx:hr>
     </gpxtpx:TrackPointExtension>
    </extensions>
   </trkpt>
<trkpt lat="22.19248033" lon="113.54451867">
    <ele>22</ele>
    <time>2025-01-29T05:22:19Z</time>
    <extensions>
     <gpxtpx:TrackPointExtension>
      <gpxtpx:hr>86</gpxtpx:hr>
     </gpxtpx:TrackPointExtension>
    </extensions>
   </trkpt>
<trkpt lat="22.19247233" lon="113.54452433">
    <ele>22</ele>
    <time>2025-01-29T05:22:20Z</time>
    <extensions>
     <gpxtpx:TrackPointExtension>
      <gpxtpx:hr>87</gpxtpx:hr>
     </gpxtpx:TrackPointExtension>
    </extensions>
   </trkpt>
<trkpt lat="22.192464" lon="113.54452933">
    <ele>22</ele>
    <time>2025-01-29T05:22:21Z</time>
    <extensions>
     <gpxtpx:TrackPointExtension>
      <gpxtpx:hr>87</gpxtpx:hr>
     </gpxtpx:TrackPointExtension>
    </extensions>
   </trkpt>
<trkpt lat="22.19245467" lon="113.54453367">
    <ele>21</ele>
    <time>2025-01-29T05:22:22Z</time>
    <extensions>
     <gpxtpx:TrackPointExtension>
      <gpxtpx:hr>88</gpxtpx:hr>
     </gpxtpx:TrackPointExtension>
    </extensions>
   </trkpt>
<trkpt lat="22.192444" lon="113.54453767">
    <ele>21</ele>
    <time>2025-01-29T05:22:23Z</time>
    <extensions>
     <gpxtpx:TrackPointExtension>
      <gpxtpx:hr>89</gpxtpx:hr>
     </gpxtpx:TrackPointExtension>
    </extensions>
   </trkpt>
<trkpt lat="22.192433" lon="113.544541">
    <ele>21</ele>
    <time>2025-01-29T05:22:24Z</time>
    <extensions>
     <gpxtpx:TrackPointExtension>
      <gpxtpx:hr>90</gpxtpx:hr>
     </gpxtpx:TrackPointExtension>
    </extensions>
   </trkpt>
<trkpt lat="22.19242267" lon="113.544543">
    <ele>21</ele>
    <time>2025-01-29T05:22:25Z</time>
    <extensions>
     <gpxtpx:TrackPointExtension>
      <gpxtpx:hr>90</gpxtpx:hr>
     </gpxtpx:TrackPointExtension>
    </extensions>
   </trkpt>
<trkpt lat="22.19241267" lon="113.54454267">
    <ele>21</ele>
    <time>2025-01-29T05:22:26Z</time>
    <extensions>
     <gpxtpx:TrackPointExtension>
      <gpxtpx:hr>89</gpxtpx:hr>
     </gpxtpx:TrackPointExtension>
    </extensions>
   </trkpt>
<trkpt lat="22.19240433" lon="113.54454033">
    <ele>21</ele>
    <time>2025-01-29T05:22:27Z</time>
    <extensions>
     <gpxtpx:TrackPointExtension>
      <gpxtpx:hr>88</gpxtpx:hr>
     </gpxtpx:TrackPointExtension>
    </extensions>
   </trkpt>
<trkpt lat="22.19239833" lon="113.54453667">
    <ele>21</ele>
    <time>2025-01-29T05:22:28Z</time>
    <extensions>
     <gpxtpx:TrackPointExtension>
      <gpxtpx:hr>88</gpxtpx:hr>
     </gpxtpx:TrackPointExtension>
    </extensions>
   </trkpt>
<trkpt lat="22.19239367" lon="113.54453233">
    <ele>21</ele>
    <time>2025-01-29T05:22:29Z</time>
    <extensions>
     <gpxtpx:TrackPointExtension>
      <gpxtpx:hr>87</gpxtpx:hr>
     </gpxtpx:TrackPointExtension>
    </extensions>
   </trkpt>
<trkpt lat="22.19239" lon="113.54452833">
    <ele>20</ele>
    <time>2025-01-29T05:22:30Z</time>
    <extensions>
     <gpxtpx:TrackPointExtension>
      <gpxtpx:hr>87</gpxtpx:hr>
     </gpxtpx:TrackPointExtension>
    </extensions>
   </trkpt>
<trkpt lat="22.192386" lon="113.54452467">
    <ele>20</ele>
    <time>2025-01-29T05:22:31Z</time>
    <extensions>
     <gpxtpx:TrackPointExtension>
      <gpxtpx:hr>86</gpxtpx:hr>
     </gpxtpx:TrackPointExtension>
    </extensions>
   </trkpt>
<trkpt lat="22.19238233" lon="113.54452233">
    <ele>20</ele>
    <time>2025-01-29T05:22:32Z</time>
    <extensions>
     <gpxtpx:TrackPointExtension>
      <gpxtpx:hr>85</gpxtpx:hr>
     </gpxtpx:TrackPointExtension>
    </extensions>
   </trkpt>
<trkpt lat="22.19237867" lon="113.54451967">
    <ele>20</ele>
    <time>2025-01-29T05:22:33Z</time>
    <extensions>
     <gpxtpx:TrackPointExtension>
      <gpxtpx:hr>85</gpxtpx:hr>
     </gpxtpx:TrackPointExtension>
    </extensions>
   </trkpt>
<trkpt lat="22.19237533" lon="113.54451667">
    <ele>20</ele>
    <time>2025-01-29T05:22:34Z</time>
    <extensions>
     <gpxtpx:TrackPointExtension>
      <gpxtpx:hr>85</gpxtpx:hr>
     </gpxtpx:TrackPointExtension>
    </extensions>
   </trkpt>
<trkpt lat="22.19237267" lon="113.54451367">
    <ele>20</ele>
    <time>2025-01-29T05:22:35Z</time>
    <extensions>
     <gpxtpx:TrackPointExtension>
      <gpxtpx:hr>84</gpxtpx:hr>
     </gpxtpx:TrackPointExtension>
    </extensions>
   </trkpt>
<trkpt lat="22.19237067" lon="113.54451067">
    <ele>20</ele>
    <time>2025-01-29T05:22:36Z</time>
    <extensions>
     <gpxtpx:TrackPointExtension>
      <gpxtpx:hr>83</gpxtpx:hr>
     </gpxtpx:TrackPointExtension>
    </extensions>
   </trkpt>
<trkpt lat="22.19236933" lon="113.544508">
    <ele>20</ele>
    <time>2025-01-29T05:22:37Z</time>
    <extensions>
     <gpxtpx:TrackPointExtension>
      <gpxtpx:hr>82</gpxtpx:hr>
     </gpxtpx:TrackPointExtension>
    </extensions>
   </trkpt>
<trkpt lat="22.19236867" lon="113.544506">
    <ele>20</ele>
    <time>2025-01-29T05:22:38Z</time>
    <extensions>
     <gpxtpx:TrackPointExtension>
      <gpxtpx:hr>82</gpxtpx:hr>
     </gpxtpx:TrackPointExtension>
    </extensions>
   </trkpt>
<trkpt lat="22.19236833" lon="113.54450433">
    <ele>20</ele>
    <time>2025-01-29T05:22:39Z</time>
    <extensions>
     <gpxtpx:TrackPointExtension>
      <gpxtpx:hr>82</gpxtpx:hr>
     </gpxtpx:TrackPointExtension>
    </extensions>
   </trkpt>
<trkpt lat="22.19236767" lon="113.544503">
    <ele>20</ele>
    <time>2025-01-29T05:22:40Z</time>
    <extensions>
     <gpxtpx:TrackPointExtension>
      <gpxtpx:hr>79</gpxtpx:hr>
     </gpxtpx:TrackPointExtension>
    </extensions>
   </trkpt>
<trkpt lat="22.19236733" lon="113.54450167">
    <ele>20</ele>
    <time>2025-01-29T05:22:41Z</time>
    <extensions>
     <gpxtpx:TrackPointExtension>
      <gpxtpx:hr>77</gpxtpx:hr>
     </gpxtpx:TrackPointExtension>
    </extensions>
   </trkpt>
<trkpt lat="22.19236733" lon="113.54450067">
    <ele>20</ele>
    <time>2025-01-29T05:22:42Z</time>
    <extensions>
     <gpxtpx:TrackPointExtension>
      <gpxtpx:hr>76</gpxtpx:hr>
     </gpxtpx:TrackPointExtension>
    </extensions>
   </trkpt>
<trkpt lat="22.19236733" lon="113.54449933">
    <ele>20</ele>
    <time>2025-01-29T05:22:43Z</time>
    <extensions>
     <gpxtpx:TrackPointExtension>
      <gpxtpx:hr>75</gpxtpx:hr>
     </gpxtpx:TrackPointExtension>
    </extensions>
   </trkpt>
<trkpt lat="22.19236733" lon="113.54449867">
    <ele>19</ele>
    <time>2025-01-29T05:22:44Z</time>
    <extensions>
     <gpxtpx:TrackPointExtension>
      <gpxtpx:hr>75</gpxtpx:hr>
     </gpxtpx:TrackPointExtension>
    </extensions>
   </trkpt>
<trkpt lat="22.19236733" lon="113.544498">
    <ele>19</ele>
    <time>2025-01-29T05:22:45Z</time>
    <extensions>
     <gpxtpx:TrackPointExtension>
      <gpxtpx:hr>75</gpxtpx:hr>
     </gpxtpx:TrackPointExtension>
    </extensions>
   </trkpt>
<trkpt lat="22.19236767" lon="113.54449733">
    <ele>19</ele>
    <time>2025-01-29T05:22:46Z</time>
    <extensions>
     <gpxtpx:TrackPointExtension>
      <gpxtpx:hr>76</gpxtpx:hr>
     </gpxtpx:TrackPointExtension>
    </extensions>
   </trkpt>
<trkpt lat="22.19236767" lon="113.54449667">
    <ele>19</ele>
    <time>2025-01-29T05:22:47Z</time>
    <extensions>
     <gpxtpx:TrackPointExtension>
      <gpxtpx:hr>77</gpxtpx:hr>
     </gpxtpx:TrackPointExtension>
    </extensions>
   </trkpt>
<trkpt lat="22.19236767" lon="113.54449667">
    <ele>19</ele>
    <time>2025-01-29T05:22:48Z</time>
    <extensions>
     <gpxtpx:TrackPointExtension>
      <gpxtpx:hr>78</gpxtpx:hr>
     </gpxtpx:TrackPointExtension>
    </extensions>
   </trkpt>
<trkpt lat="22.19236767" lon="113.54449633">
    <ele>19</ele>
    <time>2025-01-29T05:22:49Z</time>
    <extensions>
     <gpxtpx:TrackPointExtension>
      <gpxtpx:hr>78</gpxtpx:hr>
     </gpxtpx:TrackPointExtension>
    </extensions>
   </trkpt>
<trkpt lat="22.19236767" lon="113.54449633">
    <ele>19</ele>
    <time>2025-01-29T05:22:50Z</time>
    <extensions>
     <gpxtpx:TrackPointExtension>
      <gpxtpx:hr>78</gpxtpx:hr>
     </gpxtpx:TrackPointExtension>
    </extensions>
   </trkpt>
<trkpt lat="22.19236767" lon="113.54449633">
    <ele>19</ele>
    <time>2025-01-29T05:22:51Z</time>
    <extensions>
     <gpxtpx:TrackPointExtension>
      <gpxtpx:hr>79</gpxtpx:hr>
     </gpxtpx:TrackPointExtension>
    </extensions>
   </trkpt>
<trkpt lat="22.19236767" lon="113.54449633">
    <ele>19</ele>
    <time>2025-01-29T05:22:52Z</time>
    <extensions>
     <gpxtpx:TrackPointExtension>
      <gpxtpx:hr>79</gpxtpx:hr>
     </gpxtpx:TrackPointExtension>
    </extensions>
   </trkpt>
<trkpt lat="22.19236767" lon="113.54449633">
    <ele>19</ele>
    <time>2025-01-29T05:22:53Z</time>
    <extensions>
     <gpxtpx:TrackPointExtension>
      <gpxtpx:hr>79</gpxtpx:hr>
     </gpxtpx:TrackPointExtension>
    </extensions>
   </trkpt>
<trkpt lat="22.19236767" lon="113.54449633">
    <ele>19</ele>
    <time>2025-01-29T05:22:54Z</time>
    <extensions>
     <gpxtpx:TrackPointExtension>
      <gpxtpx:hr>78</gpxtpx:hr>
     </gpxtpx:TrackPointExtension>
    </extensions>
   </trkpt>
<trkpt lat="22.19236767" lon="113.54449633">
    <ele>19</ele>
    <time>2025-01-29T05:23:15Z</time>
    <extensions>
     <gpxtpx:TrackPointExtension>
      <gpxtpx:hr>76</gpxtpx:hr>
     </gpxtpx:TrackPointExtension>
    </extensions>
   </trkpt>
<trkpt lat="22.19236767" lon="113.54449633">
    <ele>19</ele>
    <time>2025-01-29T05:23:16Z</time>
    <extensions>
     <gpxtpx:TrackPointExtension>
      <gpxtpx:hr>78</gpxtpx:hr>
     </gpxtpx:TrackPointExtension>
    </extensions>
   </trkpt>
<trkpt lat="22.19236767" lon="113.54449633">
    <ele>19</ele>
    <time>2025-01-29T05:23:17Z</time>
    <extensions>
     <gpxtpx:TrackPointExtension>
      <gpxtpx:hr>79</gpxtpx:hr>
     </gpxtpx:TrackPointExtension>
    </extensions>
   </trkpt>
<trkpt lat="22.19236767" lon="113.54449633">
    <ele>19</ele>
    <time>2025-01-29T05:23:18Z</time>
    <extensions>
     <gpxtpx:TrackPointExtension>
      <gpxtpx:hr>79</gpxtpx:hr>
     </gpxtpx:TrackPointExtension>
    </extensions>
   </trkpt>
<trkpt lat="22.19236767" lon="113.54449633">
    <ele>19</ele>
    <time>2025-01-29T05:23:19Z</time>
    <extensions>
     <gpxtpx:TrackPointExtension>
      <gpxtpx:hr>79</gpxtpx:hr>
     </gpxtpx:TrackPointExtension>
    </extensions>
   </trkpt>
<trkpt lat="22.19236767" lon="113.54449633">
    <ele>19</ele>
    <time>2025-01-29T05:23:20Z</time>
    <extensions>
     <gpxtpx:TrackPointExtension>
      <gpxtpx:hr>79</gpxtpx:hr>
     </gpxtpx:TrackPointExtension>
    </extensions>
   </trkpt>
<trkpt lat="22.19236767" lon="113.54449633">
    <ele>19</ele>
    <time>2025-01-29T05:23:21Z</time>
    <extensions>
     <gpxtpx:TrackPointExtension>
      <gpxtpx:hr>79</gpxtpx:hr>
     </gpxtpx:TrackPointExtension>
    </extensions>
   </trkpt>
<trkpt lat="22.19236767" lon="113.54449633">
    <ele>19</ele>
    <time>2025-01-29T05:23:22Z</time>
    <extensions>
     <gpxtpx:TrackPointExtension>
      <gpxtpx:hr>79</gpxtpx:hr>
     </gpxtpx:TrackPointExtension>
    </extensions>
   </trkpt>
<trkpt lat="22.19236767" lon="113.54449633">
    <ele>19</ele>
    <time>2025-01-29T05:23:23Z</time>
    <extensions>
     <gpxtpx:TrackPointExtension>
      <gpxtpx:hr>78</gpxtpx:hr>
     </gpxtpx:TrackPointExtension>
    </extensions>
   </trkpt>
<trkpt lat="22.19236767" lon="113.54449633">
    <ele>19</ele>
    <time>2025-01-29T05:23:24Z</time>
    <extensions>
     <gpxtpx:TrackPointExtension>
      <gpxtpx:hr>76</gpxtpx:hr>
     </gpxtpx:TrackPointExtension>
    </extensions>
   </trkpt>
<trkpt lat="22.19237633" lon="113.544479">
    <ele>19</ele>
    <time>2025-01-29T05:23:31Z</time>
    <extensions>
     <gpxtpx:TrackPointExtension>
      <gpxtpx:hr>75</gpxtpx:hr>
     </gpxtpx:TrackPointExtension>
    </extensions>
   </trkpt>
<trkpt lat="22.192377" lon="113.54447767">
    <ele>18</ele>
    <time>2025-01-29T05:23:32Z</time>
    <extensions>
     <gpxtpx:TrackPointExtension>
      <gpxtpx:hr>76</gpxtpx:hr>
     </gpxtpx:TrackPointExtension>
    </extensions>
   </trkpt>
<trkpt lat="22.19237833" lon="113.54447533">
    <ele>18</ele>
    <time>2025-01-29T05:23:33Z</time>
    <extensions>
     <gpxtpx:TrackPointExtension>
      <gpxtpx:hr>76</gpxtpx:hr>
     </gpxtpx:TrackPointExtension>
    </extensions>
   </trkpt>
<trkpt lat="22.19238067" lon="113.54447167">
    <ele>18</ele>
    <time>2025-01-29T05:23:34Z</time>
    <extensions>
     <gpxtpx:TrackPointExtension>
      <gpxtpx:hr>76</gpxtpx:hr>
     </gpxtpx:TrackPointExtension>
    </extensions>
   </trkpt>
<trkpt lat="22.192383" lon="113.54446667">
    <ele>18</ele>
    <time>2025-01-29T05:23:35Z</time>
    <extensions>
     <gpxtpx:TrackPointExtension>
      <gpxtpx:hr>75</gpxtpx:hr>
     </gpxtpx:TrackPointExtension>
    </extensions>
   </trkpt>
<trkpt lat="22.19238567" lon="113.54446">
    <ele>18</ele>
    <time>2025-01-29T05:23:36Z</time>
    <extensions>
     <gpxtpx:TrackPointExtension>
      <gpxtpx:hr>75</gpxtpx:hr>
     </gpxtpx:TrackPointExtension>
    </extensions>
   </trkpt>
<trkpt lat="22.19238767" lon="113.54445233">
    <ele>18</ele>
    <time>2025-01-29T05:23:37Z</time>
    <extensions>
     <gpxtpx:TrackPointExtension>
      <gpxtpx:hr>77</gpxtpx:hr>
     </gpxtpx:TrackPointExtension>
    </extensions>
   </trkpt>
<trkpt lat="22.19238967" lon="113.54444467">
    <ele>18</ele>
    <time>2025-01-29T05:23:38Z</time>
    <extensions>
     <gpxtpx:TrackPointExtension>
      <gpxtpx:hr>78</gpxtpx:hr>
     </gpxtpx:TrackPointExtension>
    </extensions>
   </trkpt>
<trkpt lat="22.192392" lon="113.54443633">
    <ele>18</ele>
    <time>2025-01-29T05:23:39Z</time>
    <extensions>
     <gpxtpx:TrackPointExtension>
      <gpxtpx:hr>78</gpxtpx:hr>
     </gpxtpx:TrackPointExtension>
    </extensions>
   </trkpt>
<trkpt lat="22.19239433" lon="113.54442833">
    <ele>18</ele>
    <time>2025-01-29T05:23:40Z</time>
    <extensions>
     <gpxtpx:TrackPointExtension>
      <gpxtpx:hr>78</gpxtpx:hr>
     </gpxtpx:TrackPointExtension>
    </extensions>
   </trkpt>
<trkpt lat="22.19239667" lon="113.54442067">
    <ele>17</ele>
    <time>2025-01-29T05:23:41Z</time>
    <extensions>
     <gpxtpx:TrackPointExtension>
      <gpxtpx:hr>78</gpxtpx:hr>
     </gpxtpx:TrackPointExtension>
    </extensions>
   </trkpt>
<trkpt lat="22.19239867" lon="113.54441433">
    <ele>17</ele>
    <time>2025-01-29T05:23:42Z</time>
    <extensions>
     <gpxtpx:TrackPointExtension>
      <gpxtpx:hr>77</gpxtpx:hr>
     </gpxtpx:TrackPointExtension>
    </extensions>
   </trkpt>
<trkpt lat="22.1924" lon="113.54441067">
    <ele>17</ele>
    <time>2025-01-29T05:23:43Z</time>
    <extensions>
     <gpxtpx:TrackPointExtension>
      <gpxtpx:hr>77</gpxtpx:hr>
     </gpxtpx:TrackPointExtension>
    </extensions>
   </trkpt>
<trkpt lat="22.192401" lon="113.54440833">
    <ele>17</ele>
    <time>2025-01-29T05:23:44Z</time>
    <extensions>
     <gpxtpx:TrackPointExtension>
      <gpxtpx:hr>77</gpxtpx:hr>
     </gpxtpx:TrackPointExtension>
    </extensions>
   </trkpt>
<trkpt lat="22.19240167" lon="113.544407">
    <ele>17</ele>
    <time>2025-01-29T05:23:45Z</time>
    <extensions>
     <gpxtpx:TrackPointExtension>
      <gpxtpx:hr>77</gpxtpx:hr>
     </gpxtpx:TrackPointExtension>
    </extensions>
   </trkpt>
<trkpt lat="22.19240233" lon="113.54440633">
    <ele>17</ele>
    <time>2025-01-29T05:23:46Z</time>
    <extensions>
     <gpxtpx:TrackPointExtension>
      <gpxtpx:hr>76</gpxtpx:hr>
     </gpxtpx:TrackPointExtension>
    </extensions>
   </trkpt>
<trkpt lat="22.19240333" lon="113.54440533">
    <ele>17</ele>
    <time>2025-01-29T05:23:47Z</time>
    <extensions>
     <gpxtpx:TrackPointExtension>
      <gpxtpx:hr>76</gpxtpx:hr>
     </gpxtpx:TrackPointExtension>
    </extensions>
   </trkpt>
<trkpt lat="22.19240433" lon="113.54440367">
    <ele>16</ele>
    <time>2025-01-29T05:23:48Z</time>
    <extensions>
     <gpxtpx:TrackPointExtension>
      <gpxtpx:hr>76</gpxtpx:hr>
     </gpxtpx:TrackPointExtension>
    </extensions>
   </trkpt>
<trkpt lat="22.19240533" lon="113.54440233">
    <ele>16</ele>
    <time>2025-01-29T05:23:49Z</time>
    <extensions>
     <gpxtpx:TrackPointExtension>
      <gpxtpx:hr>75</gpxtpx:hr>
     </gpxtpx:TrackPointExtension>
    </extensions>
   </trkpt>
<trkpt lat="22.192406" lon="113.54440067">
    <ele>16</ele>
    <time>2025-01-29T05:23:50Z</time>
    <extensions>
     <gpxtpx:TrackPointExtension>
      <gpxtpx:hr>74</gpxtpx:hr>
     </gpxtpx:TrackPointExtension>
    </extensions>
   </trkpt>
<trkpt lat="22.19240667" lon="113.54439933">
    <ele>16</ele>
    <time>2025-01-29T05:23:51Z</time>
    <extensions>
     <gpxtpx:TrackPointExtension>
      <gpxtpx:hr>74</gpxtpx:hr>
     </gpxtpx:TrackPointExtension>
    </extensions>
   </trkpt>
<trkpt lat="22.19240733" lon="113.54439833">
    <ele>16</ele>
    <time>2025-01-29T05:23:52Z</time>
    <extensions>
     <gpxtpx:TrackPointExtension>
      <gpxtpx:hr>74</gpxtpx:hr>
     </gpxtpx:TrackPointExtension>
    </extensions>
   </trkpt>
<trkpt lat="22.19240733" lon="113.54439733">
    <ele>16</ele>
    <time>2025-01-29T05:23:53Z</time>
    <extensions>
     <gpxtpx:TrackPointExtension>
      <gpxtpx:hr>74</gpxtpx:hr>
     </gpxtpx:TrackPointExtension>
    </extensions>
   </trkpt>
<trkpt lat="22.192407" lon="113.54439633">
    <ele>16</ele>
    <time>2025-01-29T05:23:54Z</time>
    <extensions>
     <gpxtpx:TrackPointExtension>
      <gpxtpx:hr>74</gpxtpx:hr>
     </gpxtpx:TrackPointExtension>
    </extensions>
   </trkpt>
<trkpt lat="22.192407" lon="113.54439567">
    <ele>16</ele>
    <time>2025-01-29T05:23:55Z</time>
    <extensions>
     <gpxtpx:TrackPointExtension>
      <gpxtpx:hr>74</gpxtpx:hr>
     </gpxtpx:TrackPointExtension>
    </extensions>
   </trkpt>
<trkpt lat="22.192408" lon="113.544394">
    <ele>16</ele>
    <time>2025-01-29T05:23:56Z</time>
    <extensions>
     <gpxtpx:TrackPointExtension>
      <gpxtpx:hr>74</gpxtpx:hr>
     </gpxtpx:TrackPointExtension>
    </extensions>
   </trkpt>
<trkpt lat="22.19240967" lon="113.54439133">
    <ele>16</ele>
    <time>2025-01-29T05:23:57Z</time>
    <extensions>
     <gpxtpx:TrackPointExtension>
      <gpxtpx:hr>74</gpxtpx:hr>
     </gpxtpx:TrackPointExtension>
    </extensions>
   </trkpt>
<trkpt lat="22.19241233" lon="113.544388">
    <ele>16</ele>
    <time>2025-01-29T05:23:58Z</time>
    <extensions>
     <gpxtpx:TrackPointExtension>
      <gpxtpx:hr>74</gpxtpx:hr>
     </gpxtpx:TrackPointExtension>
    </extensions>
   </trkpt>
<trkpt lat="22.19241533" lon="113.544384">
    <ele>16</ele>
    <time>2025-01-29T05:23:59Z</time>
    <extensions>
     <gpxtpx:TrackPointExtension>
      <gpxtpx:hr>74</gpxtpx:hr>
     </gpxtpx:TrackPointExtension>
    </extensions>
   </trkpt>
<trkpt lat="22.19241967" lon="113.54438">
    <ele>16</ele>
    <time>2025-01-29T05:24:00Z</time>
    <extensions>
     <gpxtpx:TrackPointExtension>
      <gpxtpx:hr>75</gpxtpx:hr>
     </gpxtpx:TrackPointExtension>
    </extensions>
   </trkpt>
<trkpt lat="22.192425" lon="113.54437567">
    <ele>16</ele>
    <time>2025-01-29T05:24:01Z</time>
    <extensions>
     <gpxtpx:TrackPointExtension>
      <gpxtpx:hr>74</gpxtpx:hr>
     </gpxtpx:TrackPointExtension>
    </extensions>
   </trkpt>
<trkpt lat="22.19243067" lon="113.54437033">
    <ele>16</ele>
    <time>2025-01-29T05:24:02Z</time>
    <extensions>
     <gpxtpx:TrackPointExtension>
      <gpxtpx:hr>74</gpxtpx:hr>
     </gpxtpx:TrackPointExtension>
    </extensions>
   </trkpt>
<trkpt lat="22.192436" lon="113.54436467">
    <ele>16</ele>
    <time>2025-01-29T05:24:03Z</time>
    <extensions>
     <gpxtpx:TrackPointExtension>
      <gpxtpx:hr>74</gpxtpx:hr>
     </gpxtpx:TrackPointExtension>
    </extensions>
   </trkpt>
<trkpt lat="22.19244067" lon="113.54435867">
    <ele>16</ele>
    <time>2025-01-29T05:24:04Z</time>
    <extensions>
     <gpxtpx:TrackPointExtension>
      <gpxtpx:hr>74</gpxtpx:hr>
     </gpxtpx:TrackPointExtension>
    </extensions>
   </trkpt>
<trkpt lat="22.192444" lon="113.54435367">
    <ele>16</ele>
    <time>2025-01-29T05:24:05Z</time>
    <extensions>
     <gpxtpx:TrackPointExtension>
      <gpxtpx:hr>75</gpxtpx:hr>
     </gpxtpx:TrackPointExtension>
    </extensions>
   </trkpt>
<trkpt lat="22.19244533" lon="113.54434933">
    <ele>16</ele>
    <time>2025-01-29T05:24:06Z</time>
    <extensions>
     <gpxtpx:TrackPointExtension>
      <gpxtpx:hr>75</gpxtpx:hr>
     </gpxtpx:TrackPointExtension>
    </extensions>
   </trkpt>
<trkpt lat="22.19244567" lon="113.54434533">
    <ele>16</ele>
    <time>2025-01-29T05:24:07Z</time>
    <extensions>
     <gpxtpx:TrackPointExtension>
      <gpxtpx:hr>76</gpxtpx:hr>
     </gpxtpx:TrackPointExtension>
    </extensions>
   </trkpt>
<trkpt lat="22.19244433" lon="113.544341">
    <ele>16</ele>
    <time>2025-01-29T05:24:08Z</time>
    <extensions>
     <gpxtpx:TrackPointExtension>
      <gpxtpx:hr>78</gpxtpx:hr>
     </gpxtpx:TrackPointExtension>
    </extensions>
   </trkpt>
<trkpt lat="22.19244067" lon="113.54433733">
    <ele>16</ele>
    <time>2025-01-29T05:24:09Z</time>
    <extensions>
     <gpxtpx:TrackPointExtension>
      <gpxtpx:hr>79</gpxtpx:hr>
     </gpxtpx:TrackPointExtension>
    </extensions>
   </trkpt>
<trkpt lat="22.19243533" lon="113.54433467">
    <ele>16</ele>
    <time>2025-01-29T05:24:10Z</time>
    <extensions>
     <gpxtpx:TrackPointExtension>
      <gpxtpx:hr>80</gpxtpx:hr>
     </gpxtpx:TrackPointExtension>
    </extensions>
   </trkpt>
<trkpt lat="22.19242867" lon="113.544334">
    <ele>16</ele>
    <time>2025-01-29T05:24:11Z</time>
    <extensions>
     <gpxtpx:TrackPointExtension>
      <gpxtpx:hr>81</gpxtpx:hr>
     </gpxtpx:TrackPointExtension>
    </extensions>
   </trkpt>
<trkpt lat="22.19242167" lon="113.544335">
    <ele>16</ele>
    <time>2025-01-29T05:24:12Z</time>
    <extensions>
     <gpxtpx:TrackPointExtension>
      <gpxtpx:hr>81</gpxtpx:hr>
     </gpxtpx:TrackPointExtension>
    </extensions>
   </trkpt>
<trkpt lat="22.192414" lon="113.544337">
    <ele>16</ele>
    <time>2025-01-29T05:24:13Z</time>
    <extensions>
     <gpxtpx:TrackPointExtension>
      <gpxtpx:hr>81</gpxtpx:hr>
     </gpxtpx:TrackPointExtension>
    </extensions>
   </trkpt>
<trkpt lat="22.19240633" lon="113.54433933">
    <ele>16</ele>
    <time>2025-01-29T05:24:14Z</time>
    <extensions>
     <gpxtpx:TrackPointExtension>
      <gpxtpx:hr>81</gpxtpx:hr>
     </gpxtpx:TrackPointExtension>
    </extensions>
   </trkpt>
<trkpt lat="22.19239833" lon="113.54434167">
    <ele>16</ele>
    <time>2025-01-29T05:24:15Z</time>
    <extensions>
     <gpxtpx:TrackPointExtension>
      <gpxtpx:hr>81</gpxtpx:hr>
     </gpxtpx:TrackPointExtension>
    </extensions>
   </trkpt>
<trkpt lat="22.19239033" lon="113.544344">
    <ele>16</ele>
    <time>2025-01-29T05:24:16Z</time>
    <extensions>
     <gpxtpx:TrackPointExtension>
      <gpxtpx:hr>81</gpxtpx:hr>
     </gpxtpx:TrackPointExtension>
    </extensions>
   </trkpt>
<trkpt lat="22.19238167" lon="113.544346">
    <ele>16</ele>
    <time>2025-01-29T05:24:17Z</time>
    <extensions>
     <gpxtpx:TrackPointExtension>
      <gpxtpx:hr>82</gpxtpx:hr>
     </gpxtpx:TrackPointExtension>
    </extensions>
   </trkpt>
<trkpt lat="22.19237333" lon="113.54434767">
    <ele>16</ele>
    <time>2025-01-29T05:24:18Z</time>
    <extensions>
     <gpxtpx:TrackPointExtension>
      <gpxtpx:hr>82</gpxtpx:hr>
     </gpxtpx:TrackPointExtension>
    </extensions>
   </trkpt>
<trkpt lat="22.19236467" lon="113.54434867">
    <ele>16</ele>
    <time>2025-01-29T05:24:19Z</time>
    <extensions>
     <gpxtpx:TrackPointExtension>
      <gpxtpx:hr>82</gpxtpx:hr>
     </gpxtpx:TrackPointExtension>
    </extensions>
   </trkpt>
<trkpt lat="22.192355" lon="113.54434933">
    <ele>16</ele>
    <time>2025-01-29T05:24:20Z</time>
    <extensions>
     <gpxtpx:TrackPointExtension>
      <gpxtpx:hr>82</gpxtpx:hr>
     </gpxtpx:TrackPointExtension>
    </extensions>
   </trkpt>
<trkpt lat="22.192345" lon="113.54434967">
    <ele>16</ele>
    <time>2025-01-29T05:24:21Z</time>
    <extensions>
     <gpxtpx:TrackPointExtension>
      <gpxtpx:hr>82</gpxtpx:hr>
     </gpxtpx:TrackPointExtension>
    </extensions>
   </trkpt>
<trkpt lat="22.192334" lon="113.544351">
    <ele>16</ele>
    <time>2025-01-29T05:24:22Z</time>
    <extensions>
     <gpxtpx:TrackPointExtension>
      <gpxtpx:hr>82</gpxtpx:hr>
     </gpxtpx:TrackPointExtension>
    </extensions>
   </trkpt>
<trkpt lat="22.19232233" lon="113.54435233">
    <ele>16</ele>
    <time>2025-01-29T05:24:23Z</time>
    <extensions>
     <gpxtpx:TrackPointExtension>
      <gpxtpx:hr>81</gpxtpx:hr>
     </gpxtpx:TrackPointExtension>
    </extensions>
   </trkpt>
<trkpt lat="22.19231067" lon="113.54435367">
    <ele>16</ele>
    <time>2025-01-29T05:24:24Z</time>
    <extensions>
     <gpxtpx:TrackPointExtension>
      <gpxtpx:hr>80</gpxtpx:hr>
     </gpxtpx:TrackPointExtension>
    </extensions>
   </trkpt>
<trkpt lat="22.19229967" lon="113.54435433">
    <ele>16</ele>
    <time>2025-01-29T05:24:25Z</time>
    <extensions>
     <gpxtpx:TrackPointExtension>
      <gpxtpx:hr>80</gpxtpx:hr>
     </gpxtpx:TrackPointExtension>
    </extensions>
   </trkpt>
<trkpt lat="22.192289" lon="113.54435467">
    <ele>16</ele>
    <time>2025-01-29T05:24:26Z</time>
    <extensions>
     <gpxtpx:TrackPointExtension>
      <gpxtpx:hr>80</gpxtpx:hr>
     </gpxtpx:TrackPointExtension>
    </extensions>
   </trkpt>
<trkpt lat="22.19227833" lon="113.54435467">
    <ele>16</ele>
    <time>2025-01-29T05:24:27Z</time>
    <extensions>
     <gpxtpx:TrackPointExtension>
      <gpxtpx:hr>79</gpxtpx:hr>
     </gpxtpx:TrackPointExtension>
    </extensions>
   </trkpt>
<trkpt lat="22.19226833" lon="113.54435433">
    <ele>16</ele>
    <time>2025-01-29T05:24:28Z</time>
    <extensions>
     <gpxtpx:TrackPointExtension>
      <gpxtpx:hr>77</gpxtpx:hr>
     </gpxtpx:TrackPointExtension>
    </extensions>
   </trkpt>
<trkpt lat="22.19225833" lon="113.54435433">
    <ele>16</ele>
    <time>2025-01-29T05:24:29Z</time>
    <extensions>
     <gpxtpx:TrackPointExtension>
      <gpxtpx:hr>77</gpxtpx:hr>
     </gpxtpx:TrackPointExtension>
    </extensions>
   </trkpt>
<trkpt lat="22.192248" lon="113.544354">
    <ele>16</ele>
    <time>2025-01-29T05:24:30Z</time>
    <extensions>
     <gpxtpx:TrackPointExtension>
      <gpxtpx:hr>77</gpxtpx:hr>
     </gpxtpx:TrackPointExtension>
    </extensions>
   </trkpt>
<trkpt lat="22.19223767" lon="113.54435367">
    <ele>16</ele>
    <time>2025-01-29T05:24:31Z</time>
    <extensions>
     <gpxtpx:TrackPointExtension>
      <gpxtpx:hr>76</gpxtpx:hr>
     </gpxtpx:TrackPointExtension>
    </extensions>
   </trkpt>
<trkpt lat="22.192227" lon="113.54435267">
    <ele>16</ele>
    <time>2025-01-29T05:24:32Z</time>
    <extensions>
     <gpxtpx:TrackPointExtension>
      <gpxtpx:hr>75</gpxtpx:hr>
     </gpxtpx:TrackPointExtension>
    </extensions>
   </trkpt>
<trkpt lat="22.192216" lon="113.54435133">
    <ele>16</ele>
    <time>2025-01-29T05:24:33Z</time>
    <extensions>
     <gpxtpx:TrackPointExtension>
      <gpxtpx:hr>75</gpxtpx:hr>
     </gpxtpx:TrackPointExtension>
    </extensions>
   </trkpt>
<trkpt lat="22.19220567" lon="113.54434933">
    <ele>16</ele>
    <time>2025-01-29T05:24:34Z</time>
    <extensions>
     <gpxtpx:TrackPointExtension>
      <gpxtpx:hr>75</gpxtpx:hr>
     </gpxtpx:TrackPointExtension>
    </extensions>
   </trkpt>
<trkpt lat="22.19219567" lon="113.544347">
    <ele>16</ele>
    <time>2025-01-29T05:24:35Z</time>
    <extensions>
     <gpxtpx:TrackPointExtension>
      <gpxtpx:hr>75</gpxtpx:hr>
     </gpxtpx:TrackPointExtension>
    </extensions>
   </trkpt>
<trkpt lat="22.19218767" lon="113.544342">
    <ele>16</ele>
    <time>2025-01-29T05:24:36Z</time>
    <extensions>
     <gpxtpx:TrackPointExtension>
      <gpxtpx:hr>74</gpxtpx:hr>
     </gpxtpx:TrackPointExtension>
    </extensions>
   </trkpt>
<trkpt lat="22.19218233" lon="113.54433533">
    <ele>16</ele>
    <time>2025-01-29T05:24:37Z</time>
    <extensions>
     <gpxtpx:TrackPointExtension>
      <gpxtpx:hr>74</gpxtpx:hr>
     </gpxtpx:TrackPointExtension>
    </extensions>
   </trkpt>
<trkpt lat="22.192179" lon="113.54432967">
    <ele>16</ele>
    <time>2025-01-29T05:24:38Z</time>
    <extensions>
     <gpxtpx:TrackPointExtension>
      <gpxtpx:hr>74</gpxtpx:hr>
     </gpxtpx:TrackPointExtension>
    </extensions>
   </trkpt>
<trkpt lat="22.19217567" lon="113.54432367">
    <ele>16</ele>
    <time>2025-01-29T05:24:39Z</time>
    <extensions>
     <gpxtpx:TrackPointExtension>
      <gpxtpx:hr>74</gpxtpx:hr>
     </gpxtpx:TrackPointExtension>
    </extensions>
   </trkpt>
<trkpt lat="22.19217267" lon="113.54431667">
    <ele>16</ele>
    <time>2025-01-29T05:24:40Z</time>
    <extensions>
     <gpxtpx:TrackPointExtension>
      <gpxtpx:hr>74</gpxtpx:hr>
     </gpxtpx:TrackPointExtension>
    </extensions>
   </trkpt>
<trkpt lat="22.19217033" lon="113.544309">
    <ele>16</ele>
    <time>2025-01-29T05:24:41Z</time>
    <extensions>
     <gpxtpx:TrackPointExtension>
      <gpxtpx:hr>74</gpxtpx:hr>
     </gpxtpx:TrackPointExtension>
    </extensions>
   </trkpt>
<trkpt lat="22.19216833" lon="113.5443">
    <ele>16</ele>
    <time>2025-01-29T05:24:42Z</time>
    <extensions>
     <gpxtpx:TrackPointExtension>
      <gpxtpx:hr>74</gpxtpx:hr>
     </gpxtpx:TrackPointExtension>
    </extensions>
   </trkpt>
<trkpt lat="22.192167" lon="113.54428933">
    <ele>16</ele>
    <time>2025-01-29T05:24:43Z</time>
    <extensions>
     <gpxtpx:TrackPointExtension>
      <gpxtpx:hr>74</gpxtpx:hr>
     </gpxtpx:TrackPointExtension>
    </extensions>
   </trkpt>
<trkpt lat="22.19216533" lon="113.54427833">
    <ele>16</ele>
    <time>2025-01-29T05:24:44Z</time>
    <extensions>
     <gpxtpx:TrackPointExtension>
      <gpxtpx:hr>74</gpxtpx:hr>
     </gpxtpx:TrackPointExtension>
    </extensions>
   </trkpt>
<trkpt lat="22.192162" lon="113.54426867">
    <ele>16</ele>
    <time>2025-01-29T05:24:45Z</time>
    <extensions>
     <gpxtpx:TrackPointExtension>
      <gpxtpx:hr>74</gpxtpx:hr>
     </gpxtpx:TrackPointExtension>
    </extensions>
   </trkpt>
<trkpt lat="22.19215667" lon="113.54425933">
    <ele>16</ele>
    <time>2025-01-29T05:24:46Z</time>
    <extensions>
     <gpxtpx:TrackPointExtension>
      <gpxtpx:hr>74</gpxtpx:hr>
     </gpxtpx:TrackPointExtension>
    </extensions>
   </trkpt>
<trkpt lat="22.19215067" lon="113.54425067">
    <ele>16</ele>
    <time>2025-01-29T05:24:47Z</time>
    <extensions>
     <gpxtpx:TrackPointExtension>
      <gpxtpx:hr>74</gpxtpx:hr>
     </gpxtpx:TrackPointExtension>
    </extensions>
   </trkpt>
<trkpt lat="22.19214433" lon="113.544243">
    <ele>16</ele>
    <time>2025-01-29T05:24:48Z</time>
    <extensions>
     <gpxtpx:TrackPointExtension>
      <gpxtpx:hr>74</gpxtpx:hr>
     </gpxtpx:TrackPointExtension>
    </extensions>
   </trkpt>
<trkpt lat="22.19213867" lon="113.54423633">
    <ele>16</ele>
    <time>2025-01-29T05:24:49Z</time>
    <extensions>
     <gpxtpx:TrackPointExtension>
      <gpxtpx:hr>74</gpxtpx:hr>
     </gpxtpx:TrackPointExtension>
    </extensions>
   </trkpt>
<trkpt lat="22.19213333" lon="113.54423033">
    <ele>16</ele>
    <time>2025-01-29T05:24:50Z</time>
    <extensions>
     <gpxtpx:TrackPointExtension>
      <gpxtpx:hr>74</gpxtpx:hr>
     </gpxtpx:TrackPointExtension>
    </extensions>
   </trkpt>
<trkpt lat="22.19212867" lon="113.54422467">
    <ele>16</ele>
    <time>2025-01-29T05:24:51Z</time>
    <extensions>
     <gpxtpx:TrackPointExtension>
      <gpxtpx:hr>75</gpxtpx:hr>
     </gpxtpx:TrackPointExtension>
    </extensions>
   </trkpt>
<trkpt lat="22.192124" lon="113.54421933">
    <ele>16</ele>
    <time>2025-01-29T05:24:52Z</time>
    <extensions>
     <gpxtpx:TrackPointExtension>
      <gpxtpx:hr>75</gpxtpx:hr>
     </gpxtpx:TrackPointExtension>
    </extensions>
   </trkpt>
<trkpt lat="22.19212033" lon="113.54421433">
    <ele>16</ele>
    <time>2025-01-29T05:24:53Z</time>
    <extensions>
     <gpxtpx:TrackPointExtension>
      <gpxtpx:hr>75</gpxtpx:hr>
     </gpxtpx:TrackPointExtension>
    </extensions>
   </trkpt>
<trkpt lat="22.19211567" lon="113.544208">
    <ele>16</ele>
    <time>2025-01-29T05:24:54Z</time>
    <extensions>
     <gpxtpx:TrackPointExtension>
      <gpxtpx:hr>76</gpxtpx:hr>
     </gpxtpx:TrackPointExtension>
    </extensions>
   </trkpt>
<trkpt lat="22.19211" lon="113.54420133">
    <ele>16</ele>
    <time>2025-01-29T05:24:55Z</time>
    <extensions>
     <gpxtpx:TrackPointExtension>
      <gpxtpx:hr>77</gpxtpx:hr>
     </gpxtpx:TrackPointExtension>
    </extensions>
   </trkpt>
<trkpt lat="22.19210367" lon="113.54419433">
    <ele>16</ele>
    <time>2025-01-29T05:24:56Z</time>
    <extensions>
     <gpxtpx:TrackPointExtension>
      <gpxtpx:hr>77</gpxtpx:hr>
     </gpxtpx:TrackPointExtension>
    </extensions>
   </trkpt>
<trkpt lat="22.19209567" lon="113.54418833">
    <ele>16</ele>
    <time>2025-01-29T05:24:57Z</time>
    <extensions>
     <gpxtpx:TrackPointExtension>
      <gpxtpx:hr>77</gpxtpx:hr>
     </gpxtpx:TrackPointExtension>
    </extensions>
   </trkpt>
<trkpt lat="22.19208633" lon="113.544184">
    <ele>15</ele>
    <time>2025-01-29T05:24:58Z</time>
    <extensions>
     <gpxtpx:TrackPointExtension>
      <gpxtpx:hr>77</gpxtpx:hr>
     </gpxtpx:TrackPointExtension>
    </extensions>
   </trkpt>
<trkpt lat="22.192077" lon="113.54418067">
    <ele>15</ele>
    <time>2025-01-29T05:24:59Z</time>
    <extensions>
     <gpxtpx:TrackPointExtension>
      <gpxtpx:hr>77</gpxtpx:hr>
     </gpxtpx:TrackPointExtension>
    </extensions>
   </trkpt>
<trkpt lat="22.19206733" lon="113.54417767">
    <ele>15</ele>
    <time>2025-01-29T05:25:00Z</time>
    <extensions>
     <gpxtpx:TrackPointExtension>
      <gpxtpx:hr>78</gpxtpx:hr>
     </gpxtpx:TrackPointExtension>
    </extensions>
   </trkpt>
<trkpt lat="22.19205733" lon="113.544175">
    <ele>15</ele>
    <time>2025-01-29T05:25:01Z</time>
    <extensions>
     <gpxtpx:TrackPointExtension>
      <gpxtpx:hr>78</gpxtpx:hr>
     </gpxtpx:TrackPointExtension>
    </extensions>
   </trkpt>
<trkpt lat="22.19204767" lon="113.54417267">
    <ele>15</ele>
    <time>2025-01-29T05:25:02Z</time>
    <extensions>
     <gpxtpx:TrackPointExtension>
      <gpxtpx:hr>78</gpxtpx:hr>
     </gpxtpx:TrackPointExtension>
    </extensions>
   </trkpt>
<trkpt lat="22.19203867" lon="113.54417067">
    <ele>15</ele>
    <time>2025-01-29T05:25:03Z</time>
    <extensions>
     <gpxtpx:TrackPointExtension>
      <gpxtpx:hr>78</gpxtpx:hr>
     </gpxtpx:TrackPointExtension>
    </extensions>
   </trkpt>
<trkpt lat="22.19203033" lon="113.54416933">
    <ele>15</ele>
    <time>2025-01-29T05:25:04Z</time>
    <extensions>
     <gpxtpx:TrackPointExtension>
      <gpxtpx:hr>78</gpxtpx:hr>
     </gpxtpx:TrackPointExtension>
    </extensions>
   </trkpt>
<trkpt lat="22.192022" lon="113.54416933">
    <ele>15</ele>
    <time>2025-01-29T05:25:05Z</time>
    <extensions>
     <gpxtpx:TrackPointExtension>
      <gpxtpx:hr>78</gpxtpx:hr>
     </gpxtpx:TrackPointExtension>
    </extensions>
   </trkpt>
<trkpt lat="22.19201433" lon="113.54416967">
    <ele>15</ele>
    <time>2025-01-29T05:25:06Z</time>
    <extensions>
     <gpxtpx:TrackPointExtension>
      <gpxtpx:hr>78</gpxtpx:hr>
     </gpxtpx:TrackPointExtension>
    </extensions>
   </trkpt>
<trkpt lat="22.19200667" lon="113.54417">
    <ele>15</ele>
    <time>2025-01-29T05:25:07Z</time>
    <extensions>
     <gpxtpx:TrackPointExtension>
      <gpxtpx:hr>79</gpxtpx:hr>
     </gpxtpx:TrackPointExtension>
    </extensions>
   </trkpt>
<trkpt lat="22.192" lon="113.54416967">
    <ele>15</ele>
    <time>2025-01-29T05:25:08Z</time>
    <extensions>
     <gpxtpx:TrackPointExtension>
      <gpxtpx:hr>79</gpxtpx:hr>
     </gpxtpx:TrackPointExtension>
    </extensions>
   </trkpt>
<trkpt lat="22.19199367" lon="113.54416933">
    <ele>15</ele>
    <time>2025-01-29T05:25:09Z</time>
    <extensions>
     <gpxtpx:TrackPointExtension>
      <gpxtpx:hr>79</gpxtpx:hr>
     </gpxtpx:TrackPointExtension>
    </extensions>
   </trkpt>
<trkpt lat="22.191987" lon="113.54416867">
    <ele>15</ele>
    <time>2025-01-29T05:25:10Z</time>
    <extensions>
     <gpxtpx:TrackPointExtension>
      <gpxtpx:hr>79</gpxtpx:hr>
     </gpxtpx:TrackPointExtension>
    </extensions>
   </trkpt>
<trkpt lat="22.19198133" lon="113.544168">
    <ele>15</ele>
    <time>2025-01-29T05:25:11Z</time>
    <extensions>
     <gpxtpx:TrackPointExtension>
      <gpxtpx:hr>79</gpxtpx:hr>
     </gpxtpx:TrackPointExtension>
    </extensions>
   </trkpt>
<trkpt lat="22.19197633" lon="113.544167">
    <ele>15</ele>
    <time>2025-01-29T05:25:12Z</time>
    <extensions>
     <gpxtpx:TrackPointExtension>
      <gpxtpx:hr>79</gpxtpx:hr>
     </gpxtpx:TrackPointExtension>
    </extensions>
   </trkpt>
<trkpt lat="22.19197167" lon="113.544165">
    <ele>15</ele>
    <time>2025-01-29T05:25:13Z</time>
    <extensions>
     <gpxtpx:TrackPointExtension>
      <gpxtpx:hr>79</gpxtpx:hr>
     </gpxtpx:TrackPointExtension>
    </extensions>
   </trkpt>
<trkpt lat="22.191968" lon="113.544163">
    <ele>15</ele>
    <time>2025-01-29T05:25:14Z</time>
    <extensions>
     <gpxtpx:TrackPointExtension>
      <gpxtpx:hr>79</gpxtpx:hr>
     </gpxtpx:TrackPointExtension>
    </extensions>
   </trkpt>
<trkpt lat="22.19196533" lon="113.54416067">
    <ele>15</ele>
    <time>2025-01-29T05:25:15Z</time>
    <extensions>
     <gpxtpx:TrackPointExtension>
      <gpxtpx:hr>80</gpxtpx:hr>
     </gpxtpx:TrackPointExtension>
    </extensions>
   </trkpt>
<trkpt lat="22.19196167" lon="113.54415767">
    <ele>15</ele>
    <time>2025-01-29T05:25:16Z</time>
    <extensions>
     <gpxtpx:TrackPointExtension>
      <gpxtpx:hr>81</gpxtpx:hr>
     </gpxtpx:TrackPointExtension>
    </extensions>
   </trkpt>
<trkpt lat="22.191957" lon="113.544154">
    <ele>15</ele>
    <time>2025-01-29T05:25:17Z</time>
    <extensions>
     <gpxtpx:TrackPointExtension>
      <gpxtpx:hr>81</gpxtpx:hr>
     </gpxtpx:TrackPointExtension>
    </extensions>
   </trkpt>
<trkpt lat="22.19195067" lon="113.54414933">
    <ele>15</ele>
    <time>2025-01-29T05:25:18Z</time>
    <extensions>
     <gpxtpx:TrackPointExtension>
      <gpxtpx:hr>81</gpxtpx:hr>
     </gpxtpx:TrackPointExtension>
    </extensions>
   </trkpt>
<trkpt lat="22.19194367" lon="113.54414467">
    <ele>15</ele>
    <time>2025-01-29T05:25:19Z</time>
    <extensions>
     <gpxtpx:TrackPointExtension>
      <gpxtpx:hr>80</gpxtpx:hr>
     </gpxtpx:TrackPointExtension>
    </extensions>
   </trkpt>
<trkpt lat="22.191936" lon="113.54414">
    <ele>15</ele>
    <time>2025-01-29T05:25:20Z</time>
    <extensions>
     <gpxtpx:TrackPointExtension>
      <gpxtpx:hr>79</gpxtpx:hr>
     </gpxtpx:TrackPointExtension>
    </extensions>
   </trkpt>
<trkpt lat="22.191928" lon="113.544136">
    <ele>15</ele>
    <time>2025-01-29T05:25:21Z</time>
    <extensions>
     <gpxtpx:TrackPointExtension>
      <gpxtpx:hr>79</gpxtpx:hr>
     </gpxtpx:TrackPointExtension>
    </extensions>
   </trkpt>
<trkpt lat="22.19191867" lon="113.544133">
    <ele>15</ele>
    <time>2025-01-29T05:25:22Z</time>
    <extensions>
     <gpxtpx:TrackPointExtension>
      <gpxtpx:hr>79</gpxtpx:hr>
     </gpxtpx:TrackPointExtension>
    </extensions>
   </trkpt>
<trkpt lat="22.19190833" lon="113.54413033">
    <ele>15</ele>
    <time>2025-01-29T05:25:23Z</time>
    <extensions>
     <gpxtpx:TrackPointExtension>
      <gpxtpx:hr>79</gpxtpx:hr>
     </gpxtpx:TrackPointExtension>
    </extensions>
   </trkpt>
<trkpt lat="22.19189767" lon="113.544129">
    <ele>15</ele>
    <time>2025-01-29T05:25:24Z</time>
    <extensions>
     <gpxtpx:TrackPointExtension>
      <gpxtpx:hr>79</gpxtpx:hr>
     </gpxtpx:TrackPointExtension>
    </extensions>
   </trkpt>
<trkpt lat="22.19188633" lon="113.54412833">
    <ele>15</ele>
    <time>2025-01-29T05:25:25Z</time>
    <extensions>
     <gpxtpx:TrackPointExtension>
      <gpxtpx:hr>78</gpxtpx:hr>
     </gpxtpx:TrackPointExtension>
    </extensions>
   </trkpt>
<trkpt lat="22.19187533" lon="113.544128">
    <ele>15</ele>
    <time>2025-01-29T05:25:26Z</time>
    <extensions>
     <gpxtpx:TrackPointExtension>
      <gpxtpx:hr>78</gpxtpx:hr>
     </gpxtpx:TrackPointExtension>
    </extensions>
   </trkpt>
<trkpt lat="22.19186533" lon="113.54412733">
    <ele>15</ele>
    <time>2025-01-29T05:25:27Z</time>
    <extensions>
     <gpxtpx:TrackPointExtension>
      <gpxtpx:hr>78</gpxtpx:hr>
     </gpxtpx:TrackPointExtension>
    </extensions>
   </trkpt>
<trkpt lat="22.19185767" lon="113.54412433">
    <ele>15</ele>
    <time>2025-01-29T05:25:28Z</time>
    <extensions>
     <gpxtpx:TrackPointExtension>
      <gpxtpx:hr>77</gpxtpx:hr>
     </gpxtpx:TrackPointExtension>
    </extensions>
   </trkpt>
<trkpt lat="22.19185167" lon="113.544121">
    <ele>15</ele>
    <time>2025-01-29T05:25:29Z</time>
    <extensions>
     <gpxtpx:TrackPointExtension>
      <gpxtpx:hr>77</gpxtpx:hr>
     </gpxtpx:TrackPointExtension>
    </extensions>
   </trkpt>
<trkpt lat="22.19184667" lon="113.544118">
    <ele>15</ele>
    <time>2025-01-29T05:25:30Z</time>
    <extensions>
     <gpxtpx:TrackPointExtension>
      <gpxtpx:hr>77</gpxtpx:hr>
     </gpxtpx:TrackPointExtension>
    </extensions>
   </trkpt>
<trkpt lat="22.19184233" lon="113.54411533">
    <ele>15</ele>
    <time>2025-01-29T05:25:31Z</time>
    <extensions>
     <gpxtpx:TrackPointExtension>
      <gpxtpx:hr>77</gpxtpx:hr>
     </gpxtpx:TrackPointExtension>
    </extensions>
   </trkpt>
<trkpt lat="22.191838" lon="113.54411267">
    <ele>15</ele>
    <time>2025-01-29T05:25:32Z</time>
    <extensions>
     <gpxtpx:TrackPointExtension>
      <gpxtpx:hr>77</gpxtpx:hr>
     </gpxtpx:TrackPointExtension>
    </extensions>
   </trkpt>
<trkpt lat="22.19183433" lon="113.54411033">
    <ele>15</ele>
    <time>2025-01-29T05:25:33Z</time>
    <extensions>
     <gpxtpx:TrackPointExtension>
      <gpxtpx:hr>78</gpxtpx:hr>
     </gpxtpx:TrackPointExtension>
    </extensions>
   </trkpt>
<trkpt lat="22.19183" lon="113.544108">
    <ele>15</ele>
    <time>2025-01-29T05:25:34Z</time>
    <extensions>
     <gpxtpx:TrackPointExtension>
      <gpxtpx:hr>78</gpxtpx:hr>
     </gpxtpx:TrackPointExtension>
    </extensions>
   </trkpt>
<trkpt lat="22.19182467" lon="113.54410533">
    <ele>15</ele>
    <time>2025-01-29T05:25:35Z</time>
    <extensions>
     <gpxtpx:TrackPointExtension>
      <gpxtpx:hr>78</gpxtpx:hr>
     </gpxtpx:TrackPointExtension>
    </extensions>
   </trkpt>
<trkpt lat="22.19181967" lon="113.54410133">
    <ele>15</ele>
    <time>2025-01-29T05:25:36Z</time>
    <extensions>
     <gpxtpx:TrackPointExtension>
      <gpxtpx:hr>78</gpxtpx:hr>
     </gpxtpx:TrackPointExtension>
    </extensions>
   </trkpt>
<trkpt lat="22.19181467" lon="113.54409467">
    <ele>15</ele>
    <time>2025-01-29T05:25:37Z</time>
    <extensions>
     <gpxtpx:TrackPointExtension>
      <gpxtpx:hr>78</gpxtpx:hr>
     </gpxtpx:TrackPointExtension>
    </extensions>
   </trkpt>
<trkpt lat="22.19180733" lon="113.544086">
    <ele>15</ele>
    <time>2025-01-29T05:25:38Z</time>
    <extensions>
     <gpxtpx:TrackPointExtension>
      <gpxtpx:hr>78</gpxtpx:hr>
     </gpxtpx:TrackPointExtension>
    </extensions>
   </trkpt>
<trkpt lat="22.191798" lon="113.54407667">
    <ele>15</ele>
    <time>2025-01-29T05:25:39Z</time>
    <extensions>
     <gpxtpx:TrackPointExtension>
      <gpxtpx:hr>79</gpxtpx:hr>
     </gpxtpx:TrackPointExtension>
    </extensions>
   </trkpt>
<trkpt lat="22.19178733" lon="113.54406767">
    <ele>15</ele>
    <time>2025-01-29T05:25:40Z</time>
    <extensions>
     <gpxtpx:TrackPointExtension>
      <gpxtpx:hr>79</gpxtpx:hr>
     </gpxtpx:TrackPointExtension>
    </extensions>
   </trkpt>
<trkpt lat="22.191776" lon="113.54405867">
    <ele>15</ele>
    <time>2025-01-29T05:25:41Z</time>
    <extensions>
     <gpxtpx:TrackPointExtension>
      <gpxtpx:hr>79</gpxtpx:hr>
     </gpxtpx:TrackPointExtension>
    </extensions>
   </trkpt>
<trkpt lat="22.191765" lon="113.54405067">
    <ele>15</ele>
    <time>2025-01-29T05:25:42Z</time>
    <extensions>
     <gpxtpx:TrackPointExtension>
      <gpxtpx:hr>79</gpxtpx:hr>
     </gpxtpx:TrackPointExtension>
    </extensions>
   </trkpt>
<trkpt lat="22.19175467" lon="113.544044">
    <ele>15</ele>
    <time>2025-01-29T05:25:43Z</time>
    <extensions>
     <gpxtpx:TrackPointExtension>
      <gpxtpx:hr>80</gpxtpx:hr>
     </gpxtpx:TrackPointExtension>
    </extensions>
   </trkpt>
<trkpt lat="22.19174433" lon="113.54403867">
    <ele>15</ele>
    <time>2025-01-29T05:25:44Z</time>
    <extensions>
     <gpxtpx:TrackPointExtension>
      <gpxtpx:hr>81</gpxtpx:hr>
     </gpxtpx:TrackPointExtension>
    </extensions>
   </trkpt>
<trkpt lat="22.19173367" lon="113.544035">
    <ele>15</ele>
    <time>2025-01-29T05:25:45Z</time>
    <extensions>
     <gpxtpx:TrackPointExtension>
      <gpxtpx:hr>82</gpxtpx:hr>
     </gpxtpx:TrackPointExtension>
    </extensions>
   </trkpt>
<trkpt lat="22.19172267" lon="113.54403233">
    <ele>15</ele>
    <time>2025-01-29T05:25:46Z</time>
    <extensions>
     <gpxtpx:TrackPointExtension>
      <gpxtpx:hr>83</gpxtpx:hr>
     </gpxtpx:TrackPointExtension>
    </extensions>
   </trkpt>
<trkpt lat="22.191712" lon="113.544031">
    <ele>15</ele>
    <time>2025-01-29T05:25:47Z</time>
    <extensions>
     <gpxtpx:TrackPointExtension>
      <gpxtpx:hr>83</gpxtpx:hr>
     </gpxtpx:TrackPointExtension>
    </extensions>
   </trkpt>
<trkpt lat="22.191701" lon="113.54402933">
    <ele>15</ele>
    <time>2025-01-29T05:25:48Z</time>
    <extensions>
     <gpxtpx:TrackPointExtension>
      <gpxtpx:hr>84</gpxtpx:hr>
     </gpxtpx:TrackPointExtension>
    </extensions>
   </trkpt>
<trkpt lat="22.19168967" lon="113.54402833">
    <ele>15</ele>
    <time>2025-01-29T05:25:49Z</time>
    <extensions>
     <gpxtpx:TrackPointExtension>
      <gpxtpx:hr>85</gpxtpx:hr>
     </gpxtpx:TrackPointExtension>
    </extensions>
   </trkpt>
<trkpt lat="22.19168" lon="113.54402767">
    <ele>15</ele>
    <time>2025-01-29T05:25:50Z</time>
    <extensions>
     <gpxtpx:TrackPointExtension>
      <gpxtpx:hr>84</gpxtpx:hr>
     </gpxtpx:TrackPointExtension>
    </extensions>
   </trkpt>
<trkpt lat="22.19167233" lon="113.54402633">
    <ele>15</ele>
    <time>2025-01-29T05:25:51Z</time>
    <extensions>
     <gpxtpx:TrackPointExtension>
      <gpxtpx:hr>83</gpxtpx:hr>
     </gpxtpx:TrackPointExtension>
    </extensions>
   </trkpt>
<trkpt lat="22.19166767" lon="113.54402367">
    <ele>15</ele>
    <time>2025-01-29T05:25:52Z</time>
    <extensions>
     <gpxtpx:TrackPointExtension>
      <gpxtpx:hr>82</gpxtpx:hr>
     </gpxtpx:TrackPointExtension>
    </extensions>
   </trkpt>
<trkpt lat="22.19166533" lon="113.54402067">
    <ele>15</ele>
    <time>2025-01-29T05:25:53Z</time>
    <extensions>
     <gpxtpx:TrackPointExtension>
      <gpxtpx:hr>82</gpxtpx:hr>
     </gpxtpx:TrackPointExtension>
    </extensions>
   </trkpt>
<trkpt lat="22.19166333" lon="113.544018">
    <ele>15</ele>
    <time>2025-01-29T05:25:54Z</time>
    <extensions>
     <gpxtpx:TrackPointExtension>
      <gpxtpx:hr>81</gpxtpx:hr>
     </gpxtpx:TrackPointExtension>
    </extensions>
   </trkpt>
<trkpt lat="22.191662" lon="113.54401633">
    <ele>15</ele>
    <time>2025-01-29T05:25:55Z</time>
    <extensions>
     <gpxtpx:TrackPointExtension>
      <gpxtpx:hr>81</gpxtpx:hr>
     </gpxtpx:TrackPointExtension>
    </extensions>
   </trkpt>
<trkpt lat="22.191661" lon="113.544014">
    <ele>15</ele>
    <time>2025-01-29T05:25:56Z</time>
    <extensions>
     <gpxtpx:TrackPointExtension>
      <gpxtpx:hr>82</gpxtpx:hr>
     </gpxtpx:TrackPointExtension>
    </extensions>
   </trkpt>
<trkpt lat="22.19166067" lon="113.54401">
    <ele>15</ele>
    <time>2025-01-29T05:25:57Z</time>
    <extensions>
     <gpxtpx:TrackPointExtension>
      <gpxtpx:hr>82</gpxtpx:hr>
     </gpxtpx:TrackPointExtension>
    </extensions>
   </trkpt>
<trkpt lat="22.19166067" lon="113.54400567">
    <ele>15</ele>
    <time>2025-01-29T05:25:58Z</time>
    <extensions>
     <gpxtpx:TrackPointExtension>
      <gpxtpx:hr>82</gpxtpx:hr>
     </gpxtpx:TrackPointExtension>
    </extensions>
   </trkpt>
<trkpt lat="22.19166167" lon="113.54400167">
    <ele>15</ele>
    <time>2025-01-29T05:25:59Z</time>
    <extensions>
     <gpxtpx:TrackPointExtension>
      <gpxtpx:hr>82</gpxtpx:hr>
     </gpxtpx:TrackPointExtension>
    </extensions>
   </trkpt>
<trkpt lat="22.19166467" lon="113.54399767">
    <ele>15</ele>
    <time>2025-01-29T05:26:00Z</time>
    <extensions>
     <gpxtpx:TrackPointExtension>
      <gpxtpx:hr>82</gpxtpx:hr>
     </gpxtpx:TrackPointExtension>
    </extensions>
   </trkpt>
<trkpt lat="22.19167" lon="113.54399433">
    <ele>15</ele>
    <time>2025-01-29T05:26:01Z</time>
    <extensions>
     <gpxtpx:TrackPointExtension>
      <gpxtpx:hr>82</gpxtpx:hr>
     </gpxtpx:TrackPointExtension>
    </extensions>
   </trkpt>
<trkpt lat="22.191676" lon="113.543992">
    <ele>15</ele>
    <time>2025-01-29T05:26:02Z</time>
    <extensions>
     <gpxtpx:TrackPointExtension>
      <gpxtpx:hr>81</gpxtpx:hr>
     </gpxtpx:TrackPointExtension>
    </extensions>
   </trkpt>
<trkpt lat="22.19168333" lon="113.543989">
    <ele>15</ele>
    <time>2025-01-29T05:26:03Z</time>
    <extensions>
     <gpxtpx:TrackPointExtension>
      <gpxtpx:hr>81</gpxtpx:hr>
     </gpxtpx:TrackPointExtension>
    </extensions>
   </trkpt>
<trkpt lat="22.19169033" lon="113.54398567">
    <ele>15</ele>
    <time>2025-01-29T05:26:04Z</time>
    <extensions>
     <gpxtpx:TrackPointExtension>
      <gpxtpx:hr>81</gpxtpx:hr>
     </gpxtpx:TrackPointExtension>
    </extensions>
   </trkpt>
<trkpt lat="22.19169767" lon="113.54398267">
    <ele>15</ele>
    <time>2025-01-29T05:26:05Z</time>
    <extensions>
     <gpxtpx:TrackPointExtension>
      <gpxtpx:hr>81</gpxtpx:hr>
     </gpxtpx:TrackPointExtension>
    </extensions>
   </trkpt>
<trkpt lat="22.191705" lon="113.54397933">
    <ele>15</ele>
    <time>2025-01-29T05:26:06Z</time>
    <extensions>
     <gpxtpx:TrackPointExtension>
      <gpxtpx:hr>81</gpxtpx:hr>
     </gpxtpx:TrackPointExtension>
    </extensions>
   </trkpt>
<trkpt lat="22.19171333" lon="113.54397767">
    <ele>15</ele>
    <time>2025-01-29T05:26:07Z</time>
    <extensions>
     <gpxtpx:TrackPointExtension>
      <gpxtpx:hr>82</gpxtpx:hr>
     </gpxtpx:TrackPointExtension>
    </extensions>
   </trkpt>
<trkpt lat="22.19172233" lon="113.543977">
    <ele>15</ele>
    <time>2025-01-29T05:26:08Z</time>
    <extensions>
     <gpxtpx:TrackPointExtension>
      <gpxtpx:hr>83</gpxtpx:hr>
     </gpxtpx:TrackPointExtension>
    </extensions>
   </trkpt>
<trkpt lat="22.191731" lon="113.54397633">
    <ele>15</ele>
    <time>2025-01-29T05:26:09Z</time>
    <extensions>
     <gpxtpx:TrackPointExtension>
      <gpxtpx:hr>83</gpxtpx:hr>
     </gpxtpx:TrackPointExtension>
    </extensions>
   </trkpt>
<trkpt lat="22.19174033" lon="113.54397567">
    <ele>15</ele>
    <time>2025-01-29T05:26:10Z</time>
    <extensions>
     <gpxtpx:TrackPointExtension>
      <gpxtpx:hr>83</gpxtpx:hr>
     </gpxtpx:TrackPointExtension>
    </extensions>
   </trkpt>
<trkpt lat="22.19175067" lon="113.543972">
    <ele>15</ele>
    <time>2025-01-29T05:26:11Z</time>
    <extensions>
     <gpxtpx:TrackPointExtension>
      <gpxtpx:hr>84</gpxtpx:hr>
     </gpxtpx:TrackPointExtension>
    </extensions>
   </trkpt>
<trkpt lat="22.191761" lon="113.54396667">
    <ele>15</ele>
    <time>2025-01-29T05:26:12Z</time>
    <extensions>
     <gpxtpx:TrackPointExtension>
      <gpxtpx:hr>85</gpxtpx:hr>
     </gpxtpx:TrackPointExtension>
    </extensions>
   </trkpt>
<trkpt lat="22.19177067" lon="113.54396033">
    <ele>15</ele>
    <time>2025-01-29T05:26:13Z</time>
    <extensions>
     <gpxtpx:TrackPointExtension>
      <gpxtpx:hr>85</gpxtpx:hr>
     </gpxtpx:TrackPointExtension>
    </extensions>
   </trkpt>
<trkpt lat="22.19177967" lon="113.543954">
    <ele>15</ele>
    <time>2025-01-29T05:26:14Z</time>
    <extensions>
     <gpxtpx:TrackPointExtension>
      <gpxtpx:hr>86</gpxtpx:hr>
     </gpxtpx:TrackPointExtension>
    </extensions>
   </trkpt>
<trkpt lat="22.19178767" lon="113.54394733">
    <ele>15</ele>
    <time>2025-01-29T05:26:15Z</time>
    <extensions>
     <gpxtpx:TrackPointExtension>
      <gpxtpx:hr>85</gpxtpx:hr>
     </gpxtpx:TrackPointExtension>
    </extensions>
   </trkpt>
<trkpt lat="22.19179533" lon="113.54394067">
    <ele>15</ele>
    <time>2025-01-29T05:26:16Z</time>
    <extensions>
     <gpxtpx:TrackPointExtension>
      <gpxtpx:hr>84</gpxtpx:hr>
     </gpxtpx:TrackPointExtension>
    </extensions>
   </trkpt>
<trkpt lat="22.19180133" lon="113.54393467">
    <ele>15</ele>
    <time>2025-01-29T05:26:17Z</time>
    <extensions>
     <gpxtpx:TrackPointExtension>
      <gpxtpx:hr>83</gpxtpx:hr>
     </gpxtpx:TrackPointExtension>
    </extensions>
   </trkpt>
<trkpt lat="22.19180667" lon="113.54392933">
    <ele>15</ele>
    <time>2025-01-29T05:26:18Z</time>
    <extensions>
     <gpxtpx:TrackPointExtension>
      <gpxtpx:hr>83</gpxtpx:hr>
     </gpxtpx:TrackPointExtension>
    </extensions>
   </trkpt>
<trkpt lat="22.191811" lon="113.543925">
    <ele>15</ele>
    <time>2025-01-29T05:26:19Z</time>
    <extensions>
     <gpxtpx:TrackPointExtension>
      <gpxtpx:hr>83</gpxtpx:hr>
     </gpxtpx:TrackPointExtension>
    </extensions>
   </trkpt>
<trkpt lat="22.191814" lon="113.543922">
    <ele>15</ele>
    <time>2025-01-29T05:26:20Z</time>
    <extensions>
     <gpxtpx:TrackPointExtension>
      <gpxtpx:hr>83</gpxtpx:hr>
     </gpxtpx:TrackPointExtension>
    </extensions>
   </trkpt>
<trkpt lat="22.19181633" lon="113.54391967">
    <ele>15</ele>
    <time>2025-01-29T05:26:21Z</time>
    <extensions>
     <gpxtpx:TrackPointExtension>
      <gpxtpx:hr>84</gpxtpx:hr>
     </gpxtpx:TrackPointExtension>
    </extensions>
   </trkpt>
<trkpt lat="22.191818" lon="113.54391767">
    <ele>15</ele>
    <time>2025-01-29T05:26:22Z</time>
    <extensions>
     <gpxtpx:TrackPointExtension>
      <gpxtpx:hr>84</gpxtpx:hr>
     </gpxtpx:TrackPointExtension>
    </extensions>
   </trkpt>
<trkpt lat="22.19181933" lon="113.54391667">
    <ele>15</ele>
    <time>2025-01-29T05:26:23Z</time>
    <extensions>
     <gpxtpx:TrackPointExtension>
      <gpxtpx:hr>84</gpxtpx:hr>
     </gpxtpx:TrackPointExtension>
    </extensions>
   </trkpt>
<trkpt lat="22.19182033" lon="113.54391533">
    <ele>15</ele>
    <time>2025-01-29T05:26:25Z</time>
    <extensions>
     <gpxtpx:TrackPointExtension>
      <gpxtpx:hr>84</gpxtpx:hr>
     </gpxtpx:TrackPointExtension>
    </extensions>
   </trkpt>
</trkseg></trk>
</gpx>